<?xml version="1.0" encoding="UTF-8"?>
<gpx creator="StravaGPX" version="1.1" xmlns="http://www.topografix.com/GPX/1/1" xmlns:xsi="http://www.w3.org/2001/XMLSchema-instance" xsi:schemaLocation="http://www.topografix.com/GPX/1/1 http://www.topografix.com/GPX/1/1/gpx.xsd">
 <metadata>
  <name>Rua Carlos Dias Ribeiro-LGT-025-LGT-302</name>
  <author>
   <name>Felipe Desiderio</name>
  </author>
  <copyright author="OpenStreetMap contributors">
   <year>2020</year>
   <license>https://www.openstreetmap.org/copyright</license>
  </copyright>
 </metadata>
 <trk>
  <name>Rua Carlos Dias Ribeiro-LGT-025-LGT-302</name>
  <link href=""/>
  <type>trail_running</type>
  <trkseg>
   <trkpt lat="-19.640120000000003" lon="-43.874570000000006">
    <ele>800.88</ele>
   </trkpt>
   <trkpt lat="-19.63992" lon="-43.87413">
    <ele>805.9900000000001</ele>
   </trkpt>
   <trkpt lat="-19.63983" lon="-43.87409">
    <ele>806.4100000000001</ele>
   </trkpt>
   <trkpt lat="-19.63915000005852" lon="-43.87439500138076">
    <ele>802.1400000000001</ele>
   </trkpt>
   <trkpt lat="-19.63847" lon="-43.874700000000004">
    <ele>797.9900000000001</ele>
   </trkpt>
   <trkpt lat="-19.63801999997817" lon="-43.87491500067399">
    <ele>794.1400000000001</ele>
   </trkpt>
   <trkpt lat="-19.63757" lon="-43.875130000000006">
    <ele>793.39</ele>
   </trkpt>
   <trkpt lat="-19.637610000000002" lon="-43.874460000000006">
    <ele>798.6</ele>
   </trkpt>
   <trkpt lat="-19.637755001028335" lon="-43.87385500047417">
    <ele>802.32</ele>
   </trkpt>
   <trkpt lat="-19.637900000000002" lon="-43.873250000000006">
    <ele>806.0600000000001</ele>
   </trkpt>
   <trkpt lat="-19.63803" lon="-43.872350000000004">
    <ele>811.6300000000001</ele>
   </trkpt>
   <trkpt lat="-19.63829" lon="-43.871520000000004">
    <ele>817.96</ele>
   </trkpt>
   <trkpt lat="-19.6383" lon="-43.87131">
    <ele>820.52</ele>
   </trkpt>
   <trkpt lat="-19.63829" lon="-43.87082">
    <ele>824.2</ele>
   </trkpt>
   <trkpt lat="-19.6383" lon="-43.87064">
    <ele>825.61</ele>
   </trkpt>
   <trkpt lat="-19.63821" lon="-43.87032000000001">
    <ele>826.37</ele>
   </trkpt>
   <trkpt lat="-19.63840000096715" lon="-43.86973500062504">
    <ele>831.71</ele>
   </trkpt>
   <trkpt lat="-19.63859" lon="-43.869150000000005">
    <ele>834.6300000000001</ele>
   </trkpt>
   <trkpt lat="-19.63879" lon="-43.86858">
    <ele>837.67</ele>
   </trkpt>
   <trkpt lat="-19.6390500005722" lon="-43.86812000076668">
    <ele>839.89</ele>
   </trkpt>
   <trkpt lat="-19.639310000000002" lon="-43.86766">
    <ele>842.3600000000001</ele>
   </trkpt>
   <trkpt lat="-19.639460000635886" lon="-43.86716000064952">
    <ele>846.47</ele>
   </trkpt>
   <trkpt lat="-19.63961" lon="-43.86666">
    <ele>849.72</ele>
   </trkpt>
   <trkpt lat="-19.63969" lon="-43.866110000000006">
    <ele>852.6800000000001</ele>
   </trkpt>
   <trkpt lat="-19.63963" lon="-43.8656">
    <ele>857.4100000000001</ele>
   </trkpt>
   <trkpt lat="-19.63936" lon="-43.86496">
    <ele>866.0300000000001</ele>
   </trkpt>
   <trkpt lat="-19.639300000000002" lon="-43.864650000000005">
    <ele>866.8500000000001</ele>
   </trkpt>
   <trkpt lat="-19.63896" lon="-43.864140000000006">
    <ele>864.4600000000002</ele>
   </trkpt>
   <trkpt lat="-19.63894" lon="-43.86352">
    <ele>867.83</ele>
   </trkpt>
   <trkpt lat="-19.63885" lon="-43.86294">
    <ele>874.75</ele>
   </trkpt>
   <trkpt lat="-19.63886" lon="-43.8626">
    <ele>875.33</ele>
   </trkpt>
   <trkpt lat="-19.63903500072341" lon="-43.862085000588486">
    <ele>874.85</ele>
   </trkpt>
   <trkpt lat="-19.639210000000002" lon="-43.86157">
    <ele>869.7300000000001</ele>
   </trkpt>
   <trkpt lat="-19.639300000000002" lon="-43.86104">
    <ele>868.47</ele>
   </trkpt>
   <trkpt lat="-19.639180001332786" lon="-43.86034499947184">
    <ele>868.6800000000001</ele>
   </trkpt>
   <trkpt lat="-19.63906" lon="-43.85965">
    <ele>868.2400000000001</ele>
   </trkpt>
   <trkpt lat="-19.63878500148673" lon="-43.858899998532515">
    <ele>869.69</ele>
   </trkpt>
   <trkpt lat="-19.63851" lon="-43.85815">
    <ele>871.04</ele>
   </trkpt>
   <trkpt lat="-19.63803000100948" lon="-43.85752499804112">
    <ele>866.21</ele>
   </trkpt>
   <trkpt lat="-19.63755" lon="-43.8569">
    <ele>854.9300000000001</ele>
   </trkpt>
   <trkpt lat="-19.63736" lon="-43.8564">
    <ele>856.59</ele>
   </trkpt>
   <trkpt lat="-19.637230000000002" lon="-43.85587">
    <ele>860.7900000000001</ele>
   </trkpt>
   <trkpt lat="-19.6372" lon="-43.85499">
    <ele>853.94</ele>
   </trkpt>
   <trkpt lat="-19.63709" lon="-43.85457">
    <ele>855.23</ele>
   </trkpt>
   <trkpt lat="-19.637" lon="-43.8541">
    <ele>861.94</ele>
   </trkpt>
   <trkpt lat="-19.63699" lon="-43.85361">
    <ele>867.9300000000001</ele>
   </trkpt>
   <trkpt lat="-19.63690000136167" lon="-43.85291499982288">
    <ele>865.47</ele>
   </trkpt>
   <trkpt lat="-19.63681" lon="-43.85222">
    <ele>863.77</ele>
   </trkpt>
   <trkpt lat="-19.636850000000003" lon="-43.8519">
    <ele>864.82</ele>
   </trkpt>
   <trkpt lat="-19.6368" lon="-43.851710000000004">
    <ele>866.1500000000001</ele>
   </trkpt>
   <trkpt lat="-19.63642" lon="-43.85121">
    <ele>871.83</ele>
   </trkpt>
   <trkpt lat="-19.63597" lon="-43.850880000000004">
    <ele>879.0400000000001</ele>
   </trkpt>
   <trkpt lat="-19.63586" lon="-43.850860000000004">
    <ele>876.6400000000001</ele>
   </trkpt>
   <trkpt lat="-19.635450000000002" lon="-43.850880000000004">
    <ele>872.96</ele>
   </trkpt>
   <trkpt lat="-19.63481" lon="-43.85074">
    <ele>869.1200000000001</ele>
   </trkpt>
   <trkpt lat="-19.634510000000002" lon="-43.850590000000004">
    <ele>868.8800000000001</ele>
   </trkpt>
   <trkpt lat="-19.634320000000002" lon="-43.85047">
    <ele>867.77</ele>
   </trkpt>
   <trkpt lat="-19.63353" lon="-43.85038">
    <ele>858.21</ele>
   </trkpt>
   <trkpt lat="-19.63315" lon="-43.85049">
    <ele>855.31</ele>
   </trkpt>
   <trkpt lat="-19.63305" lon="-43.850570000000005">
    <ele>854.62</ele>
   </trkpt>
   <trkpt lat="-19.632700000295635" lon="-43.85095000094005">
    <ele>853.7800000000001</ele>
   </trkpt>
   <trkpt lat="-19.632350000000002" lon="-43.851330000000004">
    <ele>851.86</ele>
   </trkpt>
   <trkpt lat="-19.63202" lon="-43.851510000000005">
    <ele>847.21</ele>
   </trkpt>
   <trkpt lat="-19.63156" lon="-43.85159">
    <ele>841.8800000000001</ele>
   </trkpt>
   <trkpt lat="-19.630989999960814" lon="-43.85153499980025">
    <ele>837.3000000000001</ele>
   </trkpt>
   <trkpt lat="-19.63042" lon="-43.85148">
    <ele>835.37</ele>
   </trkpt>
   <trkpt lat="-19.62996" lon="-43.851510000000005">
    <ele>835.6000000000001</ele>
   </trkpt>
   <trkpt lat="-19.629360000000002" lon="-43.85148">
    <ele>831.2</ele>
   </trkpt>
   <trkpt lat="-19.62911" lon="-43.85155">
    <ele>832.4300000000001</ele>
   </trkpt>
   <trkpt lat="-19.62913" lon="-43.85179">
    <ele>834.86</ele>
   </trkpt>
   <trkpt lat="-19.6292" lon="-43.852000000000004">
    <ele>837.52</ele>
   </trkpt>
   <trkpt lat="-19.629170000000002" lon="-43.85222">
    <ele>839.5100000000001</ele>
   </trkpt>
   <trkpt lat="-19.62892" lon="-43.85244">
    <ele>841.7900000000001</ele>
   </trkpt>
   <trkpt lat="-19.62838" lon="-43.85282">
    <ele>844.62</ele>
   </trkpt>
   <trkpt lat="-19.628230000000002" lon="-43.85284">
    <ele>843.7800000000001</ele>
   </trkpt>
   <trkpt lat="-19.62772" lon="-43.85271">
    <ele>839.25</ele>
   </trkpt>
   <trkpt lat="-19.627580000000002" lon="-43.85273">
    <ele>838.76</ele>
   </trkpt>
   <trkpt lat="-19.62706" lon="-43.853">
    <ele>839.3100000000001</ele>
   </trkpt>
   <trkpt lat="-19.62676" lon="-43.85304000000001">
    <ele>838.25</ele>
   </trkpt>
   <trkpt lat="-19.6262" lon="-43.85291">
    <ele>835.89</ele>
   </trkpt>
   <trkpt lat="-19.625870000000003" lon="-43.852740000000004">
    <ele>833.1500000000001</ele>
   </trkpt>
   <trkpt lat="-19.62556" lon="-43.85255">
    <ele>830.64</ele>
   </trkpt>
   <trkpt lat="-19.62498000082443" lon="-43.85199499797187">
    <ele>827.71</ele>
   </trkpt>
   <trkpt lat="-19.6244" lon="-43.851440000000004">
    <ele>831.6500000000001</ele>
   </trkpt>
   <trkpt lat="-19.62413" lon="-43.8513">
    <ele>836.01</ele>
   </trkpt>
   <trkpt lat="-19.62367" lon="-43.85112">
    <ele>839.96</ele>
   </trkpt>
   <trkpt lat="-19.623260000000002" lon="-43.85085">
    <ele>832.0400000000001</ele>
   </trkpt>
   <trkpt lat="-19.6231" lon="-43.85061">
    <ele>827.49</ele>
   </trkpt>
   <trkpt lat="-19.623060000000002" lon="-43.85027">
    <ele>825.9200000000001</ele>
   </trkpt>
   <trkpt lat="-19.62281" lon="-43.84978">
    <ele>818.1600000000001</ele>
   </trkpt>
   <trkpt lat="-19.622680000000003" lon="-43.8496">
    <ele>817.1100000000001</ele>
   </trkpt>
   <trkpt lat="-19.62224" lon="-43.8494">
    <ele>814.5500000000001</ele>
   </trkpt>
   <trkpt lat="-19.62225" lon="-43.849410000000006">
    <ele>814.5500000000001</ele>
   </trkpt>
   <trkpt lat="-19.62197" lon="-43.84937">
    <ele>813.45</ele>
   </trkpt>
   <trkpt lat="-19.62179" lon="-43.84944">
    <ele>812.46</ele>
   </trkpt>
   <trkpt lat="-19.621660000000002" lon="-43.8496">
    <ele>811.8000000000001</ele>
   </trkpt>
   <trkpt lat="-19.62153" lon="-43.84978">
    <ele>811.4300000000001</ele>
   </trkpt>
   <trkpt lat="-19.62133" lon="-43.85">
    <ele>810.7500000000001</ele>
   </trkpt>
   <trkpt lat="-19.620990000000003" lon="-43.85034">
    <ele>810.9200000000001</ele>
   </trkpt>
   <trkpt lat="-19.62064" lon="-43.85054">
    <ele>812.42</ele>
   </trkpt>
   <trkpt lat="-19.62028" lon="-43.85063">
    <ele>811.35</ele>
   </trkpt>
   <trkpt lat="-19.619950000000003" lon="-43.85069">
    <ele>808.9000000000001</ele>
   </trkpt>
   <trkpt lat="-19.61961" lon="-43.85069">
    <ele>806.71</ele>
   </trkpt>
   <trkpt lat="-19.61923" lon="-43.85063">
    <ele>804.7900000000001</ele>
   </trkpt>
   <trkpt lat="-19.618850000000002" lon="-43.85052">
    <ele>803.5500000000001</ele>
   </trkpt>
   <trkpt lat="-19.6186" lon="-43.85038">
    <ele>802.8000000000001</ele>
   </trkpt>
   <trkpt lat="-19.61842" lon="-43.85032">
    <ele>802.5600000000001</ele>
   </trkpt>
   <trkpt lat="-19.618090000000002" lon="-43.85029">
    <ele>802.44</ele>
   </trkpt>
   <trkpt lat="-19.617710000000002" lon="-43.85043">
    <ele>802.6800000000001</ele>
   </trkpt>
   <trkpt lat="-19.61722000048705" lon="-43.85079500102366">
    <ele>800.75</ele>
   </trkpt>
   <trkpt lat="-19.61673" lon="-43.85116">
    <ele>794.2300000000001</ele>
   </trkpt>
   <trkpt lat="-19.61653" lon="-43.85128">
    <ele>793.0500000000001</ele>
   </trkpt>
   <trkpt lat="-19.61635" lon="-43.8513">
    <ele>791.1800000000001</ele>
   </trkpt>
   <trkpt lat="-19.61586" lon="-43.85119">
    <ele>788.82</ele>
   </trkpt>
   <trkpt lat="-19.6155" lon="-43.851060000000004">
    <ele>788.5000000000001</ele>
   </trkpt>
   <trkpt lat="-19.615270000000002" lon="-43.8509">
    <ele>789.44</ele>
   </trkpt>
   <trkpt lat="-19.61502" lon="-43.85079">
    <ele>790.0</ele>
   </trkpt>
   <trkpt lat="-19.61493" lon="-43.85087">
    <ele>791.2300000000001</ele>
   </trkpt>
   <trkpt lat="-19.614890000000003" lon="-43.85087">
    <ele>791.71</ele>
   </trkpt>
   <trkpt lat="-19.614720000000002" lon="-43.85081">
    <ele>794.33</ele>
   </trkpt>
   <trkpt lat="-19.61438" lon="-43.85085">
    <ele>800.66</ele>
   </trkpt>
   <trkpt lat="-19.61383" lon="-43.85112">
    <ele>812.33</ele>
   </trkpt>
   <trkpt lat="-19.61371" lon="-43.85123">
    <ele>815.4300000000001</ele>
   </trkpt>
   <trkpt lat="-19.61362" lon="-43.851330000000004">
    <ele>816.7700000000001</ele>
   </trkpt>
   <trkpt lat="-19.61344" lon="-43.8517">
    <ele>822.64</ele>
   </trkpt>
   <trkpt lat="-19.61344" lon="-43.85193">
    <ele>826.83</ele>
   </trkpt>
   <trkpt lat="-19.61336" lon="-43.85244">
    <ele>832.96</ele>
   </trkpt>
   <trkpt lat="-19.61334" lon="-43.85291">
    <ele>839.34</ele>
   </trkpt>
   <trkpt lat="-19.61325" lon="-43.853030000000004">
    <ele>840.61</ele>
   </trkpt>
   <trkpt lat="-19.613030000000002" lon="-43.852650000000004">
    <ele>840.7500000000001</ele>
   </trkpt>
   <trkpt lat="-19.61248" lon="-43.85215">
    <ele>840.1700000000001</ele>
   </trkpt>
   <trkpt lat="-19.6121" lon="-43.85197">
    <ele>840.16</ele>
   </trkpt>
   <trkpt lat="-19.61174" lon="-43.85188">
    <ele>840.4</ele>
   </trkpt>
   <trkpt lat="-19.61136" lon="-43.851960000000005">
    <ele>841.84</ele>
   </trkpt>
   <trkpt lat="-19.61118" lon="-43.85222">
    <ele>845.6600000000001</ele>
   </trkpt>
   <trkpt lat="-19.61109" lon="-43.85242">
    <ele>847.43</ele>
   </trkpt>
   <trkpt lat="-19.61102" lon="-43.85251">
    <ele>848.35</ele>
   </trkpt>
   <trkpt lat="-19.61083" lon="-43.85266">
    <ele>849.6400000000001</ele>
   </trkpt>
   <trkpt lat="-19.61071" lon="-43.85296">
    <ele>852.49</ele>
   </trkpt>
   <trkpt lat="-19.61073" lon="-43.85316">
    <ele>854.47</ele>
   </trkpt>
   <trkpt lat="-19.61081" lon="-43.853500000000004">
    <ele>854.86</ele>
   </trkpt>
   <trkpt lat="-19.61083" lon="-43.853640000000006">
    <ele>854.33</ele>
   </trkpt>
   <trkpt lat="-19.61052" lon="-43.85385">
    <ele>854.1500000000001</ele>
   </trkpt>
   <trkpt lat="-19.61025" lon="-43.85407">
    <ele>854.19</ele>
   </trkpt>
   <trkpt lat="-19.610030000000002" lon="-43.85432">
    <ele>854.72</ele>
   </trkpt>
   <trkpt lat="-19.60967" lon="-43.85475">
    <ele>855.48</ele>
   </trkpt>
   <trkpt lat="-19.60961" lon="-43.85497">
    <ele>853.3000000000001</ele>
   </trkpt>
   <trkpt lat="-19.60978" lon="-43.85517">
    <ele>848.16</ele>
   </trkpt>
   <trkpt lat="-19.60996" lon="-43.85562">
    <ele>842.32</ele>
   </trkpt>
   <trkpt lat="-19.61032" lon="-43.85611">
    <ele>838.84</ele>
   </trkpt>
   <trkpt lat="-19.61042" lon="-43.8564">
    <ele>835.32</ele>
   </trkpt>
   <trkpt lat="-19.61051" lon="-43.85692">
    <ele>827.7</ele>
   </trkpt>
   <trkpt lat="-19.610500000000002" lon="-43.85712">
    <ele>824.6800000000001</ele>
   </trkpt>
   <trkpt lat="-19.61034" lon="-43.85781">
    <ele>818.12</ele>
   </trkpt>
   <trkpt lat="-19.610500000000002" lon="-43.85712">
    <ele>824.6800000000001</ele>
   </trkpt>
   <trkpt lat="-19.61051" lon="-43.85692">
    <ele>827.7</ele>
   </trkpt>
   <trkpt lat="-19.61042" lon="-43.8564">
    <ele>835.32</ele>
   </trkpt>
   <trkpt lat="-19.61032" lon="-43.85611">
    <ele>838.84</ele>
   </trkpt>
   <trkpt lat="-19.60996" lon="-43.85562">
    <ele>842.32</ele>
   </trkpt>
   <trkpt lat="-19.60978" lon="-43.85517">
    <ele>848.9000000000001</ele>
   </trkpt>
   <trkpt lat="-19.60961" lon="-43.85497">
    <ele>853.3000000000001</ele>
   </trkpt>
   <trkpt lat="-19.60927500039397" lon="-43.85455499903499">
    <ele>860.33</ele>
   </trkpt>
   <trkpt lat="-19.60894" lon="-43.85414">
    <ele>859.92</ele>
   </trkpt>
   <trkpt lat="-19.60874" lon="-43.85399">
    <ele>858.59</ele>
   </trkpt>
   <trkpt lat="-19.60826" lon="-43.8539">
    <ele>856.11</ele>
   </trkpt>
   <trkpt lat="-19.60808" lon="-43.853790000000004">
    <ele>854.19</ele>
   </trkpt>
   <trkpt lat="-19.608" lon="-43.85365">
    <ele>852.9100000000001</ele>
   </trkpt>
   <trkpt lat="-19.60798" lon="-43.85349">
    <ele>851.99</ele>
   </trkpt>
   <trkpt lat="-19.60799" lon="-43.85336">
    <ele>849.5400000000001</ele>
   </trkpt>
   <trkpt lat="-19.60799" lon="-43.853210000000004">
    <ele>849.0000000000001</ele>
   </trkpt>
   <trkpt lat="-19.60791" lon="-43.85305">
    <ele>847.8500000000001</ele>
   </trkpt>
   <trkpt lat="-19.6078" lon="-43.85291">
    <ele>842.9200000000001</ele>
   </trkpt>
   <trkpt lat="-19.6076" lon="-43.85255">
    <ele>839.07</ele>
   </trkpt>
   <trkpt lat="-19.60745" lon="-43.8524">
    <ele>836.76</ele>
   </trkpt>
   <trkpt lat="-19.60736" lon="-43.85204">
    <ele>831.32</ele>
   </trkpt>
   <trkpt lat="-19.60726" lon="-43.85195">
    <ele>829.9000000000001</ele>
   </trkpt>
   <trkpt lat="-19.606930000000002" lon="-43.85172">
    <ele>823.59</ele>
   </trkpt>
   <trkpt lat="-19.60656" lon="-43.851530000000004">
    <ele>817.33</ele>
   </trkpt>
   <trkpt lat="-19.606450000000002" lon="-43.85141">
    <ele>815.74</ele>
   </trkpt>
   <trkpt lat="-19.60658" lon="-43.85099">
    <ele>806.6300000000001</ele>
   </trkpt>
   <trkpt lat="-19.60658" lon="-43.85074">
    <ele>803.97</ele>
   </trkpt>
   <trkpt lat="-19.606460000000002" lon="-43.85047">
    <ele>803.22</ele>
   </trkpt>
   <trkpt lat="-19.60649" lon="-43.850410000000004">
    <ele>803.19</ele>
   </trkpt>
   <trkpt lat="-19.60657" lon="-43.85034">
    <ele>803.1600000000001</ele>
   </trkpt>
   <trkpt lat="-19.60668" lon="-43.85034">
    <ele>803.1600000000001</ele>
   </trkpt>
   <trkpt lat="-19.60704" lon="-43.8504">
    <ele>803.0600000000001</ele>
   </trkpt>
   <trkpt lat="-19.60734" lon="-43.8504">
    <ele>803.39</ele>
   </trkpt>
   <trkpt lat="-19.60779000012298" lon="-43.850335000165785">
    <ele>803.8100000000001</ele>
   </trkpt>
   <trkpt lat="-19.608240000000002" lon="-43.85027">
    <ele>804.9900000000001</ele>
   </trkpt>
   <trkpt lat="-19.60855" lon="-43.85025">
    <ele>806.1600000000001</ele>
   </trkpt>
   <trkpt lat="-19.60938" lon="-43.85031">
    <ele>809.98</ele>
   </trkpt>
   <trkpt lat="-19.60994" lon="-43.85025">
    <ele>812.97</ele>
   </trkpt>
   <trkpt lat="-19.61015" lon="-43.85014">
    <ele>814.32</ele>
   </trkpt>
   <trkpt lat="-19.61033" lon="-43.85016">
    <ele>815.82</ele>
   </trkpt>
   <trkpt lat="-19.610670000000002" lon="-43.85042000000001">
    <ele>817.1100000000001</ele>
   </trkpt>
   <trkpt lat="-19.6113" lon="-43.85063">
    <ele>818.09</ele>
   </trkpt>
   <trkpt lat="-19.61176" lon="-43.85083">
    <ele>816.9200000000001</ele>
   </trkpt>
   <trkpt lat="-19.61202" lon="-43.850880000000004">
    <ele>815.62</ele>
   </trkpt>
   <trkpt lat="-19.612750000000002" lon="-43.85092">
    <ele>810.7700000000001</ele>
   </trkpt>
   <trkpt lat="-19.61334" lon="-43.850860000000004">
    <ele>807.82</ele>
   </trkpt>
   <trkpt lat="-19.61352" lon="-43.850770000000004">
    <ele>806.7</ele>
   </trkpt>
   <trkpt lat="-19.61362" lon="-43.85063">
    <ele>804.5500000000001</ele>
   </trkpt>
   <trkpt lat="-19.61371" lon="-43.85043">
    <ele>802.8400000000001</ele>
   </trkpt>
   <trkpt lat="-19.61381" lon="-43.85038">
    <ele>802.49</ele>
   </trkpt>
   <trkpt lat="-19.61392" lon="-43.850390000000004">
    <ele>801.72</ele>
   </trkpt>
   <trkpt lat="-19.614140000000003" lon="-43.85049">
    <ele>798.24</ele>
   </trkpt>
   <trkpt lat="-19.61437" lon="-43.85058">
    <ele>795.8000000000001</ele>
   </trkpt>
   <trkpt lat="-19.614620000000002" lon="-43.85063">
    <ele>793.09</ele>
   </trkpt>
   <trkpt lat="-19.61502" lon="-43.85079">
    <ele>790.0</ele>
   </trkpt>
   <trkpt lat="-19.615270000000002" lon="-43.8509">
    <ele>788.84</ele>
   </trkpt>
   <trkpt lat="-19.6155" lon="-43.851060000000004">
    <ele>788.3800000000001</ele>
   </trkpt>
   <trkpt lat="-19.61586" lon="-43.85119">
    <ele>788.82</ele>
   </trkpt>
   <trkpt lat="-19.61635" lon="-43.8513">
    <ele>791.1800000000001</ele>
   </trkpt>
   <trkpt lat="-19.61653" lon="-43.85128">
    <ele>793.0500000000001</ele>
   </trkpt>
   <trkpt lat="-19.61673" lon="-43.85116">
    <ele>795.0600000000001</ele>
   </trkpt>
   <trkpt lat="-19.61722000024829" lon="-43.850795001201504">
    <ele>801.1600000000001</ele>
   </trkpt>
   <trkpt lat="-19.617710000000002" lon="-43.85043">
    <ele>802.6800000000001</ele>
   </trkpt>
   <trkpt lat="-19.618090000000002" lon="-43.85029">
    <ele>802.44</ele>
   </trkpt>
   <trkpt lat="-19.61842" lon="-43.85032">
    <ele>802.5600000000001</ele>
   </trkpt>
   <trkpt lat="-19.6186" lon="-43.85038">
    <ele>802.8000000000001</ele>
   </trkpt>
   <trkpt lat="-19.618850000000002" lon="-43.85052">
    <ele>803.5500000000001</ele>
   </trkpt>
   <trkpt lat="-19.61923" lon="-43.85063">
    <ele>804.7900000000001</ele>
   </trkpt>
   <trkpt lat="-19.61961" lon="-43.85069">
    <ele>806.71</ele>
   </trkpt>
   <trkpt lat="-19.619950000000003" lon="-43.85069">
    <ele>808.9000000000001</ele>
   </trkpt>
   <trkpt lat="-19.62028" lon="-43.85063">
    <ele>811.6600000000001</ele>
   </trkpt>
   <trkpt lat="-19.62064" lon="-43.85054">
    <ele>812.34</ele>
   </trkpt>
   <trkpt lat="-19.620990000000003" lon="-43.85034">
    <ele>810.9200000000001</ele>
   </trkpt>
   <trkpt lat="-19.62133" lon="-43.85">
    <ele>810.8700000000001</ele>
   </trkpt>
   <trkpt lat="-19.62153" lon="-43.84978">
    <ele>811.4300000000001</ele>
   </trkpt>
   <trkpt lat="-19.621660000000002" lon="-43.8496">
    <ele>812.1</ele>
   </trkpt>
   <trkpt lat="-19.62179" lon="-43.84944">
    <ele>813.07</ele>
   </trkpt>
   <trkpt lat="-19.62197" lon="-43.84937">
    <ele>813.79</ele>
   </trkpt>
   <trkpt lat="-19.62225" lon="-43.849410000000006">
    <ele>814.5600000000001</ele>
   </trkpt>
   <trkpt lat="-19.62224" lon="-43.8494">
    <ele>814.5600000000001</ele>
   </trkpt>
   <trkpt lat="-19.622680000000003" lon="-43.8496">
    <ele>817.1100000000001</ele>
   </trkpt>
   <trkpt lat="-19.62281" lon="-43.84978">
    <ele>819.01</ele>
   </trkpt>
   <trkpt lat="-19.623060000000002" lon="-43.85027">
    <ele>825.9200000000001</ele>
   </trkpt>
   <trkpt lat="-19.6231" lon="-43.85061">
    <ele>828.6300000000001</ele>
   </trkpt>
   <trkpt lat="-19.623260000000002" lon="-43.85085">
    <ele>832.0400000000001</ele>
   </trkpt>
   <trkpt lat="-19.62367" lon="-43.85112">
    <ele>839.96</ele>
   </trkpt>
   <trkpt lat="-19.62413" lon="-43.8513">
    <ele>836.01</ele>
   </trkpt>
   <trkpt lat="-19.6244" lon="-43.851440000000004">
    <ele>831.11</ele>
   </trkpt>
   <trkpt lat="-19.624980000876302" lon="-43.8519949980215">
    <ele>827.71</ele>
   </trkpt>
   <trkpt lat="-19.62556" lon="-43.85255">
    <ele>830.64</ele>
   </trkpt>
   <trkpt lat="-19.625870000000003" lon="-43.852740000000004">
    <ele>833.1500000000001</ele>
   </trkpt>
   <trkpt lat="-19.6262" lon="-43.85291">
    <ele>835.89</ele>
   </trkpt>
   <trkpt lat="-19.62676" lon="-43.85304000000001">
    <ele>838.25</ele>
   </trkpt>
   <trkpt lat="-19.62706" lon="-43.853">
    <ele>839.3600000000001</ele>
   </trkpt>
   <trkpt lat="-19.627580000000002" lon="-43.85273">
    <ele>838.8700000000001</ele>
   </trkpt>
   <trkpt lat="-19.62772" lon="-43.85271">
    <ele>839.5400000000001</ele>
   </trkpt>
   <trkpt lat="-19.628230000000002" lon="-43.85284">
    <ele>843.7800000000001</ele>
   </trkpt>
   <trkpt lat="-19.62838" lon="-43.85282">
    <ele>844.8500000000001</ele>
   </trkpt>
   <trkpt lat="-19.62892" lon="-43.85244">
    <ele>841.1400000000001</ele>
   </trkpt>
   <trkpt lat="-19.629170000000002" lon="-43.85222">
    <ele>839.19</ele>
   </trkpt>
   <trkpt lat="-19.6292" lon="-43.852000000000004">
    <ele>837.52</ele>
   </trkpt>
   <trkpt lat="-19.62913" lon="-43.85179">
    <ele>834.86</ele>
   </trkpt>
   <trkpt lat="-19.62911" lon="-43.85155">
    <ele>832.4300000000001</ele>
   </trkpt>
   <trkpt lat="-19.629360000000002" lon="-43.85148">
    <ele>831.2</ele>
   </trkpt>
   <trkpt lat="-19.62996" lon="-43.851510000000005">
    <ele>835.6000000000001</ele>
   </trkpt>
   <trkpt lat="-19.63042" lon="-43.85148">
    <ele>835.37</ele>
   </trkpt>
   <trkpt lat="-19.630990000055892" lon="-43.851534999809424">
    <ele>837.3000000000001</ele>
   </trkpt>
   <trkpt lat="-19.63156" lon="-43.85159">
    <ele>842.82</ele>
   </trkpt>
   <trkpt lat="-19.63202" lon="-43.851510000000005">
    <ele>848.61</ele>
   </trkpt>
   <trkpt lat="-19.632350000000002" lon="-43.851330000000004">
    <ele>852.4</ele>
   </trkpt>
   <trkpt lat="-19.632700000501917" lon="-43.85095000071608">
    <ele>853.7800000000001</ele>
   </trkpt>
   <trkpt lat="-19.63305" lon="-43.850570000000005">
    <ele>854.62</ele>
   </trkpt>
   <trkpt lat="-19.63315" lon="-43.85049">
    <ele>855.31</ele>
   </trkpt>
   <trkpt lat="-19.63353" lon="-43.85038">
    <ele>858.69</ele>
   </trkpt>
   <trkpt lat="-19.634320000000002" lon="-43.85047">
    <ele>868.11</ele>
   </trkpt>
   <trkpt lat="-19.634510000000002" lon="-43.850590000000004">
    <ele>868.94</ele>
   </trkpt>
   <trkpt lat="-19.63481" lon="-43.85074">
    <ele>869.1200000000001</ele>
   </trkpt>
   <trkpt lat="-19.635450000000002" lon="-43.850880000000004">
    <ele>872.96</ele>
   </trkpt>
   <trkpt lat="-19.63586" lon="-43.850860000000004">
    <ele>878.9800000000001</ele>
   </trkpt>
   <trkpt lat="-19.63596" lon="-43.850880000000004">
    <ele>878.9800000000001</ele>
   </trkpt>
   <trkpt lat="-19.63597" lon="-43.850880000000004">
    <ele>878.9800000000001</ele>
   </trkpt>
   <trkpt lat="-19.63642" lon="-43.85121">
    <ele>871.83</ele>
   </trkpt>
   <trkpt lat="-19.6368" lon="-43.851710000000004">
    <ele>866.1500000000001</ele>
   </trkpt>
   <trkpt lat="-19.636850000000003" lon="-43.8519">
    <ele>864.5600000000001</ele>
   </trkpt>
   <trkpt lat="-19.63681" lon="-43.85222">
    <ele>863.77</ele>
   </trkpt>
   <trkpt lat="-19.636900001306657" lon="-43.85291499939807">
    <ele>865.47</ele>
   </trkpt>
   <trkpt lat="-19.63699" lon="-43.85361">
    <ele>867.5400000000001</ele>
   </trkpt>
   <trkpt lat="-19.637" lon="-43.8541">
    <ele>861.94</ele>
   </trkpt>
   <trkpt lat="-19.63709" lon="-43.85457">
    <ele>855.23</ele>
   </trkpt>
   <trkpt lat="-19.6372" lon="-43.85499">
    <ele>854.1500000000001</ele>
   </trkpt>
   <trkpt lat="-19.637230000000002" lon="-43.85587">
    <ele>860.7900000000001</ele>
   </trkpt>
   <trkpt lat="-19.63736" lon="-43.8564">
    <ele>856.07</ele>
   </trkpt>
   <trkpt lat="-19.63755" lon="-43.8569">
    <ele>855.2400000000001</ele>
   </trkpt>
   <trkpt lat="-19.63803000114851" lon="-43.857524998222154">
    <ele>866.21</ele>
   </trkpt>
   <trkpt lat="-19.63851" lon="-43.85815">
    <ele>871.04</ele>
   </trkpt>
   <trkpt lat="-19.638785001620885" lon="-43.85889999889838">
    <ele>869.69</ele>
   </trkpt>
   <trkpt lat="-19.63906" lon="-43.85965">
    <ele>868.2400000000001</ele>
   </trkpt>
   <trkpt lat="-19.6391800013358" lon="-43.86034499948929">
    <ele>868.6800000000001</ele>
   </trkpt>
   <trkpt lat="-19.639300000000002" lon="-43.86104">
    <ele>868.47</ele>
   </trkpt>
   <trkpt lat="-19.639210000000002" lon="-43.86157">
    <ele>870.08</ele>
   </trkpt>
   <trkpt lat="-19.639035000741877" lon="-43.86208500053416">
    <ele>874.85</ele>
   </trkpt>
   <trkpt lat="-19.63886" lon="-43.8626">
    <ele>875.33</ele>
   </trkpt>
   <trkpt lat="-19.63885" lon="-43.86294">
    <ele>874.62</ele>
   </trkpt>
   <trkpt lat="-19.63894" lon="-43.86352">
    <ele>867.83</ele>
   </trkpt>
   <trkpt lat="-19.63896" lon="-43.864140000000006">
    <ele>864.4600000000002</ele>
   </trkpt>
   <trkpt lat="-19.639300000000002" lon="-43.864650000000005">
    <ele>866.8500000000001</ele>
   </trkpt>
   <trkpt lat="-19.63936" lon="-43.86496">
    <ele>865.62</ele>
   </trkpt>
   <trkpt lat="-19.63963" lon="-43.8656">
    <ele>857.4100000000001</ele>
   </trkpt>
   <trkpt lat="-19.63969" lon="-43.866110000000006">
    <ele>852.6800000000001</ele>
   </trkpt>
   <trkpt lat="-19.63961" lon="-43.86666">
    <ele>849.72</ele>
   </trkpt>
   <trkpt lat="-19.63946000074532" lon="-43.86716000028474">
    <ele>844.98</ele>
   </trkpt>
   <trkpt lat="-19.639310000000002" lon="-43.86766">
    <ele>842.3600000000001</ele>
   </trkpt>
   <trkpt lat="-19.639050000596825" lon="-43.86812000072311">
    <ele>839.89</ele>
   </trkpt>
   <trkpt lat="-19.63879" lon="-43.86858">
    <ele>837.67</ele>
   </trkpt>
   <trkpt lat="-19.63859" lon="-43.869150000000005">
    <ele>834.6300000000001</ele>
   </trkpt>
   <trkpt lat="-19.638400000923497" lon="-43.869735000759455">
    <ele>831.71</ele>
   </trkpt>
   <trkpt lat="-19.63821" lon="-43.87032000000001">
    <ele>826.37</ele>
   </trkpt>
   <trkpt lat="-19.6383" lon="-43.87064">
    <ele>825.07</ele>
   </trkpt>
   <trkpt lat="-19.63829" lon="-43.87082">
    <ele>824.2</ele>
   </trkpt>
   <trkpt lat="-19.6383" lon="-43.87131">
    <ele>820.52</ele>
   </trkpt>
   <trkpt lat="-19.63829" lon="-43.871520000000004">
    <ele>817.96</ele>
   </trkpt>
   <trkpt lat="-19.63803" lon="-43.872350000000004">
    <ele>811.6300000000001</ele>
   </trkpt>
   <trkpt lat="-19.637900000000002" lon="-43.873250000000006">
    <ele>806.0600000000001</ele>
   </trkpt>
   <trkpt lat="-19.63775500099374" lon="-43.87385500061851">
    <ele>802.32</ele>
   </trkpt>
   <trkpt lat="-19.637610000000002" lon="-43.874460000000006">
    <ele>798.6</ele>
   </trkpt>
   <trkpt lat="-19.63757" lon="-43.875130000000006">
    <ele>793.4000000000001</ele>
   </trkpt>
   <trkpt lat="-19.6380200002772" lon="-43.87491500053111">
    <ele>794.1400000000001</ele>
   </trkpt>
   <trkpt lat="-19.63847" lon="-43.874700000000004">
    <ele>797.9900000000001</ele>
   </trkpt>
   <trkpt lat="-19.63915000045542" lon="-43.874395001202736">
    <ele>802.1400000000001</ele>
   </trkpt>
   <trkpt lat="-19.63983" lon="-43.87409">
    <ele>806.4100000000001</ele>
   </trkpt>
   <trkpt lat="-19.63992" lon="-43.87413">
    <ele>805.9900000000001</ele>
   </trkpt>
   <trkpt lat="-19.640120000000003" lon="-43.874570000000006">
    <ele>800.88</ele>
   </trkpt>
  </trkseg>
 </trk>
</gpx>
