<?xml version="1.0" encoding="UTF-8"?>
<gpx creator="StravaGPX" version="1.1" xmlns="http://www.topografix.com/GPX/1/1" xmlns:xsi="http://www.w3.org/2001/XMLSchema-instance" xsi:schemaLocation="http://www.topografix.com/GPX/1/1 http://www.topografix.com/GPX/1/1/gpx.xsd">
 <metadata>
  <name>Trail run matinal</name>
  <author>
   <name>Felipe Desiderio</name>
  </author>
  <copyright author="OpenStreetMap contributors">
   <year>2020</year>
   <license>https://www.openstreetmap.org/copyright</license>
  </copyright>
 </metadata>
 <trk>
  <name>Trail run matinal</name>
  <link href=""/>
  <type>trail_running</type>
  <trkseg>
   <trkpt lat="-19.627360000000003" lon="-43.886680000000005">
    <ele>741.6</ele>
   </trkpt>
   <trkpt lat="-19.626885000126975" lon="-43.88633499883358">
    <ele>743.44</ele>
   </trkpt>
   <trkpt lat="-19.62641" lon="-43.88599000000001">
    <ele>747.2800000000001</ele>
   </trkpt>
   <trkpt lat="-19.62669" lon="-43.885740000000006">
    <ele>745.74</ele>
   </trkpt>
   <trkpt lat="-19.62665" lon="-43.885600000000004">
    <ele>746.01</ele>
   </trkpt>
   <trkpt lat="-19.626050001292764" lon="-43.88491499743896">
    <ele>749.07</ele>
   </trkpt>
   <trkpt lat="-19.62545" lon="-43.88423">
    <ele>752.77</ele>
   </trkpt>
   <trkpt lat="-19.62496" lon="-43.88369">
    <ele>755.84</ele>
   </trkpt>
   <trkpt lat="-19.624450000124806" lon="-43.883444999202766">
    <ele>757.8600000000001</ele>
   </trkpt>
   <trkpt lat="-19.62394" lon="-43.8832">
    <ele>760.23</ele>
   </trkpt>
   <trkpt lat="-19.623420000142076" lon="-43.88297499927293">
    <ele>762.87</ele>
   </trkpt>
   <trkpt lat="-19.6229" lon="-43.88275">
    <ele>766.08</ele>
   </trkpt>
   <trkpt lat="-19.62274" lon="-43.882870000000004">
    <ele>766.6700000000001</ele>
   </trkpt>
   <trkpt lat="-19.62253" lon="-43.882870000000004">
    <ele>766.8900000000001</ele>
   </trkpt>
   <trkpt lat="-19.62225" lon="-43.882540000000006">
    <ele>767.51</ele>
   </trkpt>
   <trkpt lat="-19.62199" lon="-43.88237">
    <ele>768.0600000000001</ele>
   </trkpt>
   <trkpt lat="-19.621370000000002" lon="-43.88215">
    <ele>769.27</ele>
   </trkpt>
   <trkpt lat="-19.621190000000002" lon="-43.882200000000005">
    <ele>770.78</ele>
   </trkpt>
   <trkpt lat="-19.62073500027134" lon="-43.882019999562395">
    <ele>771.0</ele>
   </trkpt>
   <trkpt lat="-19.62028" lon="-43.881840000000004">
    <ele>772.5400000000001</ele>
   </trkpt>
   <trkpt lat="-19.61982" lon="-43.88123">
    <ele>777.0</ele>
   </trkpt>
   <trkpt lat="-19.61937" lon="-43.880810000000004">
    <ele>778.32</ele>
   </trkpt>
   <trkpt lat="-19.61881" lon="-43.88011">
    <ele>781.0</ele>
   </trkpt>
   <trkpt lat="-19.61868" lon="-43.87998">
    <ele>781.78</ele>
   </trkpt>
   <trkpt lat="-19.618660000000002" lon="-43.879960000000004">
    <ele>781.78</ele>
   </trkpt>
   <trkpt lat="-19.61916" lon="-43.87935">
    <ele>780.6700000000001</ele>
   </trkpt>
   <trkpt lat="-19.61972" lon="-43.8789">
    <ele>780.0400000000001</ele>
   </trkpt>
   <trkpt lat="-19.619960000000003" lon="-43.87857">
    <ele>780.3100000000001</ele>
   </trkpt>
   <trkpt lat="-19.620350000000002" lon="-43.87848">
    <ele>780.76</ele>
   </trkpt>
   <trkpt lat="-19.62056" lon="-43.87783">
    <ele>788.33</ele>
   </trkpt>
   <trkpt lat="-19.62059" lon="-43.87762">
    <ele>793.21</ele>
   </trkpt>
   <trkpt lat="-19.62103" lon="-43.877460000000006">
    <ele>802.32</ele>
   </trkpt>
   <trkpt lat="-19.62105" lon="-43.87745">
    <ele>802.32</ele>
   </trkpt>
   <trkpt lat="-19.62076000082051" lon="-43.87691999912622">
    <ele>808.36</ele>
   </trkpt>
   <trkpt lat="-19.62047" lon="-43.87639">
    <ele>814.6600000000001</ele>
   </trkpt>
   <trkpt lat="-19.62019" lon="-43.87577">
    <ele>821.8100000000001</ele>
   </trkpt>
   <trkpt lat="-19.61981" lon="-43.87534">
    <ele>828.4</ele>
   </trkpt>
   <trkpt lat="-19.61933" lon="-43.87501">
    <ele>838.16</ele>
   </trkpt>
   <trkpt lat="-19.619030000000002" lon="-43.87467">
    <ele>843.0200000000001</ele>
   </trkpt>
   <trkpt lat="-19.618750000000002" lon="-43.87462">
    <ele>848.7900000000001</ele>
   </trkpt>
   <trkpt lat="-19.61869" lon="-43.87435000000001">
    <ele>845.25</ele>
   </trkpt>
   <trkpt lat="-19.61907" lon="-43.87438">
    <ele>848.69</ele>
   </trkpt>
   <trkpt lat="-19.61908" lon="-43.874390000000005">
    <ele>849.16</ele>
   </trkpt>
   <trkpt lat="-19.61944" lon="-43.8746">
    <ele>855.98</ele>
   </trkpt>
   <trkpt lat="-19.61964" lon="-43.87465">
    <ele>858.57</ele>
   </trkpt>
   <trkpt lat="-19.61944" lon="-43.8746">
    <ele>855.98</ele>
   </trkpt>
   <trkpt lat="-19.61907" lon="-43.87438">
    <ele>850.0500000000001</ele>
   </trkpt>
   <trkpt lat="-19.61869" lon="-43.87435000000001">
    <ele>845.25</ele>
   </trkpt>
   <trkpt lat="-19.618850000000002" lon="-43.87503">
    <ele>852.96</ele>
   </trkpt>
   <trkpt lat="-19.61878" lon="-43.8753">
    <ele>855.82</ele>
   </trkpt>
   <trkpt lat="-19.618640000000003" lon="-43.875600000000006">
    <ele>858.25</ele>
   </trkpt>
   <trkpt lat="-19.61842" lon="-43.875820000000004">
    <ele>859.8100000000001</ele>
   </trkpt>
   <trkpt lat="-19.61783000052817" lon="-43.876275001703334">
    <ele>858.0200000000001</ele>
   </trkpt>
   <trkpt lat="-19.617240000000002" lon="-43.87673">
    <ele>851.96</ele>
   </trkpt>
   <trkpt lat="-19.61692" lon="-43.87691">
    <ele>851.0500000000001</ele>
   </trkpt>
   <trkpt lat="-19.61645" lon="-43.8772">
    <ele>854.3600000000001</ele>
   </trkpt>
   <trkpt lat="-19.616025000298954" lon="-43.87754000091489">
    <ele>859.53</ele>
   </trkpt>
   <trkpt lat="-19.6156" lon="-43.877880000000005">
    <ele>865.7600000000001</ele>
   </trkpt>
   <trkpt lat="-19.61533" lon="-43.878130000000006">
    <ele>872.4600000000002</ele>
   </trkpt>
   <trkpt lat="-19.61484" lon="-43.8787">
    <ele>883.5200000000001</ele>
   </trkpt>
   <trkpt lat="-19.61476" lon="-43.878840000000004">
    <ele>885.94</ele>
   </trkpt>
   <trkpt lat="-19.61476" lon="-43.87942">
    <ele>891.51</ele>
   </trkpt>
   <trkpt lat="-19.614710000000002" lon="-43.87968">
    <ele>892.8600000000001</ele>
   </trkpt>
   <trkpt lat="-19.614600000000003" lon="-43.87988000000001">
    <ele>893.23</ele>
   </trkpt>
   <trkpt lat="-19.613860000000003" lon="-43.880140000000004">
    <ele>893.8300000000002</ele>
   </trkpt>
   <trkpt lat="-19.614535000454858" lon="-43.880544998301005">
    <ele>887.72</ele>
   </trkpt>
   <trkpt lat="-19.61521" lon="-43.880950000000006">
    <ele>881.8</ele>
   </trkpt>
   <trkpt lat="-19.61490500071766" lon="-43.880414998858456">
    <ele>888.8600000000001</ele>
   </trkpt>
   <trkpt lat="-19.614600000000003" lon="-43.87988000000001">
    <ele>893.23</ele>
   </trkpt>
   <trkpt lat="-19.613860000000003" lon="-43.880140000000004">
    <ele>893.8300000000002</ele>
   </trkpt>
   <trkpt lat="-19.61306" lon="-43.88036">
    <ele>892.8600000000001</ele>
   </trkpt>
   <trkpt lat="-19.612630000139134" lon="-43.880505000360415">
    <ele>891.94</ele>
   </trkpt>
   <trkpt lat="-19.6122" lon="-43.88065">
    <ele>890.46</ele>
   </trkpt>
   <trkpt lat="-19.61195" lon="-43.88085">
    <ele>889.2200000000001</ele>
   </trkpt>
   <trkpt lat="-19.611450000217364" lon="-43.88114000091024">
    <ele>886.4000000000001</ele>
   </trkpt>
   <trkpt lat="-19.610950000000003" lon="-43.88143">
    <ele>883.8900000000001</ele>
   </trkpt>
   <trkpt lat="-19.61071" lon="-43.8815">
    <ele>883.1600000000001</ele>
   </trkpt>
   <trkpt lat="-19.61033" lon="-43.881550000000004">
    <ele>881.86</ele>
   </trkpt>
   <trkpt lat="-19.60961" lon="-43.88145">
    <ele>879.45</ele>
   </trkpt>
   <trkpt lat="-19.60902500001174" lon="-43.88141999989135">
    <ele>873.82</ele>
   </trkpt>
   <trkpt lat="-19.60844" lon="-43.88139">
    <ele>867.5600000000001</ele>
   </trkpt>
   <trkpt lat="-19.607580000000002" lon="-43.88121">
    <ele>861.7800000000001</ele>
   </trkpt>
   <trkpt lat="-19.60733" lon="-43.88123">
    <ele>860.6700000000001</ele>
   </trkpt>
   <trkpt lat="-19.60677" lon="-43.88132">
    <ele>858.87</ele>
   </trkpt>
   <trkpt lat="-19.606310000242313" lon="-43.88142000023931">
    <ele>858.33</ele>
   </trkpt>
   <trkpt lat="-19.60585" lon="-43.88152">
    <ele>856.57</ele>
   </trkpt>
   <trkpt lat="-19.605430000000002" lon="-43.881550000000004">
    <ele>855.2</ele>
   </trkpt>
   <trkpt lat="-19.6046" lon="-43.88154">
    <ele>851.2</ele>
   </trkpt>
   <trkpt lat="-19.60406499972271" lon="-43.88150999988454">
    <ele>848.62</ele>
   </trkpt>
   <trkpt lat="-19.603530000000003" lon="-43.88148">
    <ele>846.2600000000001</ele>
   </trkpt>
   <trkpt lat="-19.603170000000002" lon="-43.88141">
    <ele>843.5300000000001</ele>
   </trkpt>
   <trkpt lat="-19.60283" lon="-43.8813">
    <ele>841.84</ele>
   </trkpt>
   <trkpt lat="-19.60264" lon="-43.88118">
    <ele>839.6300000000001</ele>
   </trkpt>
   <trkpt lat="-19.602430000000002" lon="-43.88089">
    <ele>837.37</ele>
   </trkpt>
   <trkpt lat="-19.60228" lon="-43.88065">
    <ele>835.77</ele>
   </trkpt>
   <trkpt lat="-19.60217" lon="-43.88015">
    <ele>833.0500000000001</ele>
   </trkpt>
   <trkpt lat="-19.601940000000003" lon="-43.87984">
    <ele>829.4100000000001</ele>
   </trkpt>
   <trkpt lat="-19.60161" lon="-43.87953">
    <ele>827.4100000000001</ele>
   </trkpt>
   <trkpt lat="-19.60133" lon="-43.87935">
    <ele>824.9200000000001</ele>
   </trkpt>
   <trkpt lat="-19.60104" lon="-43.87924">
    <ele>823.12</ele>
   </trkpt>
   <trkpt lat="-19.60021" lon="-43.87888">
    <ele>809.64</ele>
   </trkpt>
   <trkpt lat="-19.600070000000002" lon="-43.878750000000004">
    <ele>808.1600000000001</ele>
   </trkpt>
   <trkpt lat="-19.599980000000002" lon="-43.878550000000004">
    <ele>803.8700000000001</ele>
   </trkpt>
   <trkpt lat="-19.599950000000003" lon="-43.87805">
    <ele>797.46</ele>
   </trkpt>
   <trkpt lat="-19.599890000000002" lon="-43.877900000000004">
    <ele>797.3500000000001</ele>
   </trkpt>
   <trkpt lat="-19.59981" lon="-43.877880000000005">
    <ele>797.3800000000001</ele>
   </trkpt>
   <trkpt lat="-19.599880000000002" lon="-43.877790000000005">
    <ele>796.21</ele>
   </trkpt>
   <trkpt lat="-19.59984" lon="-43.87774">
    <ele>794.3100000000001</ele>
   </trkpt>
   <trkpt lat="-19.5999" lon="-43.87762">
    <ele>793.09</ele>
   </trkpt>
   <trkpt lat="-19.60011" lon="-43.87749">
    <ele>790.5000000000001</ele>
   </trkpt>
   <trkpt lat="-19.600260000000002" lon="-43.87745">
    <ele>788.78</ele>
   </trkpt>
   <trkpt lat="-19.600350000000002" lon="-43.87738">
    <ele>787.8900000000001</ele>
   </trkpt>
   <trkpt lat="-19.60058" lon="-43.876850000000005">
    <ele>781.6400000000001</ele>
   </trkpt>
   <trkpt lat="-19.60057" lon="-43.87637">
    <ele>775.4700000000001</ele>
   </trkpt>
   <trkpt lat="-19.600610000662268" lon="-43.875880000120354">
    <ele>771.46</ele>
   </trkpt>
   <trkpt lat="-19.60065" lon="-43.87539">
    <ele>767.24</ele>
   </trkpt>
   <trkpt lat="-19.600740000000002" lon="-43.87525">
    <ele>766.0</ele>
   </trkpt>
   <trkpt lat="-19.60084" lon="-43.87521">
    <ele>763.97</ele>
   </trkpt>
   <trkpt lat="-19.60093" lon="-43.87523">
    <ele>762.57</ele>
   </trkpt>
   <trkpt lat="-19.601010000000002" lon="-43.875260000000004">
    <ele>761.11</ele>
   </trkpt>
   <trkpt lat="-19.60113" lon="-43.87539">
    <ele>756.5500000000001</ele>
   </trkpt>
   <trkpt lat="-19.601210000000002" lon="-43.875550000000004">
    <ele>756.5500000000001</ele>
   </trkpt>
   <trkpt lat="-19.60131" lon="-43.87563">
    <ele>752.14</ele>
   </trkpt>
   <trkpt lat="-19.601390000000002" lon="-43.87563">
    <ele>752.14</ele>
   </trkpt>
   <trkpt lat="-19.60142" lon="-43.87561">
    <ele>750.5600000000001</ele>
   </trkpt>
   <trkpt lat="-19.60172" lon="-43.87525">
    <ele>741.83</ele>
   </trkpt>
   <trkpt lat="-19.60189" lon="-43.87514">
    <ele>739.5</ele>
   </trkpt>
   <trkpt lat="-19.60198" lon="-43.87494">
    <ele>737.65</ele>
   </trkpt>
   <trkpt lat="-19.60197" lon="-43.874810000000004">
    <ele>737.4600000000002</ele>
   </trkpt>
   <trkpt lat="-19.601770000000002" lon="-43.874410000000005">
    <ele>739.13</ele>
   </trkpt>
   <trkpt lat="-19.60168" lon="-43.874320000000004">
    <ele>740.2500000000001</ele>
   </trkpt>
   <trkpt lat="-19.60135" lon="-43.87411">
    <ele>745.92</ele>
   </trkpt>
   <trkpt lat="-19.60104" lon="-43.87386">
    <ele>747.83</ele>
   </trkpt>
   <trkpt lat="-19.60088" lon="-43.873780000000004">
    <ele>748.0100000000001</ele>
   </trkpt>
   <trkpt lat="-19.600640000000002" lon="-43.87391">
    <ele>746.71</ele>
   </trkpt>
   <trkpt lat="-19.6005" lon="-43.87413">
    <ele>746.14</ele>
   </trkpt>
   <trkpt lat="-19.60046" lon="-43.87413">
    <ele>746.1000000000001</ele>
   </trkpt>
   <trkpt lat="-19.60029" lon="-43.87398">
    <ele>746.26</ele>
   </trkpt>
   <trkpt lat="-19.6002" lon="-43.87393">
    <ele>746.9</ele>
   </trkpt>
   <trkpt lat="-19.59992" lon="-43.87391">
    <ele>746.71</ele>
   </trkpt>
   <trkpt lat="-19.59965" lon="-43.87395">
    <ele>745.83</ele>
   </trkpt>
   <trkpt lat="-19.59946" lon="-43.87389">
    <ele>745.19</ele>
   </trkpt>
   <trkpt lat="-19.5986" lon="-43.874">
    <ele>738.7</ele>
   </trkpt>
   <trkpt lat="-19.59851" lon="-43.87404">
    <ele>738.2</ele>
   </trkpt>
   <trkpt lat="-19.59832" lon="-43.87402">
    <ele>736.98</ele>
   </trkpt>
   <trkpt lat="-19.59815" lon="-43.87404">
    <ele>734.5</ele>
   </trkpt>
   <trkpt lat="-19.59804" lon="-43.874">
    <ele>733.5200000000001</ele>
   </trkpt>
   <trkpt lat="-19.59795" lon="-43.87391">
    <ele>733.2700000000001</ele>
   </trkpt>
   <trkpt lat="-19.597540000000002" lon="-43.87366">
    <ele>731.28</ele>
   </trkpt>
   <trkpt lat="-19.59748" lon="-43.8736">
    <ele>731.3000000000001</ele>
   </trkpt>
   <trkpt lat="-19.59727" lon="-43.873490000000004">
    <ele>731.48</ele>
   </trkpt>
   <trkpt lat="-19.59712" lon="-43.873400000000004">
    <ele>731.5500000000001</ele>
   </trkpt>
   <trkpt lat="-19.596950000000003" lon="-43.873360000000005">
    <ele>731.5</ele>
   </trkpt>
   <trkpt lat="-19.59663" lon="-43.87335">
    <ele>729.36</ele>
   </trkpt>
   <trkpt lat="-19.59656" lon="-43.87333">
    <ele>729.36</ele>
   </trkpt>
   <trkpt lat="-19.596500000000002" lon="-43.87326">
    <ele>729.1</ele>
   </trkpt>
   <trkpt lat="-19.596030000000003" lon="-43.87297">
    <ele>728.5</ele>
   </trkpt>
   <trkpt lat="-19.59598" lon="-43.872910000000005">
    <ele>728.5</ele>
   </trkpt>
   <trkpt lat="-19.595750000000002" lon="-43.87286">
    <ele>728.31</ele>
   </trkpt>
   <trkpt lat="-19.59563" lon="-43.87281">
    <ele>728.08</ele>
   </trkpt>
   <trkpt lat="-19.59559" lon="-43.87275">
    <ele>727.97</ele>
   </trkpt>
   <trkpt lat="-19.59561" lon="-43.87272">
    <ele>727.84</ele>
   </trkpt>
   <trkpt lat="-19.59561" lon="-43.87266">
    <ele>727.5400000000001</ele>
   </trkpt>
   <trkpt lat="-19.59552" lon="-43.87259">
    <ele>727.32</ele>
   </trkpt>
   <trkpt lat="-19.59541" lon="-43.87261">
    <ele>727.2700000000001</ele>
   </trkpt>
   <trkpt lat="-19.59534" lon="-43.872550000000004">
    <ele>727.22</ele>
   </trkpt>
   <trkpt lat="-19.59506" lon="-43.87248">
    <ele>726.7300000000001</ele>
   </trkpt>
   <trkpt lat="-19.59494" lon="-43.87239">
    <ele>725.37</ele>
   </trkpt>
   <trkpt lat="-19.59484" lon="-43.872370000000004">
    <ele>725.37</ele>
   </trkpt>
   <trkpt lat="-19.594630000000002" lon="-43.872370000000004">
    <ele>724.0000000000001</ele>
   </trkpt>
   <trkpt lat="-19.59438" lon="-43.87245">
    <ele>722.11</ele>
   </trkpt>
   <trkpt lat="-19.59412" lon="-43.87261">
    <ele>718.44</ele>
   </trkpt>
   <trkpt lat="-19.59392" lon="-43.87261">
    <ele>716.8100000000001</ele>
   </trkpt>
   <trkpt lat="-19.59375" lon="-43.87268">
    <ele>716.0300000000001</ele>
   </trkpt>
   <trkpt lat="-19.59345" lon="-43.87286">
    <ele>713.3600000000001</ele>
   </trkpt>
   <trkpt lat="-19.593320000000002" lon="-43.87292">
    <ele>710.9200000000001</ele>
   </trkpt>
   <trkpt lat="-19.59325" lon="-43.872930000000004">
    <ele>710.9200000000001</ele>
   </trkpt>
   <trkpt lat="-19.593030000000002" lon="-43.872910000000005">
    <ele>706.28</ele>
   </trkpt>
   <trkpt lat="-19.592940000000002" lon="-43.872930000000004">
    <ele>705.71</ele>
   </trkpt>
   <trkpt lat="-19.592930000000003" lon="-43.87299">
    <ele>704.8100000000001</ele>
   </trkpt>
   <trkpt lat="-19.5927" lon="-43.87313">
    <ele>704.74</ele>
   </trkpt>
   <trkpt lat="-19.592560000000002" lon="-43.87317">
    <ele>705.44</ele>
   </trkpt>
   <trkpt lat="-19.592470000000002" lon="-43.87317">
    <ele>705.6500000000001</ele>
   </trkpt>
   <trkpt lat="-19.59204" lon="-43.87286">
    <ele>702.57</ele>
   </trkpt>
   <trkpt lat="-19.592000000000002" lon="-43.872730000000004">
    <ele>702.59</ele>
   </trkpt>
   <trkpt lat="-19.59166" lon="-43.8725">
    <ele>704.86</ele>
   </trkpt>
   <trkpt lat="-19.59168" lon="-43.87239">
    <ele>705.01</ele>
   </trkpt>
   <trkpt lat="-19.59175" lon="-43.8723">
    <ele>704.91</ele>
   </trkpt>
   <trkpt lat="-19.591820000000002" lon="-43.87212">
    <ele>704.8100000000001</ele>
   </trkpt>
   <trkpt lat="-19.59185" lon="-43.871970000000005">
    <ele>704.46</ele>
   </trkpt>
   <trkpt lat="-19.59185" lon="-43.87178">
    <ele>704.37</ele>
   </trkpt>
   <trkpt lat="-19.59174" lon="-43.87138">
    <ele>704.2600000000001</ele>
   </trkpt>
   <trkpt lat="-19.59165" lon="-43.87125">
    <ele>704.1800000000001</ele>
   </trkpt>
   <trkpt lat="-19.59156" lon="-43.87116">
    <ele>703.99</ele>
   </trkpt>
   <trkpt lat="-19.591350000000002" lon="-43.87102">
    <ele>703.89</ele>
   </trkpt>
   <trkpt lat="-19.59111" lon="-43.87095">
    <ele>703.6</ele>
   </trkpt>
   <trkpt lat="-19.5908" lon="-43.871050000000004">
    <ele>702.98</ele>
   </trkpt>
   <trkpt lat="-19.59063" lon="-43.87104">
    <ele>703.1800000000001</ele>
   </trkpt>
   <trkpt lat="-19.59045" lon="-43.871">
    <ele>704.33</ele>
   </trkpt>
   <trkpt lat="-19.590320000000002" lon="-43.87091">
    <ele>704.7800000000001</ele>
   </trkpt>
   <trkpt lat="-19.59017" lon="-43.87089">
    <ele>707.34</ele>
   </trkpt>
   <trkpt lat="-19.58997" lon="-43.87093">
    <ele>708.2900000000001</ele>
   </trkpt>
   <trkpt lat="-19.58958" lon="-43.87089">
    <ele>710.69</ele>
   </trkpt>
   <trkpt lat="-19.58951" lon="-43.87093">
    <ele>712.0000000000001</ele>
   </trkpt>
   <trkpt lat="-19.589460000000003" lon="-43.871010000000005">
    <ele>712.0000000000001</ele>
   </trkpt>
   <trkpt lat="-19.58952" lon="-43.87093">
    <ele>710.9000000000001</ele>
   </trkpt>
   <trkpt lat="-19.58958" lon="-43.87089">
    <ele>710.23</ele>
   </trkpt>
   <trkpt lat="-19.58997" lon="-43.87093">
    <ele>707.94</ele>
   </trkpt>
   <trkpt lat="-19.59017" lon="-43.87089">
    <ele>707.34</ele>
   </trkpt>
   <trkpt lat="-19.590320000000002" lon="-43.87091">
    <ele>704.7800000000001</ele>
   </trkpt>
   <trkpt lat="-19.59045" lon="-43.871">
    <ele>703.9399999999999</ele>
   </trkpt>
   <trkpt lat="-19.59063" lon="-43.87104">
    <ele>703.0500000000001</ele>
   </trkpt>
   <trkpt lat="-19.5908" lon="-43.871050000000004">
    <ele>703.0500000000001</ele>
   </trkpt>
   <trkpt lat="-19.59111" lon="-43.87095">
    <ele>703.6</ele>
   </trkpt>
   <trkpt lat="-19.591350000000002" lon="-43.87102">
    <ele>703.89</ele>
   </trkpt>
   <trkpt lat="-19.59156" lon="-43.87116">
    <ele>703.99</ele>
   </trkpt>
   <trkpt lat="-19.59165" lon="-43.87125">
    <ele>704.1800000000001</ele>
   </trkpt>
   <trkpt lat="-19.59174" lon="-43.87138">
    <ele>704.2600000000001</ele>
   </trkpt>
   <trkpt lat="-19.59185" lon="-43.87178">
    <ele>704.37</ele>
   </trkpt>
   <trkpt lat="-19.59185" lon="-43.871970000000005">
    <ele>704.46</ele>
   </trkpt>
   <trkpt lat="-19.591820000000002" lon="-43.87212">
    <ele>704.8100000000001</ele>
   </trkpt>
   <trkpt lat="-19.59175" lon="-43.8723">
    <ele>704.99</ele>
   </trkpt>
   <trkpt lat="-19.59168" lon="-43.87239">
    <ele>705.01</ele>
   </trkpt>
   <trkpt lat="-19.59166" lon="-43.8725">
    <ele>704.7</ele>
   </trkpt>
   <trkpt lat="-19.592000000000002" lon="-43.872730000000004">
    <ele>702.5300000000001</ele>
   </trkpt>
   <trkpt lat="-19.59204" lon="-43.87286">
    <ele>702.9399999999999</ele>
   </trkpt>
   <trkpt lat="-19.592470000000002" lon="-43.87317">
    <ele>705.59</ele>
   </trkpt>
   <trkpt lat="-19.592560000000002" lon="-43.87317">
    <ele>705.23</ele>
   </trkpt>
   <trkpt lat="-19.5927" lon="-43.87313">
    <ele>704.52</ele>
   </trkpt>
   <trkpt lat="-19.592930000000003" lon="-43.87299">
    <ele>705.21</ele>
   </trkpt>
   <trkpt lat="-19.592940000000002" lon="-43.872930000000004">
    <ele>706.28</ele>
   </trkpt>
   <trkpt lat="-19.593030000000002" lon="-43.872910000000005">
    <ele>707.52</ele>
   </trkpt>
   <trkpt lat="-19.59325" lon="-43.872930000000004">
    <ele>710.9200000000001</ele>
   </trkpt>
   <trkpt lat="-19.593320000000002" lon="-43.87292">
    <ele>712.2</ele>
   </trkpt>
   <trkpt lat="-19.59345" lon="-43.87286">
    <ele>713.3600000000001</ele>
   </trkpt>
   <trkpt lat="-19.59375" lon="-43.87268">
    <ele>716.0300000000001</ele>
   </trkpt>
   <trkpt lat="-19.59392" lon="-43.87261">
    <ele>717.0300000000001</ele>
   </trkpt>
   <trkpt lat="-19.59412" lon="-43.87261">
    <ele>718.9300000000001</ele>
   </trkpt>
   <trkpt lat="-19.59438" lon="-43.87245">
    <ele>722.11</ele>
   </trkpt>
   <trkpt lat="-19.594630000000002" lon="-43.872370000000004">
    <ele>724.26</ele>
   </trkpt>
   <trkpt lat="-19.59484" lon="-43.872370000000004">
    <ele>725.37</ele>
   </trkpt>
   <trkpt lat="-19.59494" lon="-43.87239">
    <ele>725.37</ele>
   </trkpt>
   <trkpt lat="-19.59506" lon="-43.87248">
    <ele>726.7300000000001</ele>
   </trkpt>
   <trkpt lat="-19.59534" lon="-43.872550000000004">
    <ele>727.22</ele>
   </trkpt>
   <trkpt lat="-19.59541" lon="-43.87261">
    <ele>727.2700000000001</ele>
   </trkpt>
   <trkpt lat="-19.59552" lon="-43.87259">
    <ele>727.5400000000001</ele>
   </trkpt>
   <trkpt lat="-19.59561" lon="-43.87266">
    <ele>727.84</ele>
   </trkpt>
   <trkpt lat="-19.59561" lon="-43.87272">
    <ele>727.97</ele>
   </trkpt>
   <trkpt lat="-19.59559" lon="-43.87275">
    <ele>728.08</ele>
   </trkpt>
   <trkpt lat="-19.59563" lon="-43.87281">
    <ele>728.22</ele>
   </trkpt>
   <trkpt lat="-19.595750000000002" lon="-43.87286">
    <ele>728.31</ele>
   </trkpt>
   <trkpt lat="-19.59598" lon="-43.872910000000005">
    <ele>728.5</ele>
   </trkpt>
   <trkpt lat="-19.596030000000003" lon="-43.87297">
    <ele>728.5</ele>
   </trkpt>
   <trkpt lat="-19.596500000000002" lon="-43.87326">
    <ele>729.1</ele>
   </trkpt>
   <trkpt lat="-19.59656" lon="-43.87333">
    <ele>729.36</ele>
   </trkpt>
   <trkpt lat="-19.59663" lon="-43.87335">
    <ele>729.74</ele>
   </trkpt>
   <trkpt lat="-19.596950000000003" lon="-43.873360000000005">
    <ele>731.5600000000001</ele>
   </trkpt>
   <trkpt lat="-19.59712" lon="-43.873400000000004">
    <ele>731.5500000000001</ele>
   </trkpt>
   <trkpt lat="-19.59727" lon="-43.873490000000004">
    <ele>731.48</ele>
   </trkpt>
   <trkpt lat="-19.59748" lon="-43.8736">
    <ele>731.28</ele>
   </trkpt>
   <trkpt lat="-19.597540000000002" lon="-43.87366">
    <ele>731.31</ele>
   </trkpt>
   <trkpt lat="-19.59795" lon="-43.87391">
    <ele>733.2700000000001</ele>
   </trkpt>
   <trkpt lat="-19.59804" lon="-43.874">
    <ele>733.8</ele>
   </trkpt>
   <trkpt lat="-19.59815" lon="-43.87404">
    <ele>734.9300000000001</ele>
   </trkpt>
   <trkpt lat="-19.59832" lon="-43.87402">
    <ele>736.98</ele>
   </trkpt>
   <trkpt lat="-19.59851" lon="-43.87404">
    <ele>738.47</ele>
   </trkpt>
   <trkpt lat="-19.5986" lon="-43.874">
    <ele>739.13</ele>
   </trkpt>
   <trkpt lat="-19.59946" lon="-43.87389">
    <ele>745.3400000000001</ele>
   </trkpt>
   <trkpt lat="-19.59965" lon="-43.87395">
    <ele>745.99</ele>
   </trkpt>
   <trkpt lat="-19.59992" lon="-43.87391">
    <ele>746.97</ele>
   </trkpt>
   <trkpt lat="-19.6002" lon="-43.87393">
    <ele>746.9</ele>
   </trkpt>
   <trkpt lat="-19.60029" lon="-43.87398">
    <ele>746.26</ele>
   </trkpt>
   <trkpt lat="-19.60046" lon="-43.87413">
    <ele>746.14</ele>
   </trkpt>
   <trkpt lat="-19.6005" lon="-43.87413">
    <ele>746.23</ele>
   </trkpt>
   <trkpt lat="-19.600640000000002" lon="-43.87391">
    <ele>747.57</ele>
   </trkpt>
   <trkpt lat="-19.60088" lon="-43.873780000000004">
    <ele>747.99</ele>
   </trkpt>
   <trkpt lat="-19.60104" lon="-43.87386">
    <ele>747.71</ele>
   </trkpt>
   <trkpt lat="-19.60135" lon="-43.87411">
    <ele>745.92</ele>
   </trkpt>
   <trkpt lat="-19.60168" lon="-43.87431">
    <ele>740.33</ele>
   </trkpt>
   <trkpt lat="-19.601770000000002" lon="-43.874410000000005">
    <ele>739.13</ele>
   </trkpt>
   <trkpt lat="-19.60197" lon="-43.874810000000004">
    <ele>737.4600000000002</ele>
   </trkpt>
   <trkpt lat="-19.60198" lon="-43.87494">
    <ele>737.65</ele>
   </trkpt>
   <trkpt lat="-19.601950000000002" lon="-43.87501">
    <ele>737.97</ele>
   </trkpt>
   <trkpt lat="-19.60198" lon="-43.875080000000004">
    <ele>738.14</ele>
   </trkpt>
   <trkpt lat="-19.60206" lon="-43.87512">
    <ele>738.2</ele>
   </trkpt>
   <trkpt lat="-19.60215" lon="-43.87514">
    <ele>738.2900000000001</ele>
   </trkpt>
   <trkpt lat="-19.60234" lon="-43.8753">
    <ele>739.5100000000001</ele>
   </trkpt>
   <trkpt lat="-19.60255" lon="-43.87532">
    <ele>742.45</ele>
   </trkpt>
   <trkpt lat="-19.60255" lon="-43.875370000000004">
    <ele>743.08</ele>
   </trkpt>
   <trkpt lat="-19.602510000000002" lon="-43.87541">
    <ele>744.53</ele>
   </trkpt>
   <trkpt lat="-19.60215" lon="-43.87552">
    <ele>748.63</ele>
   </trkpt>
   <trkpt lat="-19.60215" lon="-43.875550000000004">
    <ele>749.36</ele>
   </trkpt>
   <trkpt lat="-19.6022" lon="-43.87561">
    <ele>751.07</ele>
   </trkpt>
   <trkpt lat="-19.60254" lon="-43.87572">
    <ele>759.14</ele>
   </trkpt>
   <trkpt lat="-19.60273" lon="-43.875930000000004">
    <ele>763.59</ele>
   </trkpt>
   <trkpt lat="-19.603360000000002" lon="-43.876400000000004">
    <ele>778.45</ele>
   </trkpt>
   <trkpt lat="-19.60356" lon="-43.876850000000005">
    <ele>785.5500000000001</ele>
   </trkpt>
   <trkpt lat="-19.603640000000002" lon="-43.87718">
    <ele>790.61</ele>
   </trkpt>
   <trkpt lat="-19.60377" lon="-43.877250000000004">
    <ele>794.32</ele>
   </trkpt>
   <trkpt lat="-19.60376" lon="-43.87749">
    <ele>796.9600000000002</ele>
   </trkpt>
   <trkpt lat="-19.60386" lon="-43.87767">
    <ele>800.1100000000001</ele>
   </trkpt>
   <trkpt lat="-19.603920000000002" lon="-43.877990000000004">
    <ele>802.71</ele>
   </trkpt>
   <trkpt lat="-19.60407" lon="-43.87812">
    <ele>805.69</ele>
   </trkpt>
   <trkpt lat="-19.60424" lon="-43.87832">
    <ele>809.0200000000001</ele>
   </trkpt>
   <trkpt lat="-19.60433" lon="-43.87872">
    <ele>814.9300000000001</ele>
   </trkpt>
   <trkpt lat="-19.60452" lon="-43.87939">
    <ele>827.3800000000001</ele>
   </trkpt>
   <trkpt lat="-19.60461" lon="-43.8796">
    <ele>830.5</ele>
   </trkpt>
   <trkpt lat="-19.604870000000002" lon="-43.87984">
    <ele>836.35</ele>
   </trkpt>
   <trkpt lat="-19.60482" lon="-43.88002">
    <ele>840.4800000000001</ele>
   </trkpt>
   <trkpt lat="-19.60499" lon="-43.88022">
    <ele>844.94</ele>
   </trkpt>
   <trkpt lat="-19.605150000000002" lon="-43.88074">
    <ele>852.4200000000001</ele>
   </trkpt>
   <trkpt lat="-19.605230000000002" lon="-43.88114">
    <ele>854.5500000000001</ele>
   </trkpt>
   <trkpt lat="-19.60536" lon="-43.88125">
    <ele>854.96</ele>
   </trkpt>
   <trkpt lat="-19.60556" lon="-43.88132">
    <ele>855.4</ele>
   </trkpt>
   <trkpt lat="-19.60553" lon="-43.88154">
    <ele>855.5400000000001</ele>
   </trkpt>
   <trkpt lat="-19.60585" lon="-43.88152">
    <ele>856.57</ele>
   </trkpt>
   <trkpt lat="-19.606309999812854" lon="-43.88142000033266">
    <ele>858.33</ele>
   </trkpt>
   <trkpt lat="-19.60677" lon="-43.88132">
    <ele>858.87</ele>
   </trkpt>
   <trkpt lat="-19.60733" lon="-43.88123">
    <ele>860.6700000000001</ele>
   </trkpt>
   <trkpt lat="-19.607580000000002" lon="-43.88121">
    <ele>861.7800000000001</ele>
   </trkpt>
   <trkpt lat="-19.60844" lon="-43.88139">
    <ele>867.5600000000001</ele>
   </trkpt>
   <trkpt lat="-19.60902499999322" lon="-43.881419999890404">
    <ele>873.82</ele>
   </trkpt>
   <trkpt lat="-19.60961" lon="-43.88145">
    <ele>879.45</ele>
   </trkpt>
   <trkpt lat="-19.61033" lon="-43.881550000000004">
    <ele>881.86</ele>
   </trkpt>
   <trkpt lat="-19.61071" lon="-43.8815">
    <ele>883.1600000000001</ele>
   </trkpt>
   <trkpt lat="-19.610950000000003" lon="-43.88143">
    <ele>883.8900000000001</ele>
   </trkpt>
   <trkpt lat="-19.611450000246723" lon="-43.88114000089321">
    <ele>886.4000000000001</ele>
   </trkpt>
   <trkpt lat="-19.61195" lon="-43.88085">
    <ele>889.2200000000001</ele>
   </trkpt>
   <trkpt lat="-19.6122" lon="-43.88065">
    <ele>890.46</ele>
   </trkpt>
   <trkpt lat="-19.612629999976892" lon="-43.88050500041511">
    <ele>891.94</ele>
   </trkpt>
   <trkpt lat="-19.61306" lon="-43.88036">
    <ele>892.8600000000001</ele>
   </trkpt>
   <trkpt lat="-19.613860000000003" lon="-43.880140000000004">
    <ele>893.82</ele>
   </trkpt>
   <trkpt lat="-19.614535000454858" lon="-43.880544998301005">
    <ele>887.72</ele>
   </trkpt>
   <trkpt lat="-19.61521" lon="-43.880950000000006">
    <ele>881.8</ele>
   </trkpt>
   <trkpt lat="-19.61549" lon="-43.881260000000005">
    <ele>877.85</ele>
   </trkpt>
   <trkpt lat="-19.61577" lon="-43.88172">
    <ele>872.6800000000001</ele>
   </trkpt>
   <trkpt lat="-19.61606" lon="-43.8823">
    <ele>867.2800000000001</ele>
   </trkpt>
   <trkpt lat="-19.61624" lon="-43.88259">
    <ele>862.98</ele>
   </trkpt>
   <trkpt lat="-19.616580000000003" lon="-43.883070000000004">
    <ele>860.34</ele>
   </trkpt>
   <trkpt lat="-19.616835001767754" lon="-43.8838649988123">
    <ele>855.3600000000001</ele>
   </trkpt>
   <trkpt lat="-19.61709" lon="-43.884660000000004">
    <ele>849.7900000000001</ele>
   </trkpt>
   <trkpt lat="-19.617340000000002" lon="-43.88515">
    <ele>843.44</ele>
   </trkpt>
   <trkpt lat="-19.617720000000002" lon="-43.88497">
    <ele>839.6600000000001</ele>
   </trkpt>
   <trkpt lat="-19.617990000000002" lon="-43.8849">
    <ele>834.0600000000001</ele>
   </trkpt>
   <trkpt lat="-19.618650000000002" lon="-43.88477">
    <ele>825.7500000000001</ele>
   </trkpt>
   <trkpt lat="-19.61887" lon="-43.88479">
    <ele>822.4100000000001</ele>
   </trkpt>
   <trkpt lat="-19.61906" lon="-43.88488">
    <ele>822.4100000000001</ele>
   </trkpt>
   <trkpt lat="-19.61961" lon="-43.88542">
    <ele>811.49</ele>
   </trkpt>
   <trkpt lat="-19.619780000000002" lon="-43.88553">
    <ele>807.37</ele>
   </trkpt>
   <trkpt lat="-19.619970000000002" lon="-43.88559">
    <ele>807.37</ele>
   </trkpt>
   <trkpt lat="-19.62012" lon="-43.885600000000004">
    <ele>803.1600000000001</ele>
   </trkpt>
   <trkpt lat="-19.62028" lon="-43.88557">
    <ele>803.1600000000001</ele>
   </trkpt>
   <trkpt lat="-19.62106666734217" lon="-43.88522667001693">
    <ele>792.1800000000001</ele>
   </trkpt>
   <trkpt lat="-19.621853334033602" lon="-43.88488333667285">
    <ele>780.49</ele>
   </trkpt>
   <trkpt lat="-19.62264" lon="-43.88454">
    <ele>773.24</ele>
   </trkpt>
   <trkpt lat="-19.62301" lon="-43.884280000000004">
    <ele>771.61</ele>
   </trkpt>
   <trkpt lat="-19.623060000000002" lon="-43.884150000000005">
    <ele>771.4000000000001</ele>
   </trkpt>
   <trkpt lat="-19.623170000000002" lon="-43.88403">
    <ele>770.6500000000001</ele>
   </trkpt>
   <trkpt lat="-19.62329" lon="-43.88396">
    <ele>770.19</ele>
   </trkpt>
   <trkpt lat="-19.623450000000002" lon="-43.88394">
    <ele>768.27</ele>
   </trkpt>
   <trkpt lat="-19.62357" lon="-43.883970000000005">
    <ele>768.27</ele>
   </trkpt>
   <trkpt lat="-19.623730000000002" lon="-43.884100000000004">
    <ele>767.7100000000002</ele>
   </trkpt>
   <trkpt lat="-19.623900000000003" lon="-43.88418">
    <ele>767.26</ele>
   </trkpt>
   <trkpt lat="-19.624280000000002" lon="-43.884460000000004">
    <ele>764.23</ele>
   </trkpt>
   <trkpt lat="-19.62496" lon="-43.88492">
    <ele>758.41</ele>
   </trkpt>
   <trkpt lat="-19.62555000154237" lon="-43.885352495230514">
    <ele>753.6</ele>
   </trkpt>
   <trkpt lat="-19.626140002051912" lon="-43.88578499363724">
    <ele>749.9300000000001</ele>
   </trkpt>
   <trkpt lat="-19.626730001528603" lon="-43.88621749522027">
    <ele>744.38</ele>
   </trkpt>
   <trkpt lat="-19.62732" lon="-43.88665">
    <ele>741.68</ele>
   </trkpt>
   <trkpt lat="-19.628040000000002" lon="-43.88712">
    <ele>740.74</ele>
   </trkpt>
   <trkpt lat="-19.628140000000002" lon="-43.887220000000006">
    <ele>740.74</ele>
   </trkpt>
  </trkseg>
 </trk>
</gpx>
