<?xml version="1.0" encoding="UTF-8"?>
<gpx creator="StravaGPX" version="1.1" xmlns="http://www.topografix.com/GPX/1/1" xmlns:xsi="http://www.w3.org/2001/XMLSchema-instance" xsi:schemaLocation="http://www.topografix.com/GPX/1/1 http://www.topografix.com/GPX/1/1/gpx.xsd">
 <metadata>
  <name>Trail run matinal</name>
  <author>
   <name>Felipe Desiderio</name>
  </author>
  <copyright author="OpenStreetMap contributors">
   <year>2020</year>
   <license>https://www.openstreetmap.org/copyright</license>
  </copyright>
 </metadata>
 <trk>
  <name>Trail run matinal</name>
  <link href=""/>
  <type>trail_running</type>
  <trkseg>
   <trkpt lat="-20.03152" lon="-44.01218">
    <ele>1195.6200000000001</ele>
   </trkpt>
   <trkpt lat="-20.0316" lon="-44.01256">
    <ele>1193.43</ele>
   </trkpt>
   <trkpt lat="-20.0317" lon="-44.01339">
    <ele>1193.38</ele>
   </trkpt>
   <trkpt lat="-20.031885001351068" lon="-44.0140849991613">
    <ele>1195.92</ele>
   </trkpt>
   <trkpt lat="-20.03207" lon="-44.01478">
    <ele>1197.47</ele>
   </trkpt>
   <trkpt lat="-20.03216" lon="-44.015100000000004">
    <ele>1198.0700000000002</ele>
   </trkpt>
   <trkpt lat="-20.03263" lon="-44.01588">
    <ele>1199.42</ele>
   </trkpt>
   <trkpt lat="-20.032690000000002" lon="-44.0161">
    <ele>1200.22</ele>
   </trkpt>
   <trkpt lat="-20.03282" lon="-44.01628">
    <ele>1200.6000000000001</ele>
   </trkpt>
   <trkpt lat="-20.03303" lon="-44.01693">
    <ele>1201.3500000000001</ele>
   </trkpt>
   <trkpt lat="-20.03312" lon="-44.017070000000004">
    <ele>1201.3500000000001</ele>
   </trkpt>
   <trkpt lat="-20.03322" lon="-44.017340000000004">
    <ele>1202.0000000000002</ele>
   </trkpt>
   <trkpt lat="-20.03338" lon="-44.017540000000004">
    <ele>1202.35</ele>
   </trkpt>
   <trkpt lat="-20.033440000000002" lon="-44.017590000000006">
    <ele>1202.35</ele>
   </trkpt>
   <trkpt lat="-20.03368" lon="-44.01767">
    <ele>1202.35</ele>
   </trkpt>
   <trkpt lat="-20.033790000000003" lon="-44.01766000000001">
    <ele>1202.7500000000002</ele>
   </trkpt>
   <trkpt lat="-20.034570000000002" lon="-44.01773">
    <ele>1202.92</ele>
   </trkpt>
   <trkpt lat="-20.034750000000003" lon="-44.017720000000004">
    <ele>1203.3600000000001</ele>
   </trkpt>
   <trkpt lat="-20.035220000000002" lon="-44.01765">
    <ele>1203.47</ele>
   </trkpt>
   <trkpt lat="-20.035675000038857" lon="-44.01770499984439">
    <ele>1204.5100000000002</ele>
   </trkpt>
   <trkpt lat="-20.03613" lon="-44.01776">
    <ele>1204.76</ele>
   </trkpt>
   <trkpt lat="-20.036260000000002" lon="-44.01688">
    <ele>1207.0400000000002</ele>
   </trkpt>
   <trkpt lat="-20.03628" lon="-44.016400000000004">
    <ele>1208.6100000000001</ele>
   </trkpt>
   <trkpt lat="-20.03637" lon="-44.01552">
    <ele>1212.44</ele>
   </trkpt>
   <trkpt lat="-20.036350000000002" lon="-44.01534">
    <ele>1213.81</ele>
   </trkpt>
   <trkpt lat="-20.03622" lon="-44.01476">
    <ele>1217.0400000000002</ele>
   </trkpt>
   <trkpt lat="-20.036260000000002" lon="-44.01467">
    <ele>1217.51</ele>
   </trkpt>
   <trkpt lat="-20.036585000622214" lon="-44.01422000085696">
    <ele>1220.5700000000002</ele>
   </trkpt>
   <trkpt lat="-20.036910000000002" lon="-44.01377">
    <ele>1224.26</ele>
   </trkpt>
   <trkpt lat="-20.03706" lon="-44.01362">
    <ele>1226.16</ele>
   </trkpt>
   <trkpt lat="-20.037470000000003" lon="-44.01333">
    <ele>1230.3200000000002</ele>
   </trkpt>
   <trkpt lat="-20.03751" lon="-44.01326">
    <ele>1230.67</ele>
   </trkpt>
   <trkpt lat="-20.03754" lon="-44.01288">
    <ele>1233.0500000000002</ele>
   </trkpt>
   <trkpt lat="-20.03753" lon="-44.0127">
    <ele>1233.93</ele>
   </trkpt>
   <trkpt lat="-20.03768" lon="-44.01245">
    <ele>1235.4900000000002</ele>
   </trkpt>
   <trkpt lat="-20.037580000000002" lon="-44.01216">
    <ele>1240.07</ele>
   </trkpt>
   <trkpt lat="-20.03761" lon="-44.011990000000004">
    <ele>1242.75</ele>
   </trkpt>
   <trkpt lat="-20.03787" lon="-44.01171">
    <ele>1250.21</ele>
   </trkpt>
   <trkpt lat="-20.037940000000003" lon="-44.01156">
    <ele>1254.8400000000001</ele>
   </trkpt>
   <trkpt lat="-20.03798" lon="-44.01138">
    <ele>1257.47</ele>
   </trkpt>
   <trkpt lat="-20.03789" lon="-44.01129">
    <ele>1258.25</ele>
   </trkpt>
   <trkpt lat="-20.0378" lon="-44.01106">
    <ele>1263.4800000000002</ele>
   </trkpt>
   <trkpt lat="-20.037770000000002" lon="-44.01109">
    <ele>1261.98</ele>
   </trkpt>
   <trkpt lat="-20.03768" lon="-44.01109">
    <ele>1261.2800000000002</ele>
   </trkpt>
   <trkpt lat="-20.037580000000002" lon="-44.01104">
    <ele>1258.72</ele>
   </trkpt>
   <trkpt lat="-20.03751" lon="-44.010960000000004">
    <ele>1258.04</ele>
   </trkpt>
   <trkpt lat="-20.03744" lon="-44.01071">
    <ele>1254.38</ele>
   </trkpt>
   <trkpt lat="-20.03735" lon="-44.01055">
    <ele>1251.6100000000001</ele>
   </trkpt>
   <trkpt lat="-20.03725" lon="-44.0105">
    <ele>1250.2900000000002</ele>
   </trkpt>
   <trkpt lat="-20.03714" lon="-44.0105">
    <ele>1249.3</ele>
   </trkpt>
   <trkpt lat="-20.03704" lon="-44.01053">
    <ele>1247.92</ele>
   </trkpt>
   <trkpt lat="-20.03695" lon="-44.010580000000004">
    <ele>1246.8700000000001</ele>
   </trkpt>
   <trkpt lat="-20.036600000195897" lon="-44.01091000083889">
    <ele>1238.72</ele>
   </trkpt>
   <trkpt lat="-20.036250000000003" lon="-44.01124">
    <ele>1228.08</ele>
   </trkpt>
   <trkpt lat="-20.03613" lon="-44.011250000000004">
    <ele>1226.13</ele>
   </trkpt>
   <trkpt lat="-20.036070000000002" lon="-44.01086">
    <ele>1225.6</ele>
   </trkpt>
   <trkpt lat="-20.03582" lon="-44.01086">
    <ele>1226.46</ele>
   </trkpt>
   <trkpt lat="-20.03571" lon="-44.01091">
    <ele>1226.76</ele>
   </trkpt>
   <trkpt lat="-20.03499" lon="-44.01135">
    <ele>1219.5600000000002</ele>
   </trkpt>
   <trkpt lat="-20.034580000000002" lon="-44.011160000000004">
    <ele>1217.21</ele>
   </trkpt>
   <trkpt lat="-20.034069999988038" lon="-44.01112499988535">
    <ele>1212.8600000000001</ele>
   </trkpt>
   <trkpt lat="-20.03356" lon="-44.01109">
    <ele>1210.15</ele>
   </trkpt>
   <trkpt lat="-20.03322" lon="-44.01104">
    <ele>1206.3700000000001</ele>
   </trkpt>
   <trkpt lat="-20.03294" lon="-44.01093">
    <ele>1204.71</ele>
   </trkpt>
   <trkpt lat="-20.03272" lon="-44.01086">
    <ele>1203.57</ele>
   </trkpt>
   <trkpt lat="-20.03263" lon="-44.01086">
    <ele>1201.8000000000002</ele>
   </trkpt>
   <trkpt lat="-20.03225" lon="-44.01097">
    <ele>1200.5700000000002</ele>
   </trkpt>
   <trkpt lat="-20.03216" lon="-44.010960000000004">
    <ele>1200.5700000000002</ele>
   </trkpt>
   <trkpt lat="-20.031486666957964" lon="-44.01074666484987">
    <ele>1196.53</ele>
   </trkpt>
   <trkpt lat="-20.030813333660305" lon="-44.01053333152787">
    <ele>1194.0300000000002</ele>
   </trkpt>
   <trkpt lat="-20.030140000000003" lon="-44.01032">
    <ele>1192.67</ele>
   </trkpt>
   <trkpt lat="-20.03018" lon="-44.01026">
    <ele>1193.1200000000001</ele>
   </trkpt>
   <trkpt lat="-20.02981" lon="-44.01012">
    <ele>1192.99</ele>
   </trkpt>
   <trkpt lat="-20.029096666912082" lon="-44.009906664727175">
    <ele>1193.91</ele>
   </trkpt>
   <trkpt lat="-20.028383333568563" lon="-44.00969333139083">
    <ele>1194.6000000000001</ele>
   </trkpt>
   <trkpt lat="-20.02767" lon="-44.00948">
    <ele>1194.69</ele>
   </trkpt>
   <trkpt lat="-20.02737" lon="-44.009310000000006">
    <ele>1193.95</ele>
   </trkpt>
   <trkpt lat="-20.027340000000002" lon="-44.00929000000001">
    <ele>1193.8300000000002</ele>
   </trkpt>
   <trkpt lat="-20.02738" lon="-44.009100000000004">
    <ele>1192.0900000000001</ele>
   </trkpt>
   <trkpt lat="-20.02786" lon="-44.00874">
    <ele>1187.4900000000002</ele>
   </trkpt>
   <trkpt lat="-20.02823" lon="-44.00851">
    <ele>1184.79</ele>
   </trkpt>
   <trkpt lat="-20.02869" lon="-44.00833">
    <ele>1182.3100000000002</ele>
   </trkpt>
   <trkpt lat="-20.02897" lon="-44.008250000000004">
    <ele>1182.65</ele>
   </trkpt>
   <trkpt lat="-20.02909" lon="-44.00815">
    <ele>1183.67</ele>
   </trkpt>
   <trkpt lat="-20.02925" lon="-44.008140000000004">
    <ele>1184.13</ele>
   </trkpt>
   <trkpt lat="-20.02935" lon="-44.00797">
    <ele>1185.67</ele>
   </trkpt>
   <trkpt lat="-20.02993" lon="-44.00773">
    <ele>1187.99</ele>
   </trkpt>
   <trkpt lat="-20.03039000022251" lon="-44.00744000085743">
    <ele>1191.1200000000001</ele>
   </trkpt>
   <trkpt lat="-20.03085" lon="-44.00715">
    <ele>1193.1000000000001</ele>
   </trkpt>
   <trkpt lat="-20.03159" lon="-44.006930000000004">
    <ele>1200.02</ele>
   </trkpt>
   <trkpt lat="-20.03162" lon="-44.00683">
    <ele>1200.9</ele>
   </trkpt>
   <trkpt lat="-20.03181" lon="-44.00674">
    <ele>1202.46</ele>
   </trkpt>
   <trkpt lat="-20.03215" lon="-44.00638">
    <ele>1209.18</ele>
   </trkpt>
   <trkpt lat="-20.03247" lon="-44.006280000000004">
    <ele>1212.41</ele>
   </trkpt>
   <trkpt lat="-20.032970000000002" lon="-44.00605">
    <ele>1216.35</ele>
   </trkpt>
   <trkpt lat="-20.033" lon="-44.006040000000006">
    <ele>1216.35</ele>
   </trkpt>
   <trkpt lat="-20.032880000000002" lon="-44.00672">
    <ele>1212.89</ele>
   </trkpt>
   <trkpt lat="-20.03264" lon="-44.00672">
    <ele>1210.8400000000001</ele>
   </trkpt>
   <trkpt lat="-20.032320000521715" lon="-44.00717000098246">
    <ele>1205.6200000000001</ele>
   </trkpt>
   <trkpt lat="-20.032" lon="-44.00762">
    <ele>1202.21</ele>
   </trkpt>
   <trkpt lat="-20.031750000000002" lon="-44.00838">
    <ele>1199.5200000000002</ele>
   </trkpt>
   <trkpt lat="-20.03142" lon="-44.00889">
    <ele>1197.5600000000002</ele>
   </trkpt>
   <trkpt lat="-20.03099500065797" lon="-44.009330001071596">
    <ele>1194.5800000000002</ele>
   </trkpt>
   <trkpt lat="-20.03057" lon="-44.00977">
    <ele>1193.1100000000001</ele>
   </trkpt>
   <trkpt lat="-20.03018" lon="-44.01026">
    <ele>1193.1200000000001</ele>
   </trkpt>
   <trkpt lat="-20.02981" lon="-44.01012">
    <ele>1192.99</ele>
   </trkpt>
   <trkpt lat="-20.029096666912082" lon="-44.009906664727175">
    <ele>1193.91</ele>
   </trkpt>
   <trkpt lat="-20.028383333568563" lon="-44.00969333139083">
    <ele>1194.6000000000001</ele>
   </trkpt>
   <trkpt lat="-20.02767" lon="-44.00948">
    <ele>1194.69</ele>
   </trkpt>
   <trkpt lat="-20.027340000000002" lon="-44.009280000000004">
    <ele>1193.77</ele>
   </trkpt>
   <trkpt lat="-20.02737" lon="-44.009150000000005">
    <ele>1193.1900000000003</ele>
   </trkpt>
   <trkpt lat="-20.02738" lon="-44.00911000000001">
    <ele>1192.62</ele>
   </trkpt>
   <trkpt lat="-20.02786" lon="-44.00874">
    <ele>1187.4900000000002</ele>
   </trkpt>
   <trkpt lat="-20.02823" lon="-44.00851">
    <ele>1184.79</ele>
   </trkpt>
   <trkpt lat="-20.02869" lon="-44.00833">
    <ele>1182.3100000000002</ele>
   </trkpt>
   <trkpt lat="-20.02897" lon="-44.008250000000004">
    <ele>1182.65</ele>
   </trkpt>
   <trkpt lat="-20.02909" lon="-44.00815">
    <ele>1183.67</ele>
   </trkpt>
   <trkpt lat="-20.02925" lon="-44.008140000000004">
    <ele>1184.13</ele>
   </trkpt>
   <trkpt lat="-20.02935" lon="-44.00797">
    <ele>1185.67</ele>
   </trkpt>
   <trkpt lat="-20.02993" lon="-44.00773">
    <ele>1187.99</ele>
   </trkpt>
   <trkpt lat="-20.03039000022251" lon="-44.00744000085743">
    <ele>1191.1200000000001</ele>
   </trkpt>
   <trkpt lat="-20.03085" lon="-44.00715">
    <ele>1193.1000000000001</ele>
   </trkpt>
   <trkpt lat="-20.03159" lon="-44.006930000000004">
    <ele>1200.02</ele>
   </trkpt>
   <trkpt lat="-20.03162" lon="-44.00683">
    <ele>1200.9</ele>
   </trkpt>
   <trkpt lat="-20.03181" lon="-44.00674">
    <ele>1201.99</ele>
   </trkpt>
   <trkpt lat="-20.03215" lon="-44.00638">
    <ele>1209.18</ele>
   </trkpt>
   <trkpt lat="-20.03247" lon="-44.006280000000004">
    <ele>1212.41</ele>
   </trkpt>
   <trkpt lat="-20.032970000000002" lon="-44.00605">
    <ele>1216.35</ele>
   </trkpt>
   <trkpt lat="-20.033" lon="-44.006040000000006">
    <ele>1216.35</ele>
   </trkpt>
   <trkpt lat="-20.03329" lon="-44.00556">
    <ele>1218.7</ele>
   </trkpt>
   <trkpt lat="-20.033360000000002" lon="-44.0054">
    <ele>1221.0</ele>
   </trkpt>
   <trkpt lat="-20.03348" lon="-44.00531">
    <ele>1222.76</ele>
   </trkpt>
   <trkpt lat="-20.03356" lon="-44.0052">
    <ele>1224.63</ele>
   </trkpt>
   <trkpt lat="-20.03357" lon="-44.00509">
    <ele>1225.66</ele>
   </trkpt>
   <trkpt lat="-20.03337" lon="-44.00518">
    <ele>1226.5600000000002</ele>
   </trkpt>
   <trkpt lat="-20.03308" lon="-44.00518">
    <ele>1228.5400000000002</ele>
   </trkpt>
   <trkpt lat="-20.03273" lon="-44.004960000000004">
    <ele>1229.71</ele>
   </trkpt>
   <trkpt lat="-20.03244" lon="-44.00455">
    <ele>1232.89</ele>
   </trkpt>
   <trkpt lat="-20.03246" lon="-44.004250000000006">
    <ele>1237.27</ele>
   </trkpt>
   <trkpt lat="-20.03246" lon="-44.00426">
    <ele>1237.27</ele>
   </trkpt>
   <trkpt lat="-20.03254" lon="-44.0041">
    <ele>1239.84</ele>
   </trkpt>
   <trkpt lat="-20.03254" lon="-44.00426">
    <ele>1241.42</ele>
   </trkpt>
   <trkpt lat="-20.032610000000002" lon="-44.004360000000005">
    <ele>1242.5700000000002</ele>
   </trkpt>
   <trkpt lat="-20.03283" lon="-44.00442">
    <ele>1245.0500000000002</ele>
   </trkpt>
   <trkpt lat="-20.03301" lon="-44.00455">
    <ele>1248.7700000000002</ele>
   </trkpt>
   <trkpt lat="-20.03318" lon="-44.00455">
    <ele>1253.6200000000001</ele>
   </trkpt>
   <trkpt lat="-20.03329" lon="-44.00446">
    <ele>1257.5800000000002</ele>
   </trkpt>
   <trkpt lat="-20.03321" lon="-44.00428">
    <ele>1263.29</ele>
   </trkpt>
   <trkpt lat="-20.033060000000003" lon="-44.00408">
    <ele>1267.29</ele>
   </trkpt>
   <trkpt lat="-20.033070000000002" lon="-44.00397">
    <ele>1270.5600000000002</ele>
   </trkpt>
   <trkpt lat="-20.03312" lon="-44.00392">
    <ele>1270.5600000000002</ele>
   </trkpt>
   <trkpt lat="-20.033170000000002" lon="-44.00386">
    <ele>1274.6399999999999</ele>
   </trkpt>
   <trkpt lat="-20.033350000000002" lon="-44.003750000000004">
    <ele>1278.8700000000001</ele>
   </trkpt>
   <trkpt lat="-20.033360000000002" lon="-44.00368">
    <ele>1278.8700000000001</ele>
   </trkpt>
   <trkpt lat="-20.03329" lon="-44.00359">
    <ele>1281.5700000000002</ele>
   </trkpt>
   <trkpt lat="-20.03327" lon="-44.00352">
    <ele>1283.15</ele>
   </trkpt>
   <trkpt lat="-20.03329" lon="-44.00343">
    <ele>1283.9</ele>
   </trkpt>
   <trkpt lat="-20.033360000000002" lon="-44.00339">
    <ele>1285.1800000000003</ele>
   </trkpt>
   <trkpt lat="-20.03366" lon="-44.00339">
    <ele>1290.15</ele>
   </trkpt>
   <trkpt lat="-20.03368" lon="-44.003350000000005">
    <ele>1290.15</ele>
   </trkpt>
   <trkpt lat="-20.03369" lon="-44.00332">
    <ele>1290.15</ele>
   </trkpt>
   <trkpt lat="-20.033630000000002" lon="-44.0033">
    <ele>1291.4</ele>
   </trkpt>
   <trkpt lat="-20.033530000000003" lon="-44.00323">
    <ele>1292.7900000000002</ele>
   </trkpt>
   <trkpt lat="-20.03346" lon="-44.00307">
    <ele>1294.69</ele>
   </trkpt>
   <trkpt lat="-20.03347" lon="-44.003">
    <ele>1296.2900000000002</ele>
   </trkpt>
   <trkpt lat="-20.03348" lon="-44.00296">
    <ele>1296.7700000000002</ele>
   </trkpt>
   <trkpt lat="-20.03355" lon="-44.00296">
    <ele>1296.7700000000002</ele>
   </trkpt>
   <trkpt lat="-20.03356" lon="-44.00305">
    <ele>1301.1000000000001</ele>
   </trkpt>
   <trkpt lat="-20.03366" lon="-44.0031">
    <ele>1301.1000000000001</ele>
   </trkpt>
   <trkpt lat="-20.03376" lon="-44.0031">
    <ele>1304.6200000000001</ele>
   </trkpt>
   <trkpt lat="-20.03385" lon="-44.00307">
    <ele>1307.42</ele>
   </trkpt>
   <trkpt lat="-20.03395" lon="-44.00312">
    <ele>1307.42</ele>
   </trkpt>
   <trkpt lat="-20.03405" lon="-44.0031">
    <ele>1311.0900000000001</ele>
   </trkpt>
   <trkpt lat="-20.03413" lon="-44.00321">
    <ele>1312.7700000000002</ele>
   </trkpt>
   <trkpt lat="-20.03424" lon="-44.00321">
    <ele>1314.63</ele>
   </trkpt>
   <trkpt lat="-20.03459" lon="-44.00334">
    <ele>1319.4</ele>
   </trkpt>
   <trkpt lat="-20.034840000000003" lon="-44.0033">
    <ele>1321.43</ele>
   </trkpt>
   <trkpt lat="-20.03538" lon="-44.00334">
    <ele>1326.77</ele>
   </trkpt>
   <trkpt lat="-20.03545" lon="-44.00345">
    <ele>1328.6</ele>
   </trkpt>
   <trkpt lat="-20.03592" lon="-44.00392">
    <ele>1337.3600000000001</ele>
   </trkpt>
   <trkpt lat="-20.0362" lon="-44.00466">
    <ele>1343.32</ele>
   </trkpt>
   <trkpt lat="-20.03676" lon="-44.00506">
    <ele>1342.17</ele>
   </trkpt>
   <trkpt lat="-20.03679" lon="-44.00542">
    <ele>1345.5400000000002</ele>
   </trkpt>
   <trkpt lat="-20.0375" lon="-44.00598">
    <ele>1350.95</ele>
   </trkpt>
   <trkpt lat="-20.03771" lon="-44.00636">
    <ele>1354.51</ele>
   </trkpt>
   <trkpt lat="-20.038" lon="-44.00661">
    <ele>1357.0600000000002</ele>
   </trkpt>
   <trkpt lat="-20.038325000208555" lon="-44.006979999034144">
    <ele>1362.5200000000002</ele>
   </trkpt>
   <trkpt lat="-20.03865" lon="-44.00735">
    <ele>1368.78</ele>
   </trkpt>
   <trkpt lat="-20.03921" lon="-44.007490000000004">
    <ele>1376.9900000000002</ele>
   </trkpt>
   <trkpt lat="-20.03966" lon="-44.00739">
    <ele>1381.4700000000003</ele>
   </trkpt>
   <trkpt lat="-20.04005" lon="-44.00746">
    <ele>1385.99</ele>
   </trkpt>
   <trkpt lat="-20.040940000000003" lon="-44.007490000000004">
    <ele>1389.5600000000002</ele>
   </trkpt>
   <trkpt lat="-20.04117" lon="-44.007670000000005">
    <ele>1389.67</ele>
   </trkpt>
   <trkpt lat="-20.04145" lon="-44.0082">
    <ele>1389.58</ele>
   </trkpt>
   <trkpt lat="-20.04167" lon="-44.008430000000004">
    <ele>1389.7</ele>
   </trkpt>
   <trkpt lat="-20.041860000000003" lon="-44.008680000000005">
    <ele>1386.88</ele>
   </trkpt>
   <trkpt lat="-20.04184" lon="-44.008680000000005">
    <ele>1386.48</ele>
   </trkpt>
   <trkpt lat="-20.04176" lon="-44.008810000000004">
    <ele>1388.44</ele>
   </trkpt>
   <trkpt lat="-20.04183" lon="-44.008990000000004">
    <ele>1391.8300000000002</ele>
   </trkpt>
   <trkpt lat="-20.04211" lon="-44.00932">
    <ele>1399.8600000000001</ele>
   </trkpt>
   <trkpt lat="-20.0423" lon="-44.00938">
    <ele>1403.15</ele>
   </trkpt>
   <trkpt lat="-20.04248" lon="-44.00954">
    <ele>1406.53</ele>
   </trkpt>
   <trkpt lat="-20.04249" lon="-44.00961">
    <ele>1406.53</ele>
   </trkpt>
   <trkpt lat="-20.04294000021229" lon="-44.00980499948697">
    <ele>1405.5600000000002</ele>
   </trkpt>
   <trkpt lat="-20.043390000000002" lon="-44.010000000000005">
    <ele>1405.79</ele>
   </trkpt>
   <trkpt lat="-20.04392" lon="-44.01032">
    <ele>1407.8400000000001</ele>
   </trkpt>
   <trkpt lat="-20.044420000000002" lon="-44.01059">
    <ele>1409.1</ele>
   </trkpt>
   <trkpt lat="-20.044980000000002" lon="-44.01071">
    <ele>1408.41</ele>
   </trkpt>
   <trkpt lat="-20.045180000000002" lon="-44.0108">
    <ele>1408.47</ele>
   </trkpt>
   <trkpt lat="-20.04568" lon="-44.010960000000004">
    <ele>1409.58</ele>
   </trkpt>
   <trkpt lat="-20.045830000000002" lon="-44.011050000000004">
    <ele>1410.02</ele>
   </trkpt>
   <trkpt lat="-20.046110000000002" lon="-44.01129">
    <ele>1411.48</ele>
   </trkpt>
   <trkpt lat="-20.046445000530994" lon="-44.01174999893124">
    <ele>1412.3100000000002</ele>
   </trkpt>
   <trkpt lat="-20.046780000000002" lon="-44.01221">
    <ele>1410.3100000000002</ele>
   </trkpt>
   <trkpt lat="-20.047050000418125" lon="-44.01260999926551">
    <ele>1410.67</ele>
   </trkpt>
   <trkpt lat="-20.047320000000003" lon="-44.01301">
    <ele>1412.74</ele>
   </trkpt>
   <trkpt lat="-20.04794" lon="-44.0131">
    <ele>1416.7900000000002</ele>
   </trkpt>
   <trkpt lat="-20.048370000000002" lon="-44.013020000000004">
    <ele>1413.9700000000003</ele>
   </trkpt>
   <trkpt lat="-20.04905" lon="-44.01259">
    <ele>1404.6000000000001</ele>
   </trkpt>
   <trkpt lat="-20.049780000000002" lon="-44.01241">
    <ele>1397.51</ele>
   </trkpt>
   <trkpt lat="-20.04983" lon="-44.01234">
    <ele>1396.7200000000003</ele>
   </trkpt>
   <trkpt lat="-20.04988" lon="-44.01214">
    <ele>1395.25</ele>
   </trkpt>
   <trkpt lat="-20.04981" lon="-44.01203">
    <ele>1393.0600000000002</ele>
   </trkpt>
   <trkpt lat="-20.04992" lon="-44.01165">
    <ele>1388.1000000000001</ele>
   </trkpt>
   <trkpt lat="-20.04982" lon="-44.01144">
    <ele>1383.97</ele>
   </trkpt>
   <trkpt lat="-20.04998" lon="-44.01129">
    <ele>1381.8600000000001</ele>
   </trkpt>
   <trkpt lat="-20.05048" lon="-44.011070000000004">
    <ele>1374.18</ele>
   </trkpt>
   <trkpt lat="-20.05066" lon="-44.010670000000005">
    <ele>1363.41</ele>
   </trkpt>
   <trkpt lat="-20.05076" lon="-44.01024">
    <ele>1357.13</ele>
   </trkpt>
   <trkpt lat="-20.05105" lon="-44.00959">
    <ele>1347.58</ele>
   </trkpt>
   <trkpt lat="-20.0513" lon="-44.00949000000001">
    <ele>1342.72</ele>
   </trkpt>
   <trkpt lat="-20.0513" lon="-44.0095">
    <ele>1342.72</ele>
   </trkpt>
   <trkpt lat="-20.05131" lon="-44.00941">
    <ele>1340.67</ele>
   </trkpt>
   <trkpt lat="-20.05132" lon="-44.00873000000001">
    <ele>1325.43</ele>
   </trkpt>
   <trkpt lat="-20.05149" lon="-44.008430000000004">
    <ele>1323.8500000000001</ele>
   </trkpt>
   <trkpt lat="-20.0514" lon="-44.00835">
    <ele>1323.7500000000002</ele>
   </trkpt>
   <trkpt lat="-20.05138" lon="-44.00827">
    <ele>1323.49</ele>
   </trkpt>
   <trkpt lat="-20.051280000000002" lon="-44.00827">
    <ele>1323.0300000000002</ele>
   </trkpt>
   <trkpt lat="-20.05121" lon="-44.00811">
    <ele>1322.72</ele>
   </trkpt>
   <trkpt lat="-20.05112" lon="-44.00804">
    <ele>1322.71</ele>
   </trkpt>
   <trkpt lat="-20.05096" lon="-44.00804">
    <ele>1323.3000000000002</ele>
   </trkpt>
   <trkpt lat="-20.05093" lon="-44.00793">
    <ele>1323.79</ele>
   </trkpt>
   <trkpt lat="-20.05093" lon="-44.00786">
    <ele>1324.3400000000001</ele>
   </trkpt>
   <trkpt lat="-20.05084" lon="-44.00775">
    <ele>1325.3600000000001</ele>
   </trkpt>
   <trkpt lat="-20.050800000000002" lon="-44.00753">
    <ele>1327.0900000000001</ele>
   </trkpt>
   <trkpt lat="-20.05086" lon="-44.007020000000004">
    <ele>1333.3300000000002</ele>
   </trkpt>
   <trkpt lat="-20.05093" lon="-44.00686">
    <ele>1335.8000000000002</ele>
   </trkpt>
   <trkpt lat="-20.05093" lon="-44.00668">
    <ele>1338.0400000000002</ele>
   </trkpt>
   <trkpt lat="-20.05084" lon="-44.00618">
    <ele>1342.67</ele>
   </trkpt>
   <trkpt lat="-20.05083" lon="-44.00591">
    <ele>1345.2400000000002</ele>
   </trkpt>
   <trkpt lat="-20.050600000000003" lon="-44.00553">
    <ele>1350.8300000000002</ele>
   </trkpt>
   <trkpt lat="-20.05029" lon="-44.00542">
    <ele>1352.95</ele>
   </trkpt>
   <trkpt lat="-20.05011" lon="-44.00495">
    <ele>1359.25</ele>
   </trkpt>
   <trkpt lat="-20.04979" lon="-44.00457">
    <ele>1365.79</ele>
   </trkpt>
   <trkpt lat="-20.049770000000002" lon="-44.004220000000004">
    <ele>1369.24</ele>
   </trkpt>
   <trkpt lat="-20.049770000000002" lon="-44.004200000000004">
    <ele>1369.24</ele>
   </trkpt>
   <trkpt lat="-20.05018" lon="-44.00428">
    <ele>1372.88</ele>
   </trkpt>
   <trkpt lat="-20.05029" lon="-44.004200000000004">
    <ele>1373.92</ele>
   </trkpt>
   <trkpt lat="-20.050340000000002" lon="-44.00405000000001">
    <ele>1377.17</ele>
   </trkpt>
   <trkpt lat="-20.0503" lon="-44.00397">
    <ele>1378.1100000000001</ele>
   </trkpt>
   <trkpt lat="-20.05067" lon="-44.00352">
    <ele>1381.2600000000002</ele>
   </trkpt>
   <trkpt lat="-20.05084" lon="-44.002790000000005">
    <ele>1379.17</ele>
   </trkpt>
   <trkpt lat="-20.050800000000002" lon="-44.00256">
    <ele>1379.0600000000002</ele>
   </trkpt>
   <trkpt lat="-20.05083" lon="-44.00227">
    <ele>1379.5400000000002</ele>
   </trkpt>
   <trkpt lat="-20.05094" lon="-44.00193">
    <ele>1380.2</ele>
   </trkpt>
   <trkpt lat="-20.05112" lon="-44.00175">
    <ele>1381.46</ele>
   </trkpt>
   <trkpt lat="-20.05121" lon="-44.001310000000004">
    <ele>1383.85</ele>
   </trkpt>
   <trkpt lat="-20.05122" lon="-44.00115">
    <ele>1385.48</ele>
   </trkpt>
   <trkpt lat="-20.051440000000003" lon="-44.00104">
    <ele>1388.06</ele>
   </trkpt>
   <trkpt lat="-20.05159" lon="-44.000910000000005">
    <ele>1389.58</ele>
   </trkpt>
   <trkpt lat="-20.05177" lon="-44.00092">
    <ele>1391.85</ele>
   </trkpt>
   <trkpt lat="-20.051840000000002" lon="-44.00101">
    <ele>1391.85</ele>
   </trkpt>
   <trkpt lat="-20.05196" lon="-44.001050000000006">
    <ele>1393.4</ele>
   </trkpt>
   <trkpt lat="-20.051930000000002" lon="-44.00076000000001">
    <ele>1394.63</ele>
   </trkpt>
   <trkpt lat="-20.05199" lon="-44.000530000000005">
    <ele>1394.6100000000001</ele>
   </trkpt>
   <trkpt lat="-20.052020000000002" lon="-44.000020000000006">
    <ele>1394.8200000000002</ele>
   </trkpt>
   <trkpt lat="-20.05199" lon="-44.000530000000005">
    <ele>1394.67</ele>
   </trkpt>
   <trkpt lat="-20.05204" lon="-44.000750000000004">
    <ele>1395.72</ele>
   </trkpt>
   <trkpt lat="-20.05207" lon="-44.001380000000005">
    <ele>1400.18</ele>
   </trkpt>
   <trkpt lat="-20.05216" lon="-44.00144">
    <ele>1401.24</ele>
   </trkpt>
   <trkpt lat="-20.05224" lon="-44.00144">
    <ele>1402.95</ele>
   </trkpt>
   <trkpt lat="-20.05236" lon="-44.001490000000004">
    <ele>1404.83</ele>
   </trkpt>
   <trkpt lat="-20.05271" lon="-44.00121">
    <ele>1409.78</ele>
   </trkpt>
   <trkpt lat="-20.0529" lon="-44.001200000000004">
    <ele>1412.8500000000001</ele>
   </trkpt>
   <trkpt lat="-20.053620000654" lon="-44.00154333017934">
    <ele>1420.68</ele>
   </trkpt>
   <trkpt lat="-20.05434000064531" lon="-44.00188666350848">
    <ele>1433.6000000000001</ele>
   </trkpt>
   <trkpt lat="-20.05506" lon="-44.002230000000004">
    <ele>1447.5</ele>
   </trkpt>
   <trkpt lat="-20.05553" lon="-44.00229">
    <ele>1453.69</ele>
   </trkpt>
   <trkpt lat="-20.056306666770627" lon="-44.002146668087484">
    <ele>1468.2700000000002</ele>
   </trkpt>
   <trkpt lat="-20.057083333425737" lon="-44.00200333475631">
    <ele>1481.8300000000002</ele>
   </trkpt>
   <trkpt lat="-20.05786" lon="-44.00186">
    <ele>1493.3500000000001</ele>
   </trkpt>
   <trkpt lat="-20.05827" lon="-44.00171">
    <ele>1495.74</ele>
   </trkpt>
   <trkpt lat="-20.05836" lon="-44.00177">
    <ele>1495.6100000000001</ele>
   </trkpt>
   <trkpt lat="-20.058175000784292" lon="-44.00231000074036">
    <ele>1493.33</ele>
   </trkpt>
   <trkpt lat="-20.05799" lon="-44.00285">
    <ele>1492.15</ele>
   </trkpt>
   <trkpt lat="-20.05798" lon="-44.00305">
    <ele>1491.44</ele>
   </trkpt>
   <trkpt lat="-20.058120000000002" lon="-44.00341">
    <ele>1491.24</ele>
   </trkpt>
   <trkpt lat="-20.058040000000002" lon="-44.00372">
    <ele>1492.2000000000003</ele>
   </trkpt>
   <trkpt lat="-20.05788" lon="-44.00397">
    <ele>1492.67</ele>
   </trkpt>
   <trkpt lat="-20.057750000000002" lon="-44.0043">
    <ele>1492.8500000000001</ele>
   </trkpt>
   <trkpt lat="-20.05769" lon="-44.00471">
    <ele>1493.2900000000002</ele>
   </trkpt>
   <trkpt lat="-20.057750000000002" lon="-44.00507">
    <ele>1494.21</ele>
   </trkpt>
   <trkpt lat="-20.05787" lon="-44.0054">
    <ele>1492.89</ele>
   </trkpt>
   <trkpt lat="-20.058320000000002" lon="-44.00591">
    <ele>1486.3400000000001</ele>
   </trkpt>
   <trkpt lat="-20.058490000000003" lon="-44.00621">
    <ele>1484.7700000000002</ele>
   </trkpt>
   <trkpt lat="-20.05855" lon="-44.00674">
    <ele>1481.53</ele>
   </trkpt>
   <trkpt lat="-20.05855" lon="-44.00715">
    <ele>1479.9700000000003</ele>
   </trkpt>
   <trkpt lat="-20.05865" lon="-44.0073">
    <ele>1478.99</ele>
   </trkpt>
   <trkpt lat="-20.05864" lon="-44.00748">
    <ele>1478.55</ele>
   </trkpt>
   <trkpt lat="-20.05874" lon="-44.00764">
    <ele>1477.2500000000002</ele>
   </trkpt>
   <trkpt lat="-20.058770000000003" lon="-44.00798">
    <ele>1475.47</ele>
   </trkpt>
   <trkpt lat="-20.05889" lon="-44.00833">
    <ele>1474.8400000000001</ele>
   </trkpt>
   <trkpt lat="-20.05892" lon="-44.00901">
    <ele>1474.82</ele>
   </trkpt>
   <trkpt lat="-20.05903" lon="-44.00934">
    <ele>1475.06</ele>
   </trkpt>
   <trkpt lat="-20.0591" lon="-44.009660000000004">
    <ele>1474.76</ele>
   </trkpt>
   <trkpt lat="-20.0591" lon="-44.0101">
    <ele>1471.6100000000001</ele>
   </trkpt>
   <trkpt lat="-20.058960000000003" lon="-44.01019">
    <ele>1470.6800000000003</ele>
   </trkpt>
   <trkpt lat="-20.058750000000003" lon="-44.01048">
    <ele>1466.8100000000002</ele>
   </trkpt>
   <trkpt lat="-20.05863" lon="-44.01104">
    <ele>1461.9</ele>
   </trkpt>
   <trkpt lat="-20.058590000000002" lon="-44.01153">
    <ele>1458.64</ele>
   </trkpt>
   <trkpt lat="-20.05855" lon="-44.01205">
    <ele>1455.72</ele>
   </trkpt>
   <trkpt lat="-20.05864" lon="-44.01247">
    <ele>1453.88</ele>
   </trkpt>
   <trkpt lat="-20.05863" lon="-44.01277">
    <ele>1450.39</ele>
   </trkpt>
   <trkpt lat="-20.05846" lon="-44.01297">
    <ele>1447.3200000000002</ele>
   </trkpt>
   <trkpt lat="-20.05833" lon="-44.01324">
    <ele>1440.77</ele>
   </trkpt>
   <trkpt lat="-20.05807" lon="-44.013960000000004">
    <ele>1427.17</ele>
   </trkpt>
   <trkpt lat="-20.057560000000002" lon="-44.01469">
    <ele>1410.89</ele>
   </trkpt>
   <trkpt lat="-20.057380000000002" lon="-44.015080000000005">
    <ele>1405.3000000000002</ele>
   </trkpt>
   <trkpt lat="-20.05698500039221" lon="-44.01544500090239">
    <ele>1399.0900000000001</ele>
   </trkpt>
   <trkpt lat="-20.05659" lon="-44.01581">
    <ele>1393.46</ele>
   </trkpt>
   <trkpt lat="-20.05628" lon="-44.016020000000005">
    <ele>1390.19</ele>
   </trkpt>
   <trkpt lat="-20.056060000000002" lon="-44.016220000000004">
    <ele>1388.0</ele>
   </trkpt>
   <trkpt lat="-20.05612" lon="-44.01639">
    <ele>1388.14</ele>
   </trkpt>
   <trkpt lat="-20.056160000000002" lon="-44.01691">
    <ele>1391.92</ele>
   </trkpt>
   <trkpt lat="-20.056240000000003" lon="-44.01709">
    <ele>1392.73</ele>
   </trkpt>
   <trkpt lat="-20.05671000055651" lon="-44.017569998469305">
    <ele>1400.19</ele>
   </trkpt>
   <trkpt lat="-20.057180000000002" lon="-44.01805">
    <ele>1403.14</ele>
   </trkpt>
   <trkpt lat="-20.05733" lon="-44.018280000000004">
    <ele>1401.3300000000002</ele>
   </trkpt>
   <trkpt lat="-20.05761" lon="-44.01906">
    <ele>1395.44</ele>
   </trkpt>
   <trkpt lat="-20.057660000000002" lon="-44.01948">
    <ele>1392.29</ele>
   </trkpt>
   <trkpt lat="-20.05761" lon="-44.01977">
    <ele>1390.19</ele>
   </trkpt>
   <trkpt lat="-20.057560000000002" lon="-44.02004">
    <ele>1388.66</ele>
   </trkpt>
   <trkpt lat="-20.0575" lon="-44.02013">
    <ele>1388.24</ele>
   </trkpt>
   <trkpt lat="-20.05704" lon="-44.02031">
    <ele>1387.2900000000002</ele>
   </trkpt>
   <trkpt lat="-20.05695" lon="-44.020360000000004">
    <ele>1387.2900000000002</ele>
   </trkpt>
   <trkpt lat="-20.056900000000002" lon="-44.02047">
    <ele>1386.95</ele>
   </trkpt>
   <trkpt lat="-20.056910000000002" lon="-44.02065">
    <ele>1386.18</ele>
   </trkpt>
   <trkpt lat="-20.05704" lon="-44.02096">
    <ele>1384.44</ele>
   </trkpt>
   <trkpt lat="-20.05722" lon="-44.02109">
    <ele>1381.3600000000001</ele>
   </trkpt>
   <trkpt lat="-20.05759" lon="-44.021190000000004">
    <ele>1379.73</ele>
   </trkpt>
   <trkpt lat="-20.057750000000002" lon="-44.02127">
    <ele>1378.3200000000002</ele>
   </trkpt>
   <trkpt lat="-20.05787" lon="-44.02143">
    <ele>1377.55</ele>
   </trkpt>
   <trkpt lat="-20.05787" lon="-44.02176">
    <ele>1373.38</ele>
   </trkpt>
   <trkpt lat="-20.057940000000002" lon="-44.02223">
    <ele>1370.42</ele>
   </trkpt>
   <trkpt lat="-20.05798" lon="-44.022400000000005">
    <ele>1363.3000000000002</ele>
   </trkpt>
   <trkpt lat="-20.057830000000003" lon="-44.022450000000006">
    <ele>1367.58</ele>
   </trkpt>
   <trkpt lat="-20.05777" lon="-44.02253">
    <ele>1371.3200000000002</ele>
   </trkpt>
   <trkpt lat="-20.057730000000003" lon="-44.02263000000001">
    <ele>1373.55</ele>
   </trkpt>
   <trkpt lat="-20.057570000000002" lon="-44.022920000000006">
    <ele>1374.57</ele>
   </trkpt>
   <trkpt lat="-20.0575" lon="-44.02299">
    <ele>1374.78</ele>
   </trkpt>
   <trkpt lat="-20.05732" lon="-44.02310000000001">
    <ele>1375.96</ele>
   </trkpt>
   <trkpt lat="-20.057070000000003" lon="-44.023230000000005">
    <ele>1379.79</ele>
   </trkpt>
   <trkpt lat="-20.05687" lon="-44.02322">
    <ele>1385.01</ele>
   </trkpt>
   <trkpt lat="-20.056780000000003" lon="-44.023250000000004">
    <ele>1388.5500000000002</ele>
   </trkpt>
   <trkpt lat="-20.056690000000003" lon="-44.023210000000006">
    <ele>1390.98</ele>
   </trkpt>
   <trkpt lat="-20.05649" lon="-44.02324">
    <ele>1396.0800000000002</ele>
   </trkpt>
   <trkpt lat="-20.0564" lon="-44.023230000000005">
    <ele>1397.51</ele>
   </trkpt>
   <trkpt lat="-20.05629" lon="-44.023070000000004">
    <ele>1401.8100000000002</ele>
   </trkpt>
   <trkpt lat="-20.056130000000003" lon="-44.02297">
    <ele>1406.1100000000001</ele>
   </trkpt>
   <trkpt lat="-20.05592" lon="-44.02277">
    <ele>1413.96</ele>
   </trkpt>
   <trkpt lat="-20.05583" lon="-44.02273">
    <ele>1416.88</ele>
   </trkpt>
   <trkpt lat="-20.055600000000002" lon="-44.022400000000005">
    <ele>1426.63</ele>
   </trkpt>
   <trkpt lat="-20.055500000000002" lon="-44.02221">
    <ele>1432.2100000000003</ele>
   </trkpt>
   <trkpt lat="-20.055390000000003" lon="-44.02192">
    <ele>1436.71</ele>
   </trkpt>
   <trkpt lat="-20.05533" lon="-44.021730000000005">
    <ele>1441.6000000000001</ele>
   </trkpt>
   <trkpt lat="-20.055090000000003" lon="-44.02118">
    <ele>1447.21</ele>
   </trkpt>
   <trkpt lat="-20.05489" lon="-44.02107">
    <ele>1440.0000000000002</ele>
   </trkpt>
   <trkpt lat="-20.05497" lon="-44.0208">
    <ele>1443.1100000000001</ele>
   </trkpt>
   <trkpt lat="-20.05495" lon="-44.02051">
    <ele>1444.3400000000001</ele>
   </trkpt>
   <trkpt lat="-20.054850001019144" lon="-44.01990999966063">
    <ele>1442.71</ele>
   </trkpt>
   <trkpt lat="-20.054750000000002" lon="-44.019310000000004">
    <ele>1437.8000000000002</ele>
   </trkpt>
   <trkpt lat="-20.054660000000002" lon="-44.01903">
    <ele>1435.8300000000002</ele>
   </trkpt>
   <trkpt lat="-20.054540000000003" lon="-44.01881">
    <ele>1434.73</ele>
   </trkpt>
   <trkpt lat="-20.05423" lon="-44.01832">
    <ele>1433.71</ele>
   </trkpt>
   <trkpt lat="-20.054100000000002" lon="-44.01834">
    <ele>1433.5300000000002</ele>
   </trkpt>
   <trkpt lat="-20.053710000000002" lon="-44.01787">
    <ele>1432.15</ele>
   </trkpt>
   <trkpt lat="-20.05302" lon="-44.01756">
    <ele>1430.5500000000002</ele>
   </trkpt>
   <trkpt lat="-20.05251" lon="-44.01756">
    <ele>1428.1800000000003</ele>
   </trkpt>
   <trkpt lat="-20.05188" lon="-44.0176">
    <ele>1422.77</ele>
   </trkpt>
   <trkpt lat="-20.05103" lon="-44.01787">
    <ele>1428.22</ele>
   </trkpt>
   <trkpt lat="-20.050350000055168" lon="-44.017734999416035">
    <ele>1437.4600000000003</ele>
   </trkpt>
   <trkpt lat="-20.049670000000003" lon="-44.0176">
    <ele>1441.5200000000002</ele>
   </trkpt>
   <trkpt lat="-20.049310000000002" lon="-44.017160000000004">
    <ele>1441.5600000000002</ele>
   </trkpt>
   <trkpt lat="-20.048950000693452" lon="-44.016664998871626">
    <ele>1441.2900000000002</ele>
   </trkpt>
   <trkpt lat="-20.04859" lon="-44.01617">
    <ele>1442.14</ele>
   </trkpt>
   <trkpt lat="-20.04804" lon="-44.01563">
    <ele>1444.77</ele>
   </trkpt>
   <trkpt lat="-20.04765" lon="-44.01534">
    <ele>1443.45</ele>
   </trkpt>
   <trkpt lat="-20.04755" lon="-44.015130000000006">
    <ele>1442.01</ele>
   </trkpt>
   <trkpt lat="-20.04699" lon="-44.01518">
    <ele>1434.53</ele>
   </trkpt>
   <trkpt lat="-20.04671" lon="-44.01523">
    <ele>1428.89</ele>
   </trkpt>
   <trkpt lat="-20.046580001064328" lon="-44.0146249996655">
    <ele>1426.95</ele>
   </trkpt>
   <trkpt lat="-20.04645" lon="-44.01402">
    <ele>1424.2400000000002</ele>
   </trkpt>
   <trkpt lat="-20.04654" lon="-44.013870000000004">
    <ele>1421.91</ele>
   </trkpt>
   <trkpt lat="-20.04643" lon="-44.01342">
    <ele>1410.2800000000002</ele>
   </trkpt>
   <trkpt lat="-20.04636" lon="-44.01337">
    <ele>1408.32</ele>
   </trkpt>
   <trkpt lat="-20.04594" lon="-44.01335">
    <ele>1399.67</ele>
   </trkpt>
   <trkpt lat="-20.045240000000003" lon="-44.013040000000004">
    <ele>1378.71</ele>
   </trkpt>
   <trkpt lat="-20.04474" lon="-44.01279">
    <ele>1367.75</ele>
   </trkpt>
   <trkpt lat="-20.044340000000002" lon="-44.01240000000001">
    <ele>1356.6200000000001</ele>
   </trkpt>
   <trkpt lat="-20.044310000000003" lon="-44.012370000000004">
    <ele>1355.4700000000003</ele>
   </trkpt>
   <trkpt lat="-20.044040000000003" lon="-44.01227">
    <ele>1344.2900000000002</ele>
   </trkpt>
   <trkpt lat="-20.04389" lon="-44.01227">
    <ele>1341.3400000000001</ele>
   </trkpt>
   <trkpt lat="-20.04324" lon="-44.01243">
    <ele>1330.54</ele>
   </trkpt>
   <trkpt lat="-20.04298" lon="-44.01265">
    <ele>1327.53</ele>
   </trkpt>
   <trkpt lat="-20.04279" lon="-44.01279">
    <ele>1325.3700000000001</ele>
   </trkpt>
   <trkpt lat="-20.04231" lon="-44.0129">
    <ele>1317.46</ele>
   </trkpt>
   <trkpt lat="-20.0421" lon="-44.0131">
    <ele>1312.7000000000003</ele>
   </trkpt>
   <trkpt lat="-20.04172" lon="-44.01321">
    <ele>1304.19</ele>
   </trkpt>
   <trkpt lat="-20.04117" lon="-44.013130000000004">
    <ele>1287.2700000000002</ele>
   </trkpt>
   <trkpt lat="-20.040770000000002" lon="-44.01312">
    <ele>1277.66</ele>
   </trkpt>
   <trkpt lat="-20.040480000000002" lon="-44.01319">
    <ele>1274.82</ele>
   </trkpt>
   <trkpt lat="-20.03986" lon="-44.01346">
    <ele>1252.8300000000002</ele>
   </trkpt>
   <trkpt lat="-20.03976" lon="-44.01346">
    <ele>1249.8</ele>
   </trkpt>
   <trkpt lat="-20.03956" lon="-44.01368">
    <ele>1239.2800000000002</ele>
   </trkpt>
   <trkpt lat="-20.039270000000002" lon="-44.01371">
    <ele>1233.0400000000002</ele>
   </trkpt>
   <trkpt lat="-20.039" lon="-44.01397">
    <ele>1225.71</ele>
   </trkpt>
   <trkpt lat="-20.03883" lon="-44.01418">
    <ele>1217.41</ele>
   </trkpt>
   <trkpt lat="-20.038520000000002" lon="-44.01465">
    <ele>1201.8000000000002</ele>
   </trkpt>
   <trkpt lat="-20.03853" lon="-44.01485">
    <ele>1194.5700000000002</ele>
   </trkpt>
   <trkpt lat="-20.03845" lon="-44.01496">
    <ele>1189.4600000000003</ele>
   </trkpt>
   <trkpt lat="-20.03838" lon="-44.01514">
    <ele>1185.23</ele>
   </trkpt>
   <trkpt lat="-20.038220000000003" lon="-44.01541">
    <ele>1179.71</ele>
   </trkpt>
   <trkpt lat="-20.03819" lon="-44.01556">
    <ele>1178.0900000000001</ele>
   </trkpt>
   <trkpt lat="-20.038140000000002" lon="-44.015690000000006">
    <ele>1174.3600000000001</ele>
   </trkpt>
   <trkpt lat="-20.03787" lon="-44.01543">
    <ele>1176.5400000000002</ele>
   </trkpt>
   <trkpt lat="-20.03769" lon="-44.01518">
    <ele>1176.86</ele>
   </trkpt>
   <trkpt lat="-20.03753" lon="-44.015190000000004">
    <ele>1177.41</ele>
   </trkpt>
   <trkpt lat="-20.037490000000002" lon="-44.01525">
    <ele>1177.66</ele>
   </trkpt>
   <trkpt lat="-20.03742" lon="-44.01536">
    <ele>1178.8</ele>
   </trkpt>
   <trkpt lat="-20.03722000073319" lon="-44.01587500068611">
    <ele>1183.4600000000003</ele>
   </trkpt>
   <trkpt lat="-20.037020000000002" lon="-44.01639">
    <ele>1193.2500000000002</ele>
   </trkpt>
   <trkpt lat="-20.03671500111206" lon="-44.01703000132326">
    <ele>1199.72</ele>
   </trkpt>
   <trkpt lat="-20.03641" lon="-44.01767">
    <ele>1202.82</ele>
   </trkpt>
   <trkpt lat="-20.036360000000002" lon="-44.01773">
    <ele>1202.82</ele>
   </trkpt>
   <trkpt lat="-20.036230000000003" lon="-44.01778">
    <ele>1204.19</ele>
   </trkpt>
   <trkpt lat="-20.03622" lon="-44.01778">
    <ele>1204.19</ele>
   </trkpt>
   <trkpt lat="-20.03613" lon="-44.01776">
    <ele>1204.76</ele>
   </trkpt>
   <trkpt lat="-20.035674999978138" lon="-44.01770499983705">
    <ele>1204.5100000000002</ele>
   </trkpt>
   <trkpt lat="-20.035220000000002" lon="-44.01765">
    <ele>1203.47</ele>
   </trkpt>
   <trkpt lat="-20.034750000000003" lon="-44.017720000000004">
    <ele>1203.3600000000001</ele>
   </trkpt>
   <trkpt lat="-20.034570000000002" lon="-44.01773">
    <ele>1202.92</ele>
   </trkpt>
   <trkpt lat="-20.033790000000003" lon="-44.01766000000001">
    <ele>1202.7500000000002</ele>
   </trkpt>
   <trkpt lat="-20.03368" lon="-44.01767">
    <ele>1202.35</ele>
   </trkpt>
   <trkpt lat="-20.033440000000002" lon="-44.017590000000006">
    <ele>1202.35</ele>
   </trkpt>
   <trkpt lat="-20.03338" lon="-44.017540000000004">
    <ele>1202.35</ele>
   </trkpt>
   <trkpt lat="-20.03322" lon="-44.017340000000004">
    <ele>1202.0000000000002</ele>
   </trkpt>
   <trkpt lat="-20.03312" lon="-44.017070000000004">
    <ele>1201.3500000000001</ele>
   </trkpt>
   <trkpt lat="-20.03303" lon="-44.01693">
    <ele>1201.3500000000001</ele>
   </trkpt>
   <trkpt lat="-20.03282" lon="-44.01628">
    <ele>1200.6000000000001</ele>
   </trkpt>
   <trkpt lat="-20.032690000000002" lon="-44.0161">
    <ele>1200.22</ele>
   </trkpt>
   <trkpt lat="-20.03263" lon="-44.01588">
    <ele>1199.42</ele>
   </trkpt>
   <trkpt lat="-20.03216" lon="-44.015100000000004">
    <ele>1198.0700000000002</ele>
   </trkpt>
   <trkpt lat="-20.03207" lon="-44.01478">
    <ele>1197.47</ele>
   </trkpt>
   <trkpt lat="-20.031885001362" lon="-44.01408499920235">
    <ele>1195.92</ele>
   </trkpt>
   <trkpt lat="-20.0317" lon="-44.01339">
    <ele>1193.38</ele>
   </trkpt>
   <trkpt lat="-20.0316" lon="-44.01256">
    <ele>1194.45</ele>
   </trkpt>
   <trkpt lat="-20.03149" lon="-44.012040000000006">
    <ele>1196.0000000000002</ele>
   </trkpt>
   <trkpt lat="-20.0316" lon="-44.01191">
    <ele>1199.6</ele>
   </trkpt>
   <trkpt lat="-20.031640000000003" lon="-44.01194">
    <ele>1199.8500000000001</ele>
   </trkpt>
   <trkpt lat="-20.031830000000003" lon="-44.01193000000001">
    <ele>1200.8500000000001</ele>
   </trkpt>
   <trkpt lat="-20.03191" lon="-44.01196">
    <ele>1201.5900000000001</ele>
   </trkpt>
   <trkpt lat="-20.03198" lon="-44.01203">
    <ele>1201.8200000000002</ele>
   </trkpt>
   <trkpt lat="-20.03199" lon="-44.01193000000001">
    <ele>1201.84</ele>
   </trkpt>
   <trkpt lat="-20.03218" lon="-44.011900000000004">
    <ele>1203.53</ele>
   </trkpt>
   <trkpt lat="-20.03226" lon="-44.011860000000006">
    <ele>1203.78</ele>
   </trkpt>
   <trkpt lat="-20.032590000000003" lon="-44.011480000000006">
    <ele>1205.5800000000002</ele>
   </trkpt>
   <trkpt lat="-20.03274" lon="-44.01136">
    <ele>1206.5800000000002</ele>
   </trkpt>
   <trkpt lat="-20.032850000000003" lon="-44.01118">
    <ele>1207.0</ele>
   </trkpt>
   <trkpt lat="-20.03299" lon="-44.01102">
    <ele>1207.78</ele>
   </trkpt>
   <trkpt lat="-20.03301" lon="-44.010960000000004">
    <ele>1205.24</ele>
   </trkpt>
   <trkpt lat="-20.03322" lon="-44.01104">
    <ele>1206.3700000000001</ele>
   </trkpt>
   <trkpt lat="-20.03356" lon="-44.01109">
    <ele>1210.15</ele>
   </trkpt>
   <trkpt lat="-20.03407000001885" lon="-44.01112499988746">
    <ele>1212.8600000000001</ele>
   </trkpt>
   <trkpt lat="-20.034580000000002" lon="-44.011160000000004">
    <ele>1217.21</ele>
   </trkpt>
   <trkpt lat="-20.03499" lon="-44.01135">
    <ele>1219.5600000000002</ele>
   </trkpt>
   <trkpt lat="-20.03571" lon="-44.01091">
    <ele>1226.76</ele>
   </trkpt>
   <trkpt lat="-20.03582" lon="-44.01086">
    <ele>1226.58</ele>
   </trkpt>
   <trkpt lat="-20.036070000000002" lon="-44.01086">
    <ele>1225.6</ele>
   </trkpt>
   <trkpt lat="-20.03613" lon="-44.011250000000004">
    <ele>1226.13</ele>
   </trkpt>
   <trkpt lat="-20.03646" lon="-44.01187">
    <ele>1223.46</ele>
   </trkpt>
   <trkpt lat="-20.03657" lon="-44.01198">
    <ele>1224.0900000000001</ele>
   </trkpt>
   <trkpt lat="-20.037070000338392" lon="-44.01223999924974">
    <ele>1228.5000000000002</ele>
   </trkpt>
   <trkpt lat="-20.037570000000002" lon="-44.0125">
    <ele>1233.38</ele>
   </trkpt>
   <trkpt lat="-20.037580000000002" lon="-44.012510000000006">
    <ele>1233.38</ele>
   </trkpt>
   <trkpt lat="-20.0376" lon="-44.012570000000004">
    <ele>1234.07</ele>
   </trkpt>
   <trkpt lat="-20.03753" lon="-44.0127">
    <ele>1233.93</ele>
   </trkpt>
   <trkpt lat="-20.03754" lon="-44.01288">
    <ele>1233.0500000000002</ele>
   </trkpt>
   <trkpt lat="-20.03751" lon="-44.01326">
    <ele>1230.67</ele>
   </trkpt>
   <trkpt lat="-20.037470000000003" lon="-44.01333">
    <ele>1230.3200000000002</ele>
   </trkpt>
   <trkpt lat="-20.03706" lon="-44.01362">
    <ele>1226.16</ele>
   </trkpt>
   <trkpt lat="-20.036910000000002" lon="-44.01377">
    <ele>1224.26</ele>
   </trkpt>
   <trkpt lat="-20.036585000515416" lon="-44.01422000100484">
    <ele>1220.5700000000002</ele>
   </trkpt>
   <trkpt lat="-20.036260000000002" lon="-44.01467">
    <ele>1217.51</ele>
   </trkpt>
   <trkpt lat="-20.03622" lon="-44.01476">
    <ele>1217.0400000000002</ele>
   </trkpt>
   <trkpt lat="-20.036350000000002" lon="-44.01534">
    <ele>1213.81</ele>
   </trkpt>
   <trkpt lat="-20.03637" lon="-44.01552">
    <ele>1213.3100000000002</ele>
   </trkpt>
   <trkpt lat="-20.03628" lon="-44.016400000000004">
    <ele>1208.6100000000001</ele>
   </trkpt>
   <trkpt lat="-20.036260000000002" lon="-44.01688">
    <ele>1207.0400000000002</ele>
   </trkpt>
   <trkpt lat="-20.03613" lon="-44.01776">
    <ele>1204.76</ele>
   </trkpt>
   <trkpt lat="-20.035674999978138" lon="-44.01770499983705">
    <ele>1204.5100000000002</ele>
   </trkpt>
   <trkpt lat="-20.035220000000002" lon="-44.01765">
    <ele>1203.47</ele>
   </trkpt>
   <trkpt lat="-20.034750000000003" lon="-44.017720000000004">
    <ele>1203.3600000000001</ele>
   </trkpt>
   <trkpt lat="-20.034570000000002" lon="-44.01773">
    <ele>1202.92</ele>
   </trkpt>
   <trkpt lat="-20.033790000000003" lon="-44.01766000000001">
    <ele>1202.49</ele>
   </trkpt>
   <trkpt lat="-20.03368" lon="-44.01767">
    <ele>1202.49</ele>
   </trkpt>
   <trkpt lat="-20.033440000000002" lon="-44.017590000000006">
    <ele>1202.35</ele>
   </trkpt>
   <trkpt lat="-20.03338" lon="-44.017540000000004">
    <ele>1202.35</ele>
   </trkpt>
   <trkpt lat="-20.03322" lon="-44.017340000000004">
    <ele>1202.0000000000002</ele>
   </trkpt>
   <trkpt lat="-20.03312" lon="-44.017070000000004">
    <ele>1201.3500000000001</ele>
   </trkpt>
   <trkpt lat="-20.03303" lon="-44.01693">
    <ele>1201.3500000000001</ele>
   </trkpt>
   <trkpt lat="-20.03282" lon="-44.01628">
    <ele>1200.6000000000001</ele>
   </trkpt>
   <trkpt lat="-20.032690000000002" lon="-44.0161">
    <ele>1200.22</ele>
   </trkpt>
   <trkpt lat="-20.03263" lon="-44.01588">
    <ele>1199.42</ele>
   </trkpt>
   <trkpt lat="-20.03216" lon="-44.015100000000004">
    <ele>1198.0700000000002</ele>
   </trkpt>
   <trkpt lat="-20.03207" lon="-44.01478">
    <ele>1197.47</ele>
   </trkpt>
   <trkpt lat="-20.031885001362" lon="-44.01408499920235">
    <ele>1195.92</ele>
   </trkpt>
   <trkpt lat="-20.0317" lon="-44.01339">
    <ele>1193.38</ele>
   </trkpt>
   <trkpt lat="-20.0316" lon="-44.01256">
    <ele>1194.45</ele>
   </trkpt>
   <trkpt lat="-20.03149" lon="-44.012040000000006">
    <ele>1196.0000000000002</ele>
   </trkpt>
  </trkseg>
 </trk>
</gpx>
