<?xml version="1.0" encoding="UTF-8"?>
<gpx creator="StravaGPX" version="1.1" xmlns="http://www.topografix.com/GPX/1/1" xmlns:xsi="http://www.w3.org/2001/XMLSchema-instance" xsi:schemaLocation="http://www.topografix.com/GPX/1/1 http://www.topografix.com/GPX/1/1/gpx.xsd">
 <metadata>
  <name>Ressaquinha -&gt; Barroso</name>
  <author>
   <name>Felipe Desiderio</name>
  </author>
  <copyright author="OpenStreetMap contributors">
   <year>2020</year>
   <license>https://www.openstreetmap.org/copyright</license>
  </copyright>
 </metadata>
 <trk>
  <name>Ressaquinha -&gt; Barroso</name>
  <link href=""/>
  <type>running</type>
  <trkseg>
   <trkpt lat="-21.066740000000003" lon="-43.768460000000005">
    <ele>1112.95</ele>
   </trkpt>
   <trkpt lat="-21.0666" lon="-43.76834">
    <ele>1113.34</ele>
   </trkpt>
   <trkpt lat="-21.06612" lon="-43.76769">
    <ele>1118.15</ele>
   </trkpt>
   <trkpt lat="-21.065980000000003" lon="-43.76731">
    <ele>1120.92</ele>
   </trkpt>
   <trkpt lat="-21.065900000000003" lon="-43.767">
    <ele>1118.0100000000002</ele>
   </trkpt>
   <trkpt lat="-21.066460000000003" lon="-43.76682">
    <ele>1127.0</ele>
   </trkpt>
   <trkpt lat="-21.066540000000003" lon="-43.76695">
    <ele>1127.0</ele>
   </trkpt>
   <trkpt lat="-21.0666" lon="-43.76697">
    <ele>1127.0800000000002</ele>
   </trkpt>
   <trkpt lat="-21.06663" lon="-43.76695">
    <ele>1127.0800000000002</ele>
   </trkpt>
   <trkpt lat="-21.06717" lon="-43.76623">
    <ele>1133.0200000000002</ele>
   </trkpt>
   <trkpt lat="-21.066735000159618" lon="-43.766009999365686">
    <ele>1132.0100000000002</ele>
   </trkpt>
   <trkpt lat="-21.066300000000002" lon="-43.76579">
    <ele>1131.41</ele>
   </trkpt>
   <trkpt lat="-21.066100000000002" lon="-43.76561">
    <ele>1130.46</ele>
   </trkpt>
   <trkpt lat="-21.06577" lon="-43.76525">
    <ele>1129.82</ele>
   </trkpt>
   <trkpt lat="-21.065700000000003" lon="-43.76511000000001">
    <ele>1129.42</ele>
   </trkpt>
   <trkpt lat="-21.06556" lon="-43.76474">
    <ele>1129.2</ele>
   </trkpt>
   <trkpt lat="-21.065450000000002" lon="-43.76411">
    <ele>1128.32</ele>
   </trkpt>
   <trkpt lat="-21.06532000067385" lon="-43.76361999946272">
    <ele>1127.42</ele>
   </trkpt>
   <trkpt lat="-21.06519" lon="-43.763130000000004">
    <ele>1126.73</ele>
   </trkpt>
   <trkpt lat="-21.06518" lon="-43.76312">
    <ele>1126.73</ele>
   </trkpt>
   <trkpt lat="-21.06531" lon="-43.76299">
    <ele>1126.77</ele>
   </trkpt>
   <trkpt lat="-21.06547" lon="-43.76288">
    <ele>1127.49</ele>
   </trkpt>
   <trkpt lat="-21.065820000000002" lon="-43.762750000000004">
    <ele>1129.0900000000001</ele>
   </trkpt>
   <trkpt lat="-21.066100000000002" lon="-43.76268">
    <ele>1129.0300000000002</ele>
   </trkpt>
   <trkpt lat="-21.0666" lon="-43.76261">
    <ele>1126.12</ele>
   </trkpt>
   <trkpt lat="-21.066850000000002" lon="-43.762480000000004">
    <ele>1125.91</ele>
   </trkpt>
   <trkpt lat="-21.067515000167084" lon="-43.76221000122598">
    <ele>1122.7800000000002</ele>
   </trkpt>
   <trkpt lat="-21.06818" lon="-43.76194">
    <ele>1121.99</ele>
   </trkpt>
   <trkpt lat="-21.068750000593816" lon="-43.76164000226434">
    <ele>1124.32</ele>
   </trkpt>
   <trkpt lat="-21.069320000660703" lon="-43.76134000222917">
    <ele>1127.39</ele>
   </trkpt>
   <trkpt lat="-21.06989" lon="-43.76104">
    <ele>1125.8700000000001</ele>
   </trkpt>
   <trkpt lat="-21.07" lon="-43.76093">
    <ele>1125.17</ele>
   </trkpt>
   <trkpt lat="-21.070110000000003" lon="-43.76077">
    <ele>1124.8600000000001</ele>
   </trkpt>
   <trkpt lat="-21.070110000000003" lon="-43.760780000000004">
    <ele>1124.8600000000001</ele>
   </trkpt>
   <trkpt lat="-21.07027" lon="-43.76037">
    <ele>1124.83</ele>
   </trkpt>
   <trkpt lat="-21.07034" lon="-43.75977">
    <ele>1126.46</ele>
   </trkpt>
   <trkpt lat="-21.070330000000002" lon="-43.759">
    <ele>1129.3300000000002</ele>
   </trkpt>
   <trkpt lat="-21.07029" lon="-43.75869">
    <ele>1130.95</ele>
   </trkpt>
   <trkpt lat="-21.070140000000002" lon="-43.75822">
    <ele>1133.8700000000001</ele>
   </trkpt>
   <trkpt lat="-21.06989" lon="-43.75784">
    <ele>1137.41</ele>
   </trkpt>
   <trkpt lat="-21.069860000000002" lon="-43.75771">
    <ele>1137.82</ele>
   </trkpt>
   <trkpt lat="-21.069770000000002" lon="-43.757090000000005">
    <ele>1139.8400000000001</ele>
   </trkpt>
   <trkpt lat="-21.06971500078018" lon="-43.75656999969971">
    <ele>1140.66</ele>
   </trkpt>
   <trkpt lat="-21.069660000000002" lon="-43.75605">
    <ele>1141.37</ele>
   </trkpt>
   <trkpt lat="-21.069660000000002" lon="-43.75554">
    <ele>1144.16</ele>
   </trkpt>
   <trkpt lat="-21.0697" lon="-43.75531">
    <ele>1144.6100000000001</ele>
   </trkpt>
   <trkpt lat="-21.070040000000002" lon="-43.75453">
    <ele>1145.27</ele>
   </trkpt>
   <trkpt lat="-21.07027" lon="-43.75413">
    <ele>1144.56</ele>
   </trkpt>
   <trkpt lat="-21.07044" lon="-43.75392">
    <ele>1144.0</ele>
   </trkpt>
   <trkpt lat="-21.070800000000002" lon="-43.75368">
    <ele>1143.95</ele>
   </trkpt>
   <trkpt lat="-21.071550000000002" lon="-43.75325">
    <ele>1143.89</ele>
   </trkpt>
   <trkpt lat="-21.071730000000002" lon="-43.75318">
    <ele>1143.7700000000002</ele>
   </trkpt>
   <trkpt lat="-21.071910000000003" lon="-43.75305">
    <ele>1143.8300000000002</ele>
   </trkpt>
   <trkpt lat="-21.07204" lon="-43.75287">
    <ele>1144.44</ele>
   </trkpt>
   <trkpt lat="-21.07223" lon="-43.75249">
    <ele>1148.86</ele>
   </trkpt>
   <trkpt lat="-21.07235" lon="-43.752340000000004">
    <ele>1150.15</ele>
   </trkpt>
   <trkpt lat="-21.07254" lon="-43.75222">
    <ele>1151.48</ele>
   </trkpt>
   <trkpt lat="-21.073083334674315" lon="-43.75173667022296">
    <ele>1152.8700000000001</ele>
   </trkpt>
   <trkpt lat="-21.07362666798067" lon="-43.7512533369137">
    <ele>1154.5100000000002</ele>
   </trkpt>
   <trkpt lat="-21.074170000000002" lon="-43.75077">
    <ele>1156.2400000000002</ele>
   </trkpt>
   <trkpt lat="-21.074270000000002" lon="-43.75063">
    <ele>1156.4800000000002</ele>
   </trkpt>
   <trkpt lat="-21.0743" lon="-43.75054">
    <ele>1156.4800000000002</ele>
   </trkpt>
   <trkpt lat="-21.074360000000002" lon="-43.74982000000001">
    <ele>1154.2400000000002</ele>
   </trkpt>
   <trkpt lat="-21.07439" lon="-43.74974">
    <ele>1154.2100000000003</ele>
   </trkpt>
   <trkpt lat="-21.07468" lon="-43.74949">
    <ele>1154.3600000000001</ele>
   </trkpt>
   <trkpt lat="-21.075210000000002" lon="-43.74922">
    <ele>1155.07</ele>
   </trkpt>
   <trkpt lat="-21.07532" lon="-43.74913">
    <ele>1155.07</ele>
   </trkpt>
   <trkpt lat="-21.075390000000002" lon="-43.749050000000004">
    <ele>1155.0500000000002</ele>
   </trkpt>
   <trkpt lat="-21.075480000000002" lon="-43.74889">
    <ele>1155.07</ele>
   </trkpt>
   <trkpt lat="-21.075570000000003" lon="-43.74835">
    <ele>1155.67</ele>
   </trkpt>
   <trkpt lat="-21.0756" lon="-43.74822">
    <ele>1156.2700000000002</ele>
   </trkpt>
   <trkpt lat="-21.075670000000002" lon="-43.74813">
    <ele>1156.86</ele>
   </trkpt>
   <trkpt lat="-21.0759" lon="-43.7479">
    <ele>1160.38</ele>
   </trkpt>
   <trkpt lat="-21.07641000010645" lon="-43.747665000831624">
    <ele>1167.68</ele>
   </trkpt>
   <trkpt lat="-21.07692" lon="-43.74743">
    <ele>1174.2400000000002</ele>
   </trkpt>
   <trkpt lat="-21.07704" lon="-43.74741">
    <ele>1175.94</ele>
   </trkpt>
   <trkpt lat="-21.0772" lon="-43.747440000000005">
    <ele>1177.8000000000002</ele>
   </trkpt>
   <trkpt lat="-21.077550000000002" lon="-43.74759">
    <ele>1180.66</ele>
   </trkpt>
   <trkpt lat="-21.077740000000002" lon="-43.74761">
    <ele>1181.2</ele>
   </trkpt>
   <trkpt lat="-21.078596666725712" lon="-43.74752000103613">
    <ele>1183.27</ele>
   </trkpt>
   <trkpt lat="-21.079453333403983" lon="-43.747430001034935">
    <ele>1194.5800000000002</ele>
   </trkpt>
   <trkpt lat="-21.08031" lon="-43.74734">
    <ele>1204.3400000000001</ele>
   </trkpt>
   <trkpt lat="-21.080730000000003" lon="-43.747370000000004">
    <ele>1203.15</ele>
   </trkpt>
   <trkpt lat="-21.081010000000003" lon="-43.747350000000004">
    <ele>1199.3200000000002</ele>
   </trkpt>
   <trkpt lat="-21.08136" lon="-43.74718">
    <ele>1195.44</ele>
   </trkpt>
   <trkpt lat="-21.08162" lon="-43.74698">
    <ele>1193.23</ele>
   </trkpt>
   <trkpt lat="-21.08238" lon="-43.74651">
    <ele>1186.17</ele>
   </trkpt>
   <trkpt lat="-21.08274" lon="-43.74635000000001">
    <ele>1183.71</ele>
   </trkpt>
   <trkpt lat="-21.082700000000003" lon="-43.74626000000001">
    <ele>1182.01</ele>
   </trkpt>
   <trkpt lat="-21.08254" lon="-43.746120000000005">
    <ele>1182.92</ele>
   </trkpt>
   <trkpt lat="-21.08235" lon="-43.746">
    <ele>1183.91</ele>
   </trkpt>
   <trkpt lat="-21.08229" lon="-43.745900000000006">
    <ele>1184.0300000000002</ele>
   </trkpt>
   <trkpt lat="-21.082250000000002" lon="-43.74586">
    <ele>1183.8000000000002</ele>
   </trkpt>
   <trkpt lat="-21.082440000000002" lon="-43.74553">
    <ele>1196.08</ele>
   </trkpt>
   <trkpt lat="-21.08247" lon="-43.74544">
    <ele>1196.08</ele>
   </trkpt>
   <trkpt lat="-21.08247" lon="-43.74526">
    <ele>1196.08</ele>
   </trkpt>
   <trkpt lat="-21.082430000000002" lon="-43.744910000000004">
    <ele>1196.08</ele>
   </trkpt>
   <trkpt lat="-21.082430000000002" lon="-43.74481">
    <ele>1196.08</ele>
   </trkpt>
   <trkpt lat="-21.08249" lon="-43.74472">
    <ele>1196.08</ele>
   </trkpt>
   <trkpt lat="-21.082700000000003" lon="-43.74452">
    <ele>1196.08</ele>
   </trkpt>
   <trkpt lat="-21.08295" lon="-43.74412">
    <ele>1196.08</ele>
   </trkpt>
   <trkpt lat="-21.0831" lon="-43.74378">
    <ele>1196.08</ele>
   </trkpt>
   <trkpt lat="-21.08311" lon="-43.743410000000004">
    <ele>1180.0000000000002</ele>
   </trkpt>
   <trkpt lat="-21.083180000000002" lon="-43.74287">
    <ele>1180.0000000000002</ele>
   </trkpt>
   <trkpt lat="-21.083280000000002" lon="-43.74262">
    <ele>1180.0000000000002</ele>
   </trkpt>
   <trkpt lat="-21.083360000000003" lon="-43.74246">
    <ele>1180.0000000000002</ele>
   </trkpt>
   <trkpt lat="-21.08342" lon="-43.74237">
    <ele>1180.0000000000002</ele>
   </trkpt>
   <trkpt lat="-21.083650000000002" lon="-43.74213">
    <ele>1180.0000000000002</ele>
   </trkpt>
   <trkpt lat="-21.08415" lon="-43.74168">
    <ele>1180.0000000000002</ele>
   </trkpt>
   <trkpt lat="-21.08425" lon="-43.74156000000001">
    <ele>1180.0000000000002</ele>
   </trkpt>
   <trkpt lat="-21.08434" lon="-43.74132">
    <ele>1180.0000000000002</ele>
   </trkpt>
   <trkpt lat="-21.084390000000003" lon="-43.7411">
    <ele>1180.0000000000002</ele>
   </trkpt>
   <trkpt lat="-21.08435" lon="-43.74089">
    <ele>1180.0000000000002</ele>
   </trkpt>
   <trkpt lat="-21.084310000000002" lon="-43.74074">
    <ele>1180.0000000000002</ele>
   </trkpt>
   <trkpt lat="-21.08407" lon="-43.74045">
    <ele>1180.0000000000002</ele>
   </trkpt>
   <trkpt lat="-21.084020000000002" lon="-43.74033">
    <ele>1180.0000000000002</ele>
   </trkpt>
   <trkpt lat="-21.08396" lon="-43.74013">
    <ele>1180.0000000000002</ele>
   </trkpt>
   <trkpt lat="-21.08389" lon="-43.74">
    <ele>1180.0000000000002</ele>
   </trkpt>
   <trkpt lat="-21.083650000000002" lon="-43.73977">
    <ele>1180.0000000000002</ele>
   </trkpt>
   <trkpt lat="-21.0836" lon="-43.73969">
    <ele>1180.0000000000002</ele>
   </trkpt>
   <trkpt lat="-21.083560000000002" lon="-43.73955">
    <ele>1180.0000000000002</ele>
   </trkpt>
   <trkpt lat="-21.0836" lon="-43.739180000000005">
    <ele>1180.0000000000002</ele>
   </trkpt>
   <trkpt lat="-21.08357" lon="-43.73897">
    <ele>1180.0000000000002</ele>
   </trkpt>
   <trkpt lat="-21.083460000000002" lon="-43.73879">
    <ele>1180.0000000000002</ele>
   </trkpt>
   <trkpt lat="-21.08303" lon="-43.7383">
    <ele>1194.7</ele>
   </trkpt>
   <trkpt lat="-21.08286" lon="-43.738060000000004">
    <ele>1194.7</ele>
   </trkpt>
   <trkpt lat="-21.08276" lon="-43.737880000000004">
    <ele>1194.7</ele>
   </trkpt>
   <trkpt lat="-21.082710000000002" lon="-43.73767">
    <ele>1194.7</ele>
   </trkpt>
   <trkpt lat="-21.082710000000002" lon="-43.737230000000004">
    <ele>1194.7</ele>
   </trkpt>
   <trkpt lat="-21.082710000000002" lon="-43.73678">
    <ele>1194.7</ele>
   </trkpt>
   <trkpt lat="-21.08273" lon="-43.73662">
    <ele>1194.7</ele>
   </trkpt>
   <trkpt lat="-21.08323" lon="-43.73617">
    <ele>1194.7</ele>
   </trkpt>
   <trkpt lat="-21.08342" lon="-43.735960000000006">
    <ele>1194.7</ele>
   </trkpt>
   <trkpt lat="-21.08341" lon="-43.73584">
    <ele>1192.15</ele>
   </trkpt>
   <trkpt lat="-21.08329" lon="-43.73563">
    <ele>1192.15</ele>
   </trkpt>
   <trkpt lat="-21.08324" lon="-43.73557">
    <ele>1192.15</ele>
   </trkpt>
   <trkpt lat="-21.08311" lon="-43.73552">
    <ele>1192.15</ele>
   </trkpt>
   <trkpt lat="-21.08235" lon="-43.73541">
    <ele>1192.15</ele>
   </trkpt>
   <trkpt lat="-21.081970000000002" lon="-43.73532">
    <ele>1192.15</ele>
   </trkpt>
   <trkpt lat="-21.08152" lon="-43.73514">
    <ele>1201.98</ele>
   </trkpt>
   <trkpt lat="-21.08115" lon="-43.7351">
    <ele>1201.98</ele>
   </trkpt>
   <trkpt lat="-21.08038" lon="-43.73514">
    <ele>1201.98</ele>
   </trkpt>
   <trkpt lat="-21.0802" lon="-43.73508">
    <ele>1201.98</ele>
   </trkpt>
   <trkpt lat="-21.0801" lon="-43.735020000000006">
    <ele>1201.98</ele>
   </trkpt>
   <trkpt lat="-21.080090000000002" lon="-43.735020000000006">
    <ele>1203.1200000000001</ele>
   </trkpt>
   <trkpt lat="-21.080090000000002" lon="-43.734790000000004">
    <ele>1205.8000000000002</ele>
   </trkpt>
   <trkpt lat="-21.08003" lon="-43.73449">
    <ele>1208.19</ele>
   </trkpt>
   <trkpt lat="-21.080000000966848" lon="-43.73391499985614">
    <ele>1211.4600000000003</ele>
   </trkpt>
   <trkpt lat="-21.079970000000003" lon="-43.733340000000005">
    <ele>1220.52</ele>
   </trkpt>
   <trkpt lat="-21.08001" lon="-43.73386000000001">
    <ele>1213.4</ele>
   </trkpt>
   <trkpt lat="-21.08002" lon="-43.73427">
    <ele>1209.3400000000001</ele>
   </trkpt>
   <trkpt lat="-21.080090000000002" lon="-43.735020000000006">
    <ele>1203.1200000000001</ele>
   </trkpt>
   <trkpt lat="-21.0802" lon="-43.73508">
    <ele>1201.99</ele>
   </trkpt>
   <trkpt lat="-21.08038" lon="-43.73514">
    <ele>1201.99</ele>
   </trkpt>
   <trkpt lat="-21.08115" lon="-43.7351">
    <ele>1201.99</ele>
   </trkpt>
   <trkpt lat="-21.08152" lon="-43.73514">
    <ele>1201.99</ele>
   </trkpt>
   <trkpt lat="-21.081970000000002" lon="-43.73532">
    <ele>1192.15</ele>
   </trkpt>
   <trkpt lat="-21.08235" lon="-43.73541">
    <ele>1192.15</ele>
   </trkpt>
   <trkpt lat="-21.08311" lon="-43.73552">
    <ele>1192.15</ele>
   </trkpt>
   <trkpt lat="-21.08324" lon="-43.73557">
    <ele>1192.15</ele>
   </trkpt>
   <trkpt lat="-21.08329" lon="-43.73563">
    <ele>1192.15</ele>
   </trkpt>
   <trkpt lat="-21.08341" lon="-43.73584">
    <ele>1192.15</ele>
   </trkpt>
   <trkpt lat="-21.08351" lon="-43.735890000000005">
    <ele>1192.14</ele>
   </trkpt>
   <trkpt lat="-21.083830000000003" lon="-43.73588">
    <ele>1192.14</ele>
   </trkpt>
   <trkpt lat="-21.08415" lon="-43.73579">
    <ele>1192.14</ele>
   </trkpt>
   <trkpt lat="-21.08446" lon="-43.73557">
    <ele>1192.14</ele>
   </trkpt>
   <trkpt lat="-21.08463" lon="-43.73548">
    <ele>1192.14</ele>
   </trkpt>
   <trkpt lat="-21.084970000000002" lon="-43.7355">
    <ele>1192.14</ele>
   </trkpt>
   <trkpt lat="-21.085430000000002" lon="-43.73561">
    <ele>1167.49</ele>
   </trkpt>
   <trkpt lat="-21.086190000000002" lon="-43.73568">
    <ele>1167.49</ele>
   </trkpt>
   <trkpt lat="-21.086360000000003" lon="-43.735710000000005">
    <ele>1167.49</ele>
   </trkpt>
   <trkpt lat="-21.08661" lon="-43.73584">
    <ele>1167.49</ele>
   </trkpt>
   <trkpt lat="-21.086740000000002" lon="-43.73588">
    <ele>1167.49</ele>
   </trkpt>
   <trkpt lat="-21.08676" lon="-43.73588">
    <ele>1167.49</ele>
   </trkpt>
   <trkpt lat="-21.086930000000002" lon="-43.73586">
    <ele>1167.49</ele>
   </trkpt>
   <trkpt lat="-21.08714" lon="-43.73577">
    <ele>1167.49</ele>
   </trkpt>
   <trkpt lat="-21.08742" lon="-43.73561">
    <ele>1167.49</ele>
   </trkpt>
   <trkpt lat="-21.08761" lon="-43.73537">
    <ele>1167.49</ele>
   </trkpt>
   <trkpt lat="-21.087690000000002" lon="-43.73501">
    <ele>1167.49</ele>
   </trkpt>
   <trkpt lat="-21.087690000000002" lon="-43.73467">
    <ele>1167.49</ele>
   </trkpt>
   <trkpt lat="-21.087780000000002" lon="-43.73443">
    <ele>1167.49</ele>
   </trkpt>
   <trkpt lat="-21.087770000000003" lon="-43.73438">
    <ele>1167.49</ele>
   </trkpt>
   <trkpt lat="-21.087600000000002" lon="-43.73411">
    <ele>1138.5700000000002</ele>
   </trkpt>
   <trkpt lat="-21.08754" lon="-43.73387">
    <ele>1138.5700000000002</ele>
   </trkpt>
   <trkpt lat="-21.08752" lon="-43.73371">
    <ele>1138.5700000000002</ele>
   </trkpt>
   <trkpt lat="-21.08754" lon="-43.73348">
    <ele>1138.5700000000002</ele>
   </trkpt>
   <trkpt lat="-21.08753" lon="-43.7334">
    <ele>1138.5700000000002</ele>
   </trkpt>
   <trkpt lat="-21.087410000000002" lon="-43.73313">
    <ele>1138.5700000000002</ele>
   </trkpt>
   <trkpt lat="-21.087400000000002" lon="-43.73304">
    <ele>1138.5700000000002</ele>
   </trkpt>
   <trkpt lat="-21.087400000000002" lon="-43.73293">
    <ele>1138.5700000000002</ele>
   </trkpt>
   <trkpt lat="-21.08742" lon="-43.73288">
    <ele>1138.5700000000002</ele>
   </trkpt>
   <trkpt lat="-21.08751" lon="-43.73284">
    <ele>1138.5700000000002</ele>
   </trkpt>
   <trkpt lat="-21.08791" lon="-43.73286">
    <ele>1138.5700000000002</ele>
   </trkpt>
   <trkpt lat="-21.08792" lon="-43.732870000000005">
    <ele>1138.46</ele>
   </trkpt>
   <trkpt lat="-21.08751" lon="-43.73284">
    <ele>1138.46</ele>
   </trkpt>
   <trkpt lat="-21.08742" lon="-43.73288">
    <ele>1138.46</ele>
   </trkpt>
   <trkpt lat="-21.087400000000002" lon="-43.73293">
    <ele>1138.46</ele>
   </trkpt>
   <trkpt lat="-21.087400000000002" lon="-43.73304">
    <ele>1138.46</ele>
   </trkpt>
   <trkpt lat="-21.087410000000002" lon="-43.73313">
    <ele>1138.46</ele>
   </trkpt>
   <trkpt lat="-21.08753" lon="-43.7334">
    <ele>1138.46</ele>
   </trkpt>
   <trkpt lat="-21.08754" lon="-43.73348">
    <ele>1138.46</ele>
   </trkpt>
   <trkpt lat="-21.08752" lon="-43.73371">
    <ele>1138.46</ele>
   </trkpt>
   <trkpt lat="-21.08754" lon="-43.73387">
    <ele>1138.46</ele>
   </trkpt>
   <trkpt lat="-21.087600000000002" lon="-43.73411">
    <ele>1138.46</ele>
   </trkpt>
   <trkpt lat="-21.087770000000003" lon="-43.73438">
    <ele>1138.46</ele>
   </trkpt>
   <trkpt lat="-21.087780000000002" lon="-43.73443">
    <ele>1138.46</ele>
   </trkpt>
   <trkpt lat="-21.087690000000002" lon="-43.73467">
    <ele>1138.46</ele>
   </trkpt>
   <trkpt lat="-21.087690000000002" lon="-43.73501">
    <ele>1138.46</ele>
   </trkpt>
   <trkpt lat="-21.08761" lon="-43.73537">
    <ele>1138.46</ele>
   </trkpt>
   <trkpt lat="-21.08742" lon="-43.73561">
    <ele>1138.46</ele>
   </trkpt>
   <trkpt lat="-21.08714" lon="-43.73577">
    <ele>1138.46</ele>
   </trkpt>
   <trkpt lat="-21.086930000000002" lon="-43.73586">
    <ele>1192.14</ele>
   </trkpt>
   <trkpt lat="-21.086750000000002" lon="-43.73588">
    <ele>1192.14</ele>
   </trkpt>
   <trkpt lat="-21.08661" lon="-43.73584">
    <ele>1192.14</ele>
   </trkpt>
   <trkpt lat="-21.086360000000003" lon="-43.735710000000005">
    <ele>1192.14</ele>
   </trkpt>
   <trkpt lat="-21.086190000000002" lon="-43.73568">
    <ele>1192.14</ele>
   </trkpt>
   <trkpt lat="-21.085430000000002" lon="-43.73561">
    <ele>1192.14</ele>
   </trkpt>
   <trkpt lat="-21.084970000000002" lon="-43.7355">
    <ele>1192.14</ele>
   </trkpt>
   <trkpt lat="-21.08463" lon="-43.73548">
    <ele>1192.14</ele>
   </trkpt>
   <trkpt lat="-21.08446" lon="-43.73557">
    <ele>1192.14</ele>
   </trkpt>
   <trkpt lat="-21.08415" lon="-43.73579">
    <ele>1192.14</ele>
   </trkpt>
   <trkpt lat="-21.083830000000003" lon="-43.73588">
    <ele>1192.14</ele>
   </trkpt>
   <trkpt lat="-21.08351" lon="-43.735890000000005">
    <ele>1192.14</ele>
   </trkpt>
   <trkpt lat="-21.08342" lon="-43.735960000000006">
    <ele>1194.7</ele>
   </trkpt>
   <trkpt lat="-21.08323" lon="-43.73617">
    <ele>1194.7</ele>
   </trkpt>
   <trkpt lat="-21.08275" lon="-43.73662">
    <ele>1192.4800000000002</ele>
   </trkpt>
   <trkpt lat="-21.08273" lon="-43.736630000000005">
    <ele>1192.4800000000002</ele>
   </trkpt>
   <trkpt lat="-21.082710000000002" lon="-43.73678">
    <ele>1192.4800000000002</ele>
   </trkpt>
   <trkpt lat="-21.082710000000002" lon="-43.737230000000004">
    <ele>1192.4800000000002</ele>
   </trkpt>
   <trkpt lat="-21.082710000000002" lon="-43.73767">
    <ele>1192.4800000000002</ele>
   </trkpt>
   <trkpt lat="-21.08276" lon="-43.737880000000004">
    <ele>1192.4800000000002</ele>
   </trkpt>
   <trkpt lat="-21.08286" lon="-43.738060000000004">
    <ele>1192.4800000000002</ele>
   </trkpt>
   <trkpt lat="-21.08303" lon="-43.7383">
    <ele>1192.4800000000002</ele>
   </trkpt>
   <trkpt lat="-21.083460000000002" lon="-43.73879">
    <ele>1192.4800000000002</ele>
   </trkpt>
   <trkpt lat="-21.08357" lon="-43.73897">
    <ele>1192.4800000000002</ele>
   </trkpt>
   <trkpt lat="-21.0836" lon="-43.739180000000005">
    <ele>1180.0000000000002</ele>
   </trkpt>
   <trkpt lat="-21.083560000000002" lon="-43.73955">
    <ele>1180.0000000000002</ele>
   </trkpt>
   <trkpt lat="-21.0836" lon="-43.73969">
    <ele>1180.0000000000002</ele>
   </trkpt>
   <trkpt lat="-21.083650000000002" lon="-43.73977">
    <ele>1180.0000000000002</ele>
   </trkpt>
   <trkpt lat="-21.08389" lon="-43.74">
    <ele>1180.0000000000002</ele>
   </trkpt>
   <trkpt lat="-21.08396" lon="-43.74013">
    <ele>1180.0000000000002</ele>
   </trkpt>
   <trkpt lat="-21.084020000000002" lon="-43.74033">
    <ele>1180.0000000000002</ele>
   </trkpt>
   <trkpt lat="-21.08407" lon="-43.74045">
    <ele>1180.0000000000002</ele>
   </trkpt>
   <trkpt lat="-21.084310000000002" lon="-43.74074">
    <ele>1180.0000000000002</ele>
   </trkpt>
   <trkpt lat="-21.08435" lon="-43.74089">
    <ele>1180.0000000000002</ele>
   </trkpt>
   <trkpt lat="-21.084390000000003" lon="-43.7411">
    <ele>1180.0000000000002</ele>
   </trkpt>
   <trkpt lat="-21.08434" lon="-43.74132">
    <ele>1180.0000000000002</ele>
   </trkpt>
   <trkpt lat="-21.08425" lon="-43.74156000000001">
    <ele>1180.0000000000002</ele>
   </trkpt>
   <trkpt lat="-21.08415" lon="-43.74168">
    <ele>1180.0000000000002</ele>
   </trkpt>
   <trkpt lat="-21.083650000000002" lon="-43.74213">
    <ele>1180.0000000000002</ele>
   </trkpt>
   <trkpt lat="-21.08342" lon="-43.74237">
    <ele>1180.0000000000002</ele>
   </trkpt>
   <trkpt lat="-21.083360000000003" lon="-43.74246">
    <ele>1180.0000000000002</ele>
   </trkpt>
   <trkpt lat="-21.083280000000002" lon="-43.74262">
    <ele>1180.0000000000002</ele>
   </trkpt>
   <trkpt lat="-21.083180000000002" lon="-43.74287">
    <ele>1180.0000000000002</ele>
   </trkpt>
   <trkpt lat="-21.08311" lon="-43.743410000000004">
    <ele>1180.0000000000002</ele>
   </trkpt>
   <trkpt lat="-21.0831" lon="-43.74378">
    <ele>1196.0000000000002</ele>
   </trkpt>
   <trkpt lat="-21.08295" lon="-43.74412">
    <ele>1196.0000000000002</ele>
   </trkpt>
   <trkpt lat="-21.082700000000003" lon="-43.74452">
    <ele>1196.0000000000002</ele>
   </trkpt>
   <trkpt lat="-21.08249" lon="-43.74472">
    <ele>1196.0000000000002</ele>
   </trkpt>
   <trkpt lat="-21.082430000000002" lon="-43.74481">
    <ele>1196.0000000000002</ele>
   </trkpt>
   <trkpt lat="-21.082430000000002" lon="-43.744910000000004">
    <ele>1196.0000000000002</ele>
   </trkpt>
   <trkpt lat="-21.08247" lon="-43.74526">
    <ele>1196.0000000000002</ele>
   </trkpt>
   <trkpt lat="-21.08247" lon="-43.74544">
    <ele>1196.0000000000002</ele>
   </trkpt>
   <trkpt lat="-21.082440000000002" lon="-43.74553">
    <ele>1196.0000000000002</ele>
   </trkpt>
   <trkpt lat="-21.08227" lon="-43.74584">
    <ele>1196.0000000000002</ele>
   </trkpt>
   <trkpt lat="-21.08226" lon="-43.745850000000004">
    <ele>1183.8000000000002</ele>
   </trkpt>
   <trkpt lat="-21.082320000000003" lon="-43.745900000000006">
    <ele>1184.01</ele>
   </trkpt>
   <trkpt lat="-21.08239" lon="-43.74598">
    <ele>1183.5200000000002</ele>
   </trkpt>
   <trkpt lat="-21.08266" lon="-43.746170000000006">
    <ele>1181.88</ele>
   </trkpt>
   <trkpt lat="-21.08276" lon="-43.746340000000004">
    <ele>1183.19</ele>
   </trkpt>
   <trkpt lat="-21.08238" lon="-43.74651">
    <ele>1186.17</ele>
   </trkpt>
   <trkpt lat="-21.08162" lon="-43.74698">
    <ele>1193.23</ele>
   </trkpt>
   <trkpt lat="-21.08136" lon="-43.74718">
    <ele>1195.44</ele>
   </trkpt>
   <trkpt lat="-21.081010000000003" lon="-43.747350000000004">
    <ele>1199.3200000000002</ele>
   </trkpt>
   <trkpt lat="-21.080730000000003" lon="-43.747370000000004">
    <ele>1203.15</ele>
   </trkpt>
   <trkpt lat="-21.08031" lon="-43.74734">
    <ele>1204.3400000000001</ele>
   </trkpt>
   <trkpt lat="-21.07945333336918" lon="-43.74743000103858">
    <ele>1194.5800000000002</ele>
   </trkpt>
   <trkpt lat="-21.07859666669091" lon="-43.747520001039774">
    <ele>1182.99</ele>
   </trkpt>
   <trkpt lat="-21.077740000000002" lon="-43.74761">
    <ele>1181.2</ele>
   </trkpt>
   <trkpt lat="-21.077550000000002" lon="-43.74759">
    <ele>1180.66</ele>
   </trkpt>
   <trkpt lat="-21.0772" lon="-43.747440000000005">
    <ele>1177.3600000000001</ele>
   </trkpt>
   <trkpt lat="-21.07704" lon="-43.74741">
    <ele>1175.94</ele>
   </trkpt>
   <trkpt lat="-21.07692" lon="-43.74743">
    <ele>1174.2400000000002</ele>
   </trkpt>
   <trkpt lat="-21.07641000021697" lon="-43.7476650007807">
    <ele>1167.68</ele>
   </trkpt>
   <trkpt lat="-21.0759" lon="-43.7479">
    <ele>1160.38</ele>
   </trkpt>
   <trkpt lat="-21.075670000000002" lon="-43.74813">
    <ele>1156.86</ele>
   </trkpt>
   <trkpt lat="-21.0756" lon="-43.74822">
    <ele>1156.2700000000002</ele>
   </trkpt>
   <trkpt lat="-21.075570000000003" lon="-43.74835">
    <ele>1155.67</ele>
   </trkpt>
   <trkpt lat="-21.075480000000002" lon="-43.74889">
    <ele>1155.07</ele>
   </trkpt>
   <trkpt lat="-21.075390000000002" lon="-43.749050000000004">
    <ele>1155.0500000000002</ele>
   </trkpt>
   <trkpt lat="-21.07532" lon="-43.74913">
    <ele>1155.07</ele>
   </trkpt>
   <trkpt lat="-21.075210000000002" lon="-43.74922">
    <ele>1155.07</ele>
   </trkpt>
   <trkpt lat="-21.07468" lon="-43.74949">
    <ele>1154.3600000000001</ele>
   </trkpt>
   <trkpt lat="-21.07439" lon="-43.74974">
    <ele>1154.2100000000003</ele>
   </trkpt>
   <trkpt lat="-21.074360000000002" lon="-43.74982000000001">
    <ele>1154.2400000000002</ele>
   </trkpt>
   <trkpt lat="-21.0743" lon="-43.75054">
    <ele>1156.4800000000002</ele>
   </trkpt>
   <trkpt lat="-21.074270000000002" lon="-43.75063">
    <ele>1156.42</ele>
   </trkpt>
   <trkpt lat="-21.074170000000002" lon="-43.75077">
    <ele>1156.2400000000002</ele>
   </trkpt>
   <trkpt lat="-21.07362666806167" lon="-43.75125333684163">
    <ele>1154.5100000000002</ele>
   </trkpt>
   <trkpt lat="-21.073083334755324" lon="-43.7517366701509">
    <ele>1152.8700000000001</ele>
   </trkpt>
   <trkpt lat="-21.07254" lon="-43.75222">
    <ele>1151.2</ele>
   </trkpt>
   <trkpt lat="-21.07235" lon="-43.752340000000004">
    <ele>1150.15</ele>
   </trkpt>
   <trkpt lat="-21.07223" lon="-43.75249">
    <ele>1148.86</ele>
   </trkpt>
   <trkpt lat="-21.07204" lon="-43.75287">
    <ele>1144.44</ele>
   </trkpt>
   <trkpt lat="-21.071910000000003" lon="-43.75305">
    <ele>1143.8300000000002</ele>
   </trkpt>
   <trkpt lat="-21.071730000000002" lon="-43.75318">
    <ele>1143.7700000000002</ele>
   </trkpt>
   <trkpt lat="-21.071550000000002" lon="-43.75325">
    <ele>1144.14</ele>
   </trkpt>
   <trkpt lat="-21.070800000000002" lon="-43.75368">
    <ele>1143.95</ele>
   </trkpt>
   <trkpt lat="-21.07044" lon="-43.75392">
    <ele>1144.0</ele>
   </trkpt>
   <trkpt lat="-21.07026" lon="-43.75414000000001">
    <ele>1144.5700000000002</ele>
   </trkpt>
   <trkpt lat="-21.070040000000002" lon="-43.75453">
    <ele>1145.27</ele>
   </trkpt>
   <trkpt lat="-21.0697" lon="-43.75531">
    <ele>1144.6100000000001</ele>
   </trkpt>
   <trkpt lat="-21.069660000000002" lon="-43.75554">
    <ele>1142.88</ele>
   </trkpt>
   <trkpt lat="-21.069660000000002" lon="-43.75605">
    <ele>1141.37</ele>
   </trkpt>
   <trkpt lat="-21.069715000803022" lon="-43.75656999991568">
    <ele>1140.66</ele>
   </trkpt>
   <trkpt lat="-21.069770000000002" lon="-43.757090000000005">
    <ele>1139.8400000000001</ele>
   </trkpt>
   <trkpt lat="-21.069860000000002" lon="-43.75771">
    <ele>1137.82</ele>
   </trkpt>
   <trkpt lat="-21.06989" lon="-43.75784">
    <ele>1137.41</ele>
   </trkpt>
   <trkpt lat="-21.070140000000002" lon="-43.75822">
    <ele>1133.8700000000001</ele>
   </trkpt>
   <trkpt lat="-21.07029" lon="-43.75869">
    <ele>1130.95</ele>
   </trkpt>
   <trkpt lat="-21.070330000000002" lon="-43.759">
    <ele>1129.3300000000002</ele>
   </trkpt>
   <trkpt lat="-21.07034" lon="-43.75977">
    <ele>1126.46</ele>
   </trkpt>
   <trkpt lat="-21.07027" lon="-43.76037">
    <ele>1124.83</ele>
   </trkpt>
   <trkpt lat="-21.0701" lon="-43.7608">
    <ele>1124.89</ele>
   </trkpt>
   <trkpt lat="-21.0701" lon="-43.76079">
    <ele>1124.89</ele>
   </trkpt>
   <trkpt lat="-21.07" lon="-43.76093">
    <ele>1125.4700000000003</ele>
   </trkpt>
   <trkpt lat="-21.06989" lon="-43.76104">
    <ele>1126.1100000000001</ele>
   </trkpt>
   <trkpt lat="-21.06932000046006" lon="-43.76134000233476">
    <ele>1127.39</ele>
   </trkpt>
   <trkpt lat="-21.068750000393177" lon="-43.76164000236993">
    <ele>1124.32</ele>
   </trkpt>
   <trkpt lat="-21.06818" lon="-43.76194">
    <ele>1121.99</ele>
   </trkpt>
   <trkpt lat="-21.067515000259714" lon="-43.76221000118837">
    <ele>1122.7800000000002</ele>
   </trkpt>
   <trkpt lat="-21.066850000000002" lon="-43.762480000000004">
    <ele>1125.91</ele>
   </trkpt>
   <trkpt lat="-21.0666" lon="-43.76261">
    <ele>1126.12</ele>
   </trkpt>
   <trkpt lat="-21.066100000000002" lon="-43.76268">
    <ele>1129.0300000000002</ele>
   </trkpt>
   <trkpt lat="-21.065820000000002" lon="-43.762750000000004">
    <ele>1128.95</ele>
   </trkpt>
   <trkpt lat="-21.06547" lon="-43.76288">
    <ele>1127.49</ele>
   </trkpt>
   <trkpt lat="-21.06531" lon="-43.76299">
    <ele>1126.77</ele>
   </trkpt>
   <trkpt lat="-21.06518" lon="-43.76312">
    <ele>1126.73</ele>
   </trkpt>
   <trkpt lat="-21.065315000776632" lon="-43.7636149997687">
    <ele>1127.42</ele>
   </trkpt>
   <trkpt lat="-21.065450000000002" lon="-43.76411">
    <ele>1128.32</ele>
   </trkpt>
   <trkpt lat="-21.06556" lon="-43.76474">
    <ele>1129.2</ele>
   </trkpt>
   <trkpt lat="-21.065700000000003" lon="-43.76511000000001">
    <ele>1129.42</ele>
   </trkpt>
   <trkpt lat="-21.06577" lon="-43.76525">
    <ele>1129.82</ele>
   </trkpt>
   <trkpt lat="-21.066100000000002" lon="-43.76561">
    <ele>1130.46</ele>
   </trkpt>
   <trkpt lat="-21.066300000000002" lon="-43.76579">
    <ele>1131.41</ele>
   </trkpt>
   <trkpt lat="-21.06673500012374" lon="-43.766009999347546">
    <ele>1132.0100000000002</ele>
   </trkpt>
   <trkpt lat="-21.06717" lon="-43.76623">
    <ele>1133.0200000000002</ele>
   </trkpt>
   <trkpt lat="-21.06746" lon="-43.76634000000001">
    <ele>1133.46</ele>
   </trkpt>
   <trkpt lat="-21.06785" lon="-43.76666">
    <ele>1134.1000000000001</ele>
   </trkpt>
   <trkpt lat="-21.0681" lon="-43.76695">
    <ele>1134.7200000000003</ele>
   </trkpt>
   <trkpt lat="-21.06822" lon="-43.7672">
    <ele>1134.9600000000003</ele>
   </trkpt>
   <trkpt lat="-21.068400001261864" lon="-43.76785999915248">
    <ele>1135.8799999999999</ele>
   </trkpt>
   <trkpt lat="-21.06858" lon="-43.76852">
    <ele>1137.1200000000001</ele>
   </trkpt>
   <trkpt lat="-21.06875" lon="-43.768840000000004">
    <ele>1137.55</ele>
   </trkpt>
   <trkpt lat="-21.06888" lon="-43.76903">
    <ele>1137.8600000000001</ele>
   </trkpt>
   <trkpt lat="-21.06903" lon="-43.76919">
    <ele>1138.5100000000002</ele>
   </trkpt>
   <trkpt lat="-21.069290000000002" lon="-43.76937">
    <ele>1139.18</ele>
   </trkpt>
   <trkpt lat="-21.06943" lon="-43.769420000000004">
    <ele>1139.55</ele>
   </trkpt>
   <trkpt lat="-21.06941" lon="-43.76977">
    <ele>1133.0500000000002</ele>
   </trkpt>
   <trkpt lat="-21.06913" lon="-43.76977">
    <ele>1133.0</ele>
   </trkpt>
   <trkpt lat="-21.069000000000003" lon="-43.76986">
    <ele>1131.0500000000002</ele>
   </trkpt>
   <trkpt lat="-21.068910000000002" lon="-43.76988">
    <ele>1130.47</ele>
   </trkpt>
   <trkpt lat="-21.06866" lon="-43.76988">
    <ele>1127.72</ele>
   </trkpt>
   <trkpt lat="-21.068540000000002" lon="-43.76984">
    <ele>1123.18</ele>
   </trkpt>
   <trkpt lat="-21.06811" lon="-43.76961">
    <ele>1118.47</ele>
   </trkpt>
   <trkpt lat="-21.067610000000002" lon="-43.769400000000005">
    <ele>1112.0100000000002</ele>
   </trkpt>
   <trkpt lat="-21.06709" lon="-43.76881">
    <ele>1111.4</ele>
   </trkpt>
   <trkpt lat="-21.06689" lon="-43.76861">
    <ele>1112.12</ele>
   </trkpt>
  </trkseg>
 </trk>
</gpx>
