<?xml version="1.0" encoding="UTF-8"?>
<gpx creator="StravaGPX" version="1.1" xmlns="http://www.topografix.com/GPX/1/1" xmlns:xsi="http://www.w3.org/2001/XMLSchema-instance" xsi:schemaLocation="http://www.topografix.com/GPX/1/1 http://www.topografix.com/GPX/1/1/gpx.xsd">
 <metadata>
  <name>XCO - carrapatos </name>
  <author>
   <name>Felipe Desiderio</name>
  </author>
  <copyright author="OpenStreetMap contributors">
   <year>2020</year>
   <license>https://www.openstreetmap.org/copyright</license>
  </copyright>
 </metadata>
 <trk>
  <name>XCO - carrapatos </name>
  <link href=""/>
  <type>trail_running</type>
  <trkseg>
   <trkpt lat="-19.627480000000002" lon="-43.88676">
    <ele>742.04</ele>
   </trkpt>
   <trkpt lat="-19.626970000317954" lon="-43.88638999878198">
    <ele>743.87</ele>
   </trkpt>
   <trkpt lat="-19.62646" lon="-43.88602">
    <ele>747.21</ele>
   </trkpt>
   <trkpt lat="-19.626720000000002" lon="-43.885830000000006">
    <ele>747.01</ele>
   </trkpt>
   <trkpt lat="-19.62665" lon="-43.885600000000004">
    <ele>747.2200000000001</ele>
   </trkpt>
   <trkpt lat="-19.626050001292764" lon="-43.88491499743896">
    <ele>750.69</ele>
   </trkpt>
   <trkpt lat="-19.62545" lon="-43.88423">
    <ele>753.7800000000001</ele>
   </trkpt>
   <trkpt lat="-19.62496" lon="-43.88369">
    <ele>756.53</ele>
   </trkpt>
   <trkpt lat="-19.624450000124806" lon="-43.883444999202766">
    <ele>758.41</ele>
   </trkpt>
   <trkpt lat="-19.62394" lon="-43.8832">
    <ele>760.9200000000001</ele>
   </trkpt>
   <trkpt lat="-19.623420000142076" lon="-43.88297499927293">
    <ele>763.08</ele>
   </trkpt>
   <trkpt lat="-19.6229" lon="-43.88275">
    <ele>765.8900000000001</ele>
   </trkpt>
   <trkpt lat="-19.62274" lon="-43.882870000000004">
    <ele>766.47</ele>
   </trkpt>
   <trkpt lat="-19.62253" lon="-43.882870000000004">
    <ele>766.94</ele>
   </trkpt>
   <trkpt lat="-19.62225" lon="-43.882540000000006">
    <ele>767.19</ele>
   </trkpt>
   <trkpt lat="-19.62199" lon="-43.88237">
    <ele>767.5600000000001</ele>
   </trkpt>
   <trkpt lat="-19.621370000000002" lon="-43.88215">
    <ele>769.1000000000001</ele>
   </trkpt>
   <trkpt lat="-19.621190000000002" lon="-43.882200000000005">
    <ele>770.38</ele>
   </trkpt>
   <trkpt lat="-19.62073500027134" lon="-43.882019999562395">
    <ele>771.2800000000001</ele>
   </trkpt>
   <trkpt lat="-19.62028" lon="-43.881840000000004">
    <ele>772.4200000000001</ele>
   </trkpt>
   <trkpt lat="-19.61982" lon="-43.88123">
    <ele>777.12</ele>
   </trkpt>
   <trkpt lat="-19.61937" lon="-43.880810000000004">
    <ele>778.33</ele>
   </trkpt>
   <trkpt lat="-19.61881" lon="-43.88011">
    <ele>781.6400000000001</ele>
   </trkpt>
   <trkpt lat="-19.61868" lon="-43.87998">
    <ele>782.24</ele>
   </trkpt>
   <trkpt lat="-19.618660000000002" lon="-43.879960000000004">
    <ele>782.24</ele>
   </trkpt>
   <trkpt lat="-19.61916" lon="-43.87935">
    <ele>780.73</ele>
   </trkpt>
   <trkpt lat="-19.61972" lon="-43.8789">
    <ele>780.12</ele>
   </trkpt>
   <trkpt lat="-19.619960000000003" lon="-43.87857">
    <ele>780.44</ele>
   </trkpt>
   <trkpt lat="-19.620350000000002" lon="-43.87848">
    <ele>781.0100000000001</ele>
   </trkpt>
   <trkpt lat="-19.62056" lon="-43.87783">
    <ele>788.76</ele>
   </trkpt>
   <trkpt lat="-19.62059" lon="-43.87762">
    <ele>794.44</ele>
   </trkpt>
   <trkpt lat="-19.62105" lon="-43.87745">
    <ele>803.0</ele>
   </trkpt>
   <trkpt lat="-19.62076000082051" lon="-43.87691999912622">
    <ele>809.0500000000001</ele>
   </trkpt>
   <trkpt lat="-19.62047" lon="-43.87639">
    <ele>814.88</ele>
   </trkpt>
   <trkpt lat="-19.62019" lon="-43.87577">
    <ele>821.97</ele>
   </trkpt>
   <trkpt lat="-19.61981" lon="-43.87534">
    <ele>830.13</ele>
   </trkpt>
   <trkpt lat="-19.61933" lon="-43.87501">
    <ele>838.3600000000001</ele>
   </trkpt>
   <trkpt lat="-19.619030000000002" lon="-43.874680000000005">
    <ele>842.86</ele>
   </trkpt>
   <trkpt lat="-19.618750000000002" lon="-43.87462">
    <ele>848.7500000000001</ele>
   </trkpt>
   <trkpt lat="-19.618850000000002" lon="-43.87503">
    <ele>854.16</ele>
   </trkpt>
   <trkpt lat="-19.61878" lon="-43.8753">
    <ele>856.35</ele>
   </trkpt>
   <trkpt lat="-19.618640000000003" lon="-43.875600000000006">
    <ele>858.1700000000001</ele>
   </trkpt>
   <trkpt lat="-19.61842" lon="-43.875820000000004">
    <ele>859.72</ele>
   </trkpt>
   <trkpt lat="-19.61783000052817" lon="-43.876275001703334">
    <ele>857.5200000000001</ele>
   </trkpt>
   <trkpt lat="-19.617240000000002" lon="-43.87673">
    <ele>852.28</ele>
   </trkpt>
   <trkpt lat="-19.61692" lon="-43.87691">
    <ele>851.49</ele>
   </trkpt>
   <trkpt lat="-19.61645" lon="-43.8772">
    <ele>855.11</ele>
   </trkpt>
   <trkpt lat="-19.616025000298954" lon="-43.87754000091489">
    <ele>860.08</ele>
   </trkpt>
   <trkpt lat="-19.6156" lon="-43.877880000000005">
    <ele>866.45</ele>
   </trkpt>
   <trkpt lat="-19.61533" lon="-43.878130000000006">
    <ele>873.09</ele>
   </trkpt>
   <trkpt lat="-19.61484" lon="-43.8787">
    <ele>885.2500000000001</ele>
   </trkpt>
   <trkpt lat="-19.61476" lon="-43.878840000000004">
    <ele>886.4000000000001</ele>
   </trkpt>
   <trkpt lat="-19.61476" lon="-43.87942">
    <ele>892.2800000000001</ele>
   </trkpt>
   <trkpt lat="-19.614710000000002" lon="-43.87968">
    <ele>893.33</ele>
   </trkpt>
   <trkpt lat="-19.614600000000003" lon="-43.87988000000001">
    <ele>893.6500000000001</ele>
   </trkpt>
   <trkpt lat="-19.613860000000003" lon="-43.880140000000004">
    <ele>894.11</ele>
   </trkpt>
   <trkpt lat="-19.61306" lon="-43.88036">
    <ele>893.0100000000001</ele>
   </trkpt>
   <trkpt lat="-19.612630000139134" lon="-43.880505000360415">
    <ele>892.17</ele>
   </trkpt>
   <trkpt lat="-19.6122" lon="-43.88065">
    <ele>890.6800000000001</ele>
   </trkpt>
   <trkpt lat="-19.61195" lon="-43.88085">
    <ele>889.2</ele>
   </trkpt>
   <trkpt lat="-19.611450000217364" lon="-43.88114000091024">
    <ele>887.47</ele>
   </trkpt>
   <trkpt lat="-19.610950000000003" lon="-43.88143">
    <ele>883.9800000000001</ele>
   </trkpt>
   <trkpt lat="-19.61071" lon="-43.8815">
    <ele>882.8100000000001</ele>
   </trkpt>
   <trkpt lat="-19.61033" lon="-43.881550000000004">
    <ele>882.0100000000001</ele>
   </trkpt>
   <trkpt lat="-19.60961" lon="-43.88145">
    <ele>879.4000000000001</ele>
   </trkpt>
   <trkpt lat="-19.60902500001174" lon="-43.88141999989135">
    <ele>875.38</ele>
   </trkpt>
   <trkpt lat="-19.60844" lon="-43.88139">
    <ele>867.82</ele>
   </trkpt>
   <trkpt lat="-19.607580000000002" lon="-43.88121">
    <ele>862.2400000000001</ele>
   </trkpt>
   <trkpt lat="-19.60733" lon="-43.88123">
    <ele>860.6300000000001</ele>
   </trkpt>
   <trkpt lat="-19.60677" lon="-43.88132">
    <ele>859.23</ele>
   </trkpt>
   <trkpt lat="-19.606310000242313" lon="-43.88142000023931">
    <ele>858.6100000000001</ele>
   </trkpt>
   <trkpt lat="-19.60585" lon="-43.88152">
    <ele>857.11</ele>
   </trkpt>
   <trkpt lat="-19.605430000000002" lon="-43.881550000000004">
    <ele>855.9200000000001</ele>
   </trkpt>
   <trkpt lat="-19.6046" lon="-43.88154">
    <ele>851.59</ele>
   </trkpt>
   <trkpt lat="-19.60406499972271" lon="-43.88150999988454">
    <ele>849.1200000000001</ele>
   </trkpt>
   <trkpt lat="-19.603530000000003" lon="-43.88148">
    <ele>846.8100000000001</ele>
   </trkpt>
   <trkpt lat="-19.603170000000002" lon="-43.88141">
    <ele>845.0900000000001</ele>
   </trkpt>
   <trkpt lat="-19.60283" lon="-43.8813">
    <ele>843.2400000000001</ele>
   </trkpt>
   <trkpt lat="-19.60264" lon="-43.88118">
    <ele>840.22</ele>
   </trkpt>
   <trkpt lat="-19.602430000000002" lon="-43.88089">
    <ele>838.19</ele>
   </trkpt>
   <trkpt lat="-19.60228" lon="-43.88065">
    <ele>836.44</ele>
   </trkpt>
   <trkpt lat="-19.60217" lon="-43.88015">
    <ele>833.88</ele>
   </trkpt>
   <trkpt lat="-19.601940000000003" lon="-43.87984">
    <ele>829.98</ele>
   </trkpt>
   <trkpt lat="-19.60161" lon="-43.87953">
    <ele>827.2600000000001</ele>
   </trkpt>
   <trkpt lat="-19.60133" lon="-43.87935">
    <ele>825.23</ele>
   </trkpt>
   <trkpt lat="-19.60104" lon="-43.87924">
    <ele>822.8900000000001</ele>
   </trkpt>
   <trkpt lat="-19.60021" lon="-43.87888">
    <ele>810.91</ele>
   </trkpt>
   <trkpt lat="-19.600070000000002" lon="-43.878750000000004">
    <ele>808.0600000000001</ele>
   </trkpt>
   <trkpt lat="-19.599980000000002" lon="-43.878550000000004">
    <ele>803.69</ele>
   </trkpt>
   <trkpt lat="-19.599950000000003" lon="-43.87805">
    <ele>797.34</ele>
   </trkpt>
   <trkpt lat="-19.599890000000002" lon="-43.877900000000004">
    <ele>797.2800000000001</ele>
   </trkpt>
   <trkpt lat="-19.59981" lon="-43.877880000000005">
    <ele>797.32</ele>
   </trkpt>
   <trkpt lat="-19.599880000000002" lon="-43.877790000000005">
    <ele>795.58</ele>
   </trkpt>
   <trkpt lat="-19.59984" lon="-43.87774">
    <ele>794.2600000000001</ele>
   </trkpt>
   <trkpt lat="-19.5999" lon="-43.87762">
    <ele>793.0400000000001</ele>
   </trkpt>
   <trkpt lat="-19.60011" lon="-43.87749">
    <ele>791.12</ele>
   </trkpt>
   <trkpt lat="-19.600260000000002" lon="-43.87745">
    <ele>789.1100000000001</ele>
   </trkpt>
   <trkpt lat="-19.600350000000002" lon="-43.87738">
    <ele>788.2500000000001</ele>
   </trkpt>
   <trkpt lat="-19.60058" lon="-43.876850000000005">
    <ele>782.12</ele>
   </trkpt>
   <trkpt lat="-19.60057" lon="-43.87637">
    <ele>775.2800000000001</ele>
   </trkpt>
   <trkpt lat="-19.600610000662268" lon="-43.875880000120354">
    <ele>771.7100000000002</ele>
   </trkpt>
   <trkpt lat="-19.60065" lon="-43.87539">
    <ele>766.78</ele>
   </trkpt>
   <trkpt lat="-19.600740000000002" lon="-43.87525">
    <ele>765.51</ele>
   </trkpt>
   <trkpt lat="-19.60084" lon="-43.87521">
    <ele>762.84</ele>
   </trkpt>
   <trkpt lat="-19.60093" lon="-43.87523">
    <ele>761.4200000000001</ele>
   </trkpt>
   <trkpt lat="-19.601010000000002" lon="-43.875260000000004">
    <ele>759.96</ele>
   </trkpt>
   <trkpt lat="-19.60113" lon="-43.87539">
    <ele>756.9300000000001</ele>
   </trkpt>
   <trkpt lat="-19.601210000000002" lon="-43.875550000000004">
    <ele>754.7900000000001</ele>
   </trkpt>
   <trkpt lat="-19.60131" lon="-43.87563">
    <ele>752.83</ele>
   </trkpt>
   <trkpt lat="-19.601390000000002" lon="-43.87563">
    <ele>751.4300000000001</ele>
   </trkpt>
   <trkpt lat="-19.60142" lon="-43.87561">
    <ele>750.65</ele>
   </trkpt>
   <trkpt lat="-19.60172" lon="-43.87525">
    <ele>741.74</ele>
   </trkpt>
   <trkpt lat="-19.60189" lon="-43.87514">
    <ele>738.58</ele>
   </trkpt>
   <trkpt lat="-19.60198" lon="-43.87494">
    <ele>737.32</ele>
   </trkpt>
   <trkpt lat="-19.60197" lon="-43.874810000000004">
    <ele>737.3000000000001</ele>
   </trkpt>
   <trkpt lat="-19.601770000000002" lon="-43.874410000000005">
    <ele>738.94</ele>
   </trkpt>
   <trkpt lat="-19.60168" lon="-43.87431">
    <ele>740.11</ele>
   </trkpt>
   <trkpt lat="-19.60135" lon="-43.87411">
    <ele>746.36</ele>
   </trkpt>
   <trkpt lat="-19.60105" lon="-43.873870000000004">
    <ele>747.7600000000001</ele>
   </trkpt>
   <trkpt lat="-19.60088" lon="-43.873780000000004">
    <ele>748.0300000000001</ele>
   </trkpt>
   <trkpt lat="-19.600640000000002" lon="-43.87391">
    <ele>747.1800000000001</ele>
   </trkpt>
   <trkpt lat="-19.6005" lon="-43.87413">
    <ele>745.8</ele>
   </trkpt>
   <trkpt lat="-19.60046" lon="-43.87413">
    <ele>745.75</ele>
   </trkpt>
   <trkpt lat="-19.60029" lon="-43.87398">
    <ele>746.71</ele>
   </trkpt>
   <trkpt lat="-19.6002" lon="-43.87393">
    <ele>747.1500000000001</ele>
   </trkpt>
   <trkpt lat="-19.59992" lon="-43.87391">
    <ele>747.11</ele>
   </trkpt>
   <trkpt lat="-19.59965" lon="-43.87395">
    <ele>745.97</ele>
   </trkpt>
   <trkpt lat="-19.59946" lon="-43.87389">
    <ele>745.4300000000001</ele>
   </trkpt>
   <trkpt lat="-19.5986" lon="-43.874">
    <ele>738.45</ele>
   </trkpt>
   <trkpt lat="-19.59851" lon="-43.87404">
    <ele>737.9000000000001</ele>
   </trkpt>
   <trkpt lat="-19.59832" lon="-43.87402">
    <ele>735.24</ele>
   </trkpt>
   <trkpt lat="-19.59815" lon="-43.87404">
    <ele>733.83</ele>
   </trkpt>
   <trkpt lat="-19.59804" lon="-43.874">
    <ele>733.07</ele>
   </trkpt>
   <trkpt lat="-19.59795" lon="-43.87391">
    <ele>732.4300000000001</ele>
   </trkpt>
   <trkpt lat="-19.597540000000002" lon="-43.87366">
    <ele>731.37</ele>
   </trkpt>
   <trkpt lat="-19.59748" lon="-43.8736">
    <ele>731.3900000000001</ele>
   </trkpt>
   <trkpt lat="-19.59727" lon="-43.873490000000004">
    <ele>731.6</ele>
   </trkpt>
   <trkpt lat="-19.59712" lon="-43.873400000000004">
    <ele>731.71</ele>
   </trkpt>
   <trkpt lat="-19.596950000000003" lon="-43.873360000000005">
    <ele>731.72</ele>
   </trkpt>
   <trkpt lat="-19.59663" lon="-43.87335">
    <ele>729.75</ele>
   </trkpt>
   <trkpt lat="-19.59656" lon="-43.87333">
    <ele>729.28</ele>
   </trkpt>
   <trkpt lat="-19.596500000000002" lon="-43.87326">
    <ele>728.99</ele>
   </trkpt>
   <trkpt lat="-19.596030000000003" lon="-43.87297">
    <ele>728.62</ele>
   </trkpt>
   <trkpt lat="-19.59598" lon="-43.872910000000005">
    <ele>728.62</ele>
   </trkpt>
   <trkpt lat="-19.595750000000002" lon="-43.87286">
    <ele>728.5100000000001</ele>
   </trkpt>
   <trkpt lat="-19.59563" lon="-43.87281">
    <ele>728.33</ele>
   </trkpt>
   <trkpt lat="-19.59559" lon="-43.87275">
    <ele>728.19</ele>
   </trkpt>
   <trkpt lat="-19.59561" lon="-43.87272">
    <ele>728.19</ele>
   </trkpt>
   <trkpt lat="-19.59561" lon="-43.87266">
    <ele>727.6800000000001</ele>
   </trkpt>
   <trkpt lat="-19.59552" lon="-43.87259">
    <ele>727.53</ele>
   </trkpt>
   <trkpt lat="-19.59541" lon="-43.87261">
    <ele>727.6100000000001</ele>
   </trkpt>
   <trkpt lat="-19.59534" lon="-43.872550000000004">
    <ele>727.62</ele>
   </trkpt>
   <trkpt lat="-19.59506" lon="-43.87248">
    <ele>727.09</ele>
   </trkpt>
   <trkpt lat="-19.59494" lon="-43.87239">
    <ele>726.21</ele>
   </trkpt>
   <trkpt lat="-19.59484" lon="-43.872370000000004">
    <ele>725.8100000000001</ele>
   </trkpt>
   <trkpt lat="-19.594630000000002" lon="-43.872370000000004">
    <ele>724.6</ele>
   </trkpt>
   <trkpt lat="-19.59438" lon="-43.87245">
    <ele>721.98</ele>
   </trkpt>
   <trkpt lat="-19.59412" lon="-43.87261">
    <ele>718.5300000000001</ele>
   </trkpt>
   <trkpt lat="-19.59392" lon="-43.87261">
    <ele>717.3100000000001</ele>
   </trkpt>
   <trkpt lat="-19.59375" lon="-43.87268">
    <ele>716.19</ele>
   </trkpt>
   <trkpt lat="-19.59345" lon="-43.87286">
    <ele>712.34</ele>
   </trkpt>
   <trkpt lat="-19.593320000000002" lon="-43.87292">
    <ele>710.2900000000001</ele>
   </trkpt>
   <trkpt lat="-19.59325" lon="-43.872930000000004">
    <ele>710.2900000000001</ele>
   </trkpt>
   <trkpt lat="-19.593030000000002" lon="-43.872910000000005">
    <ele>706.01</ele>
   </trkpt>
   <trkpt lat="-19.592940000000002" lon="-43.872930000000004">
    <ele>704.79</ele>
   </trkpt>
   <trkpt lat="-19.592930000000003" lon="-43.87299">
    <ele>703.84</ele>
   </trkpt>
   <trkpt lat="-19.5927" lon="-43.87313">
    <ele>703.98</ele>
   </trkpt>
   <trkpt lat="-19.592560000000002" lon="-43.87317">
    <ele>704.9399999999999</ele>
   </trkpt>
   <trkpt lat="-19.592470000000002" lon="-43.87317">
    <ele>705.19</ele>
   </trkpt>
   <trkpt lat="-19.59204" lon="-43.87286">
    <ele>701.82</ele>
   </trkpt>
   <trkpt lat="-19.592000000000002" lon="-43.872730000000004">
    <ele>701.71</ele>
   </trkpt>
   <trkpt lat="-19.59166" lon="-43.8725">
    <ele>704.5</ele>
   </trkpt>
   <trkpt lat="-19.59168" lon="-43.87239">
    <ele>704.74</ele>
   </trkpt>
   <trkpt lat="-19.59175" lon="-43.8723">
    <ele>704.7</ele>
   </trkpt>
   <trkpt lat="-19.591820000000002" lon="-43.87212">
    <ele>704.62</ele>
   </trkpt>
   <trkpt lat="-19.59185" lon="-43.871970000000005">
    <ele>704.3100000000001</ele>
   </trkpt>
   <trkpt lat="-19.59185" lon="-43.87178">
    <ele>704.1800000000001</ele>
   </trkpt>
   <trkpt lat="-19.59174" lon="-43.87138">
    <ele>704.07</ele>
   </trkpt>
   <trkpt lat="-19.59165" lon="-43.87125">
    <ele>703.98</ele>
   </trkpt>
   <trkpt lat="-19.59156" lon="-43.87116">
    <ele>703.7500000000001</ele>
   </trkpt>
   <trkpt lat="-19.591350000000002" lon="-43.87102">
    <ele>703.6600000000001</ele>
   </trkpt>
   <trkpt lat="-19.59111" lon="-43.87095">
    <ele>703.5100000000001</ele>
   </trkpt>
   <trkpt lat="-19.59109" lon="-43.870960000000004">
    <ele>703.5100000000001</ele>
   </trkpt>
   <trkpt lat="-19.59112" lon="-43.870960000000004">
    <ele>703.5100000000001</ele>
   </trkpt>
   <trkpt lat="-19.5908" lon="-43.871050000000004">
    <ele>702.8700000000001</ele>
   </trkpt>
   <trkpt lat="-19.59063" lon="-43.87104">
    <ele>702.96</ele>
   </trkpt>
   <trkpt lat="-19.59045" lon="-43.871">
    <ele>703.9000000000001</ele>
   </trkpt>
   <trkpt lat="-19.590320000000002" lon="-43.87091">
    <ele>705.22</ele>
   </trkpt>
   <trkpt lat="-19.59017" lon="-43.87089">
    <ele>707.0500000000001</ele>
   </trkpt>
   <trkpt lat="-19.58997" lon="-43.87093">
    <ele>707.79</ele>
   </trkpt>
   <trkpt lat="-19.58958" lon="-43.87089">
    <ele>710.0900000000001</ele>
   </trkpt>
   <trkpt lat="-19.58951" lon="-43.87093">
    <ele>711.1500000000001</ele>
   </trkpt>
   <trkpt lat="-19.589290000000002" lon="-43.87127">
    <ele>715.2900000000001</ele>
   </trkpt>
   <trkpt lat="-19.58902" lon="-43.87147">
    <ele>717.11</ele>
   </trkpt>
   <trkpt lat="-19.588810000000002" lon="-43.87171">
    <ele>720.7300000000001</ele>
   </trkpt>
   <trkpt lat="-19.588630000000002" lon="-43.87203">
    <ele>725.52</ele>
   </trkpt>
   <trkpt lat="-19.58837" lon="-43.87241">
    <ele>731.5400000000001</ele>
   </trkpt>
   <trkpt lat="-19.58819" lon="-43.8727">
    <ele>739.6</ele>
   </trkpt>
   <trkpt lat="-19.588160000000002" lon="-43.87272">
    <ele>740.08</ele>
   </trkpt>
   <trkpt lat="-19.58809" lon="-43.87272">
    <ele>740.46</ele>
   </trkpt>
   <trkpt lat="-19.58809" lon="-43.872710000000005">
    <ele>740.46</ele>
   </trkpt>
   <trkpt lat="-19.5881" lon="-43.87272">
    <ele>740.46</ele>
   </trkpt>
   <trkpt lat="-19.58809" lon="-43.87252">
    <ele>741.24</ele>
   </trkpt>
   <trkpt lat="-19.58799" lon="-43.87225">
    <ele>742.72</ele>
   </trkpt>
   <trkpt lat="-19.58793" lon="-43.87203">
    <ele>744.71</ele>
   </trkpt>
   <trkpt lat="-19.5878" lon="-43.871880000000004">
    <ele>746.3700000000001</ele>
   </trkpt>
   <trkpt lat="-19.58764" lon="-43.8718">
    <ele>747.51</ele>
   </trkpt>
   <trkpt lat="-19.587490000000003" lon="-43.8716">
    <ele>748.0400000000001</ele>
   </trkpt>
   <trkpt lat="-19.58734" lon="-43.871520000000004">
    <ele>748.41</ele>
   </trkpt>
   <trkpt lat="-19.58725" lon="-43.8716">
    <ele>749.6</ele>
   </trkpt>
   <trkpt lat="-19.58697" lon="-43.87133">
    <ele>750.86</ele>
   </trkpt>
   <trkpt lat="-19.58689" lon="-43.871140000000004">
    <ele>751.75</ele>
   </trkpt>
   <trkpt lat="-19.5869" lon="-43.8708">
    <ele>754.2200000000001</ele>
   </trkpt>
   <trkpt lat="-19.58696" lon="-43.870470000000005">
    <ele>758.09</ele>
   </trkpt>
   <trkpt lat="-19.58706" lon="-43.870200000000004">
    <ele>764.3700000000001</ele>
   </trkpt>
   <trkpt lat="-19.58726" lon="-43.869820000000004">
    <ele>770.2500000000001</ele>
   </trkpt>
   <trkpt lat="-19.587320000000002" lon="-43.86979">
    <ele>774.17</ele>
   </trkpt>
   <trkpt lat="-19.587410000000002" lon="-43.86948">
    <ele>777.1600000000001</ele>
   </trkpt>
   <trkpt lat="-19.587410000000002" lon="-43.86939">
    <ele>779.3100000000001</ele>
   </trkpt>
   <trkpt lat="-19.58737" lon="-43.86932">
    <ele>779.99</ele>
   </trkpt>
   <trkpt lat="-19.587300000000003" lon="-43.86928">
    <ele>781.2</ele>
   </trkpt>
   <trkpt lat="-19.587210000000002" lon="-43.8693">
    <ele>782.1600000000001</ele>
   </trkpt>
   <trkpt lat="-19.58699" lon="-43.86941">
    <ele>783.51</ele>
   </trkpt>
   <trkpt lat="-19.5867" lon="-43.86952">
    <ele>785.3500000000001</ele>
   </trkpt>
   <trkpt lat="-19.5864" lon="-43.86968">
    <ele>787.72</ele>
   </trkpt>
   <trkpt lat="-19.58622" lon="-43.869730000000004">
    <ele>789.2800000000001</ele>
   </trkpt>
   <trkpt lat="-19.58593" lon="-43.86999">
    <ele>790.49</ele>
   </trkpt>
   <trkpt lat="-19.585800000000003" lon="-43.87004">
    <ele>790.5200000000001</ele>
   </trkpt>
   <trkpt lat="-19.585620000000002" lon="-43.87017">
    <ele>790.21</ele>
   </trkpt>
   <trkpt lat="-19.58556" lon="-43.870160000000006">
    <ele>790.21</ele>
   </trkpt>
   <trkpt lat="-19.585820000000002" lon="-43.8706">
    <ele>787.61</ele>
   </trkpt>
   <trkpt lat="-19.585820000818625" lon="-43.87114500005881">
    <ele>786.3500000000001</ele>
   </trkpt>
   <trkpt lat="-19.585820000000002" lon="-43.87169">
    <ele>786.7900000000001</ele>
   </trkpt>
   <trkpt lat="-19.585800000000003" lon="-43.871790000000004">
    <ele>787.07</ele>
   </trkpt>
   <trkpt lat="-19.58593" lon="-43.87223">
    <ele>788.99</ele>
   </trkpt>
   <trkpt lat="-19.58594" lon="-43.87241">
    <ele>790.2</ele>
   </trkpt>
   <trkpt lat="-19.58593" lon="-43.87254">
    <ele>791.76</ele>
   </trkpt>
   <trkpt lat="-19.58614" lon="-43.87326">
    <ele>798.78</ele>
   </trkpt>
   <trkpt lat="-19.58631" lon="-43.873490000000004">
    <ele>800.33</ele>
   </trkpt>
   <trkpt lat="-19.5864" lon="-43.87355">
    <ele>800.37</ele>
   </trkpt>
   <trkpt lat="-19.5865" lon="-43.87355">
    <ele>800.2300000000001</ele>
   </trkpt>
   <trkpt lat="-19.58659" lon="-43.87359">
    <ele>800.25</ele>
   </trkpt>
   <trkpt lat="-19.586750000000002" lon="-43.87384">
    <ele>801.91</ele>
   </trkpt>
   <trkpt lat="-19.58678" lon="-43.874">
    <ele>803.94</ele>
   </trkpt>
   <trkpt lat="-19.586840000000002" lon="-43.87402">
    <ele>804.8000000000001</ele>
   </trkpt>
   <trkpt lat="-19.58687" lon="-43.87411">
    <ele>805.52</ele>
   </trkpt>
   <trkpt lat="-19.58714" lon="-43.87438">
    <ele>807.9300000000001</ele>
   </trkpt>
   <trkpt lat="-19.587210000000002" lon="-43.87438">
    <ele>808.3800000000001</ele>
   </trkpt>
   <trkpt lat="-19.587320000000002" lon="-43.87458">
    <ele>810.71</ele>
   </trkpt>
   <trkpt lat="-19.58751" lon="-43.87483">
    <ele>812.15</ele>
   </trkpt>
   <trkpt lat="-19.587680000000002" lon="-43.87494">
    <ele>812.6200000000001</ele>
   </trkpt>
   <trkpt lat="-19.58828" lon="-43.875130000000006">
    <ele>812.34</ele>
   </trkpt>
   <trkpt lat="-19.58827" lon="-43.87512">
    <ele>812.34</ele>
   </trkpt>
   <trkpt lat="-19.58839" lon="-43.87514">
    <ele>811.95</ele>
   </trkpt>
   <trkpt lat="-19.58868" lon="-43.87509">
    <ele>810.32</ele>
   </trkpt>
   <trkpt lat="-19.58884" lon="-43.87512">
    <ele>809.7500000000001</ele>
   </trkpt>
   <trkpt lat="-19.58951" lon="-43.87538000000001">
    <ele>808.9300000000001</ele>
   </trkpt>
   <trkpt lat="-19.589630000000003" lon="-43.87529000000001">
    <ele>812.37</ele>
   </trkpt>
   <trkpt lat="-19.589830000000003" lon="-43.875330000000005">
    <ele>806.4100000000001</ele>
   </trkpt>
   <trkpt lat="-19.590030000000002" lon="-43.87539">
    <ele>802.25</ele>
   </trkpt>
   <trkpt lat="-19.590130000000002" lon="-43.87538000000001">
    <ele>800.0500000000001</ele>
   </trkpt>
   <trkpt lat="-19.590210000000003" lon="-43.87541">
    <ele>798.8700000000001</ele>
   </trkpt>
   <trkpt lat="-19.590320000000002" lon="-43.875420000000005">
    <ele>795.8900000000001</ele>
   </trkpt>
   <trkpt lat="-19.590400000000002" lon="-43.87547000000001">
    <ele>795.8900000000001</ele>
   </trkpt>
   <trkpt lat="-19.590500000000002" lon="-43.8755">
    <ele>793.0100000000001</ele>
   </trkpt>
   <trkpt lat="-19.590690000000002" lon="-43.87543">
    <ele>788.66</ele>
   </trkpt>
   <trkpt lat="-19.590790000000002" lon="-43.875420000000005">
    <ele>787.5000000000001</ele>
   </trkpt>
   <trkpt lat="-19.59082" lon="-43.87523">
    <ele>783.78</ele>
   </trkpt>
   <trkpt lat="-19.5909" lon="-43.875020000000006">
    <ele>778.57</ele>
   </trkpt>
   <trkpt lat="-19.5909" lon="-43.874930000000006">
    <ele>774.8000000000001</ele>
   </trkpt>
   <trkpt lat="-19.59093" lon="-43.87483">
    <ele>772.4700000000001</ele>
   </trkpt>
   <trkpt lat="-19.59099" lon="-43.874750000000006">
    <ele>770.48</ele>
   </trkpt>
   <trkpt lat="-19.59101" lon="-43.87464000000001">
    <ele>768.57</ele>
   </trkpt>
   <trkpt lat="-19.591050000000003" lon="-43.874550000000006">
    <ele>766.45</ele>
   </trkpt>
   <trkpt lat="-19.59112" lon="-43.87447">
    <ele>764.33</ele>
   </trkpt>
   <trkpt lat="-19.5912" lon="-43.8744">
    <ele>762.0100000000001</ele>
   </trkpt>
   <trkpt lat="-19.5913" lon="-43.874340000000004">
    <ele>759.41</ele>
   </trkpt>
   <trkpt lat="-19.59139" lon="-43.87436">
    <ele>757.71</ele>
   </trkpt>
   <trkpt lat="-19.59147" lon="-43.87444000000001">
    <ele>757.99</ele>
   </trkpt>
   <trkpt lat="-19.59156" lon="-43.87447">
    <ele>757.47</ele>
   </trkpt>
   <trkpt lat="-19.59184" lon="-43.87445">
    <ele>751.26</ele>
   </trkpt>
   <trkpt lat="-19.592160000000003" lon="-43.87436">
    <ele>752.07</ele>
   </trkpt>
   <trkpt lat="-19.59269" lon="-43.87444000000001">
    <ele>756.4300000000001</ele>
   </trkpt>
   <trkpt lat="-19.592910000000003" lon="-43.874430000000004">
    <ele>754.85</ele>
   </trkpt>
   <trkpt lat="-19.593" lon="-43.874370000000006">
    <ele>751.6700000000001</ele>
   </trkpt>
   <trkpt lat="-19.593100000000003" lon="-43.874370000000006">
    <ele>751.08</ele>
   </trkpt>
   <trkpt lat="-19.59318" lon="-43.8744">
    <ele>751.58</ele>
   </trkpt>
   <trkpt lat="-19.59335" lon="-43.874500000000005">
    <ele>750.95</ele>
   </trkpt>
   <trkpt lat="-19.59343" lon="-43.87458">
    <ele>750.65</ele>
   </trkpt>
   <trkpt lat="-19.59353" lon="-43.87489">
    <ele>751.9200000000001</ele>
   </trkpt>
   <trkpt lat="-19.593590000000003" lon="-43.87498">
    <ele>752.65</ele>
   </trkpt>
   <trkpt lat="-19.59394" lon="-43.87519">
    <ele>752.9</ele>
   </trkpt>
   <trkpt lat="-19.594050000000003" lon="-43.87521">
    <ele>755.38</ele>
   </trkpt>
   <trkpt lat="-19.594140000000003" lon="-43.875170000000004">
    <ele>756.35</ele>
   </trkpt>
   <trkpt lat="-19.59419" lon="-43.874970000000005">
    <ele>755.63</ele>
   </trkpt>
   <trkpt lat="-19.5943" lon="-43.874770000000005">
    <ele>759.41</ele>
   </trkpt>
   <trkpt lat="-19.59422" lon="-43.874590000000005">
    <ele>759.97</ele>
   </trkpt>
   <trkpt lat="-19.59411" lon="-43.874410000000005">
    <ele>758.9800000000001</ele>
   </trkpt>
   <trkpt lat="-19.59408" lon="-43.87431">
    <ele>758.72</ele>
   </trkpt>
   <trkpt lat="-19.594070000000002" lon="-43.874100000000006">
    <ele>757.6700000000001</ele>
   </trkpt>
   <trkpt lat="-19.59408" lon="-43.87398">
    <ele>754.78</ele>
   </trkpt>
   <trkpt lat="-19.59411" lon="-43.87386">
    <ele>753.94</ele>
   </trkpt>
   <trkpt lat="-19.594160000000002" lon="-43.87377">
    <ele>753.2</ele>
   </trkpt>
   <trkpt lat="-19.5943" lon="-43.873630000000006">
    <ele>752.26</ele>
   </trkpt>
   <trkpt lat="-19.59439" lon="-43.873580000000004">
    <ele>752.2800000000001</ele>
   </trkpt>
   <trkpt lat="-19.59449" lon="-43.873560000000005">
    <ele>752.9800000000001</ele>
   </trkpt>
   <trkpt lat="-19.59469" lon="-43.87346">
    <ele>752.83</ele>
   </trkpt>
   <trkpt lat="-19.59493" lon="-43.873470000000005">
    <ele>750.7800000000001</ele>
   </trkpt>
   <trkpt lat="-19.59503" lon="-43.873450000000005">
    <ele>748.84</ele>
   </trkpt>
   <trkpt lat="-19.59534" lon="-43.873470000000005">
    <ele>745.1500000000001</ele>
   </trkpt>
   <trkpt lat="-19.59563" lon="-43.873430000000006">
    <ele>743.5500000000001</ele>
   </trkpt>
   <trkpt lat="-19.596020000000003" lon="-43.873610000000006">
    <ele>745.75</ele>
   </trkpt>
   <trkpt lat="-19.59607" lon="-43.87370000000001">
    <ele>747.1500000000001</ele>
   </trkpt>
   <trkpt lat="-19.59616" lon="-43.87375">
    <ele>747.1500000000001</ele>
   </trkpt>
   <trkpt lat="-19.59627" lon="-43.87370000000001">
    <ele>744.21</ele>
   </trkpt>
   <trkpt lat="-19.59636" lon="-43.87369">
    <ele>742.7</ele>
   </trkpt>
   <trkpt lat="-19.59645" lon="-43.873740000000005">
    <ele>743.7900000000001</ele>
   </trkpt>
   <trkpt lat="-19.59656" lon="-43.87377">
    <ele>743.4200000000001</ele>
   </trkpt>
   <trkpt lat="-19.59666" lon="-43.87382">
    <ele>743.47</ele>
   </trkpt>
   <trkpt lat="-19.596870000000003" lon="-43.873760000000004">
    <ele>741.63</ele>
   </trkpt>
   <trkpt lat="-19.596970000000002" lon="-43.87375">
    <ele>740.08</ele>
   </trkpt>
   <trkpt lat="-19.597080000000002" lon="-43.87377">
    <ele>738.1</ele>
   </trkpt>
   <trkpt lat="-19.597160000000002" lon="-43.87371">
    <ele>735.45</ele>
   </trkpt>
   <trkpt lat="-19.59721" lon="-43.873610000000006">
    <ele>733.08</ele>
   </trkpt>
   <trkpt lat="-19.597250000000003" lon="-43.873490000000004">
    <ele>731.7800000000001</ele>
   </trkpt>
   <trkpt lat="-19.59748" lon="-43.8736">
    <ele>731.3900000000001</ele>
   </trkpt>
   <trkpt lat="-19.597540000000002" lon="-43.87366">
    <ele>731.37</ele>
   </trkpt>
   <trkpt lat="-19.59795" lon="-43.87391">
    <ele>732.4300000000001</ele>
   </trkpt>
   <trkpt lat="-19.59804" lon="-43.874">
    <ele>733.07</ele>
   </trkpt>
   <trkpt lat="-19.59815" lon="-43.87404">
    <ele>733.83</ele>
   </trkpt>
   <trkpt lat="-19.59832" lon="-43.87402">
    <ele>735.24</ele>
   </trkpt>
   <trkpt lat="-19.59851" lon="-43.87404">
    <ele>737.9000000000001</ele>
   </trkpt>
   <trkpt lat="-19.5986" lon="-43.874">
    <ele>738.45</ele>
   </trkpt>
   <trkpt lat="-19.59946" lon="-43.87389">
    <ele>745.4300000000001</ele>
   </trkpt>
   <trkpt lat="-19.59965" lon="-43.87395">
    <ele>745.97</ele>
   </trkpt>
   <trkpt lat="-19.59992" lon="-43.87391">
    <ele>747.11</ele>
   </trkpt>
   <trkpt lat="-19.6002" lon="-43.87393">
    <ele>747.1500000000001</ele>
   </trkpt>
   <trkpt lat="-19.60029" lon="-43.87398">
    <ele>746.71</ele>
   </trkpt>
   <trkpt lat="-19.60046" lon="-43.87413">
    <ele>745.75</ele>
   </trkpt>
   <trkpt lat="-19.6005" lon="-43.87413">
    <ele>745.8</ele>
   </trkpt>
   <trkpt lat="-19.600640000000002" lon="-43.87391">
    <ele>747.1800000000001</ele>
   </trkpt>
   <trkpt lat="-19.60088" lon="-43.873780000000004">
    <ele>748.0300000000001</ele>
   </trkpt>
   <trkpt lat="-19.60104" lon="-43.87386">
    <ele>747.77</ele>
   </trkpt>
   <trkpt lat="-19.60135" lon="-43.87411">
    <ele>745.82</ele>
   </trkpt>
   <trkpt lat="-19.60168" lon="-43.87431">
    <ele>740.11</ele>
   </trkpt>
   <trkpt lat="-19.601770000000002" lon="-43.874410000000005">
    <ele>738.94</ele>
   </trkpt>
   <trkpt lat="-19.60197" lon="-43.874810000000004">
    <ele>737.25</ele>
   </trkpt>
   <trkpt lat="-19.60198" lon="-43.87494">
    <ele>737.32</ele>
   </trkpt>
   <trkpt lat="-19.60189" lon="-43.87514">
    <ele>739.72</ele>
   </trkpt>
   <trkpt lat="-19.60172" lon="-43.87525">
    <ele>741.74</ele>
   </trkpt>
   <trkpt lat="-19.60142" lon="-43.87561">
    <ele>751.4300000000001</ele>
   </trkpt>
   <trkpt lat="-19.601390000000002" lon="-43.87563">
    <ele>751.4300000000001</ele>
   </trkpt>
   <trkpt lat="-19.60131" lon="-43.87563">
    <ele>752.83</ele>
   </trkpt>
   <trkpt lat="-19.601210000000002" lon="-43.875550000000004">
    <ele>754.7900000000001</ele>
   </trkpt>
   <trkpt lat="-19.60113" lon="-43.87539">
    <ele>756.9300000000001</ele>
   </trkpt>
   <trkpt lat="-19.601010000000002" lon="-43.875260000000004">
    <ele>759.96</ele>
   </trkpt>
   <trkpt lat="-19.60084" lon="-43.87521">
    <ele>762.84</ele>
   </trkpt>
   <trkpt lat="-19.600740000000002" lon="-43.87525">
    <ele>765.51</ele>
   </trkpt>
   <trkpt lat="-19.60065" lon="-43.87539">
    <ele>767.36</ele>
   </trkpt>
   <trkpt lat="-19.600610000662037" lon="-43.87588000012327">
    <ele>771.7100000000002</ele>
   </trkpt>
   <trkpt lat="-19.60057" lon="-43.87637">
    <ele>775.7900000000001</ele>
   </trkpt>
   <trkpt lat="-19.60058" lon="-43.876850000000005">
    <ele>782.12</ele>
   </trkpt>
   <trkpt lat="-19.600350000000002" lon="-43.87738">
    <ele>788.2500000000001</ele>
   </trkpt>
   <trkpt lat="-19.600260000000002" lon="-43.87745">
    <ele>789.1100000000001</ele>
   </trkpt>
   <trkpt lat="-19.60011" lon="-43.87749">
    <ele>791.12</ele>
   </trkpt>
   <trkpt lat="-19.5999" lon="-43.87762">
    <ele>793.0400000000001</ele>
   </trkpt>
   <trkpt lat="-19.59984" lon="-43.87774">
    <ele>795.58</ele>
   </trkpt>
   <trkpt lat="-19.599880000000002" lon="-43.877790000000005">
    <ele>796.21</ele>
   </trkpt>
   <trkpt lat="-19.59981" lon="-43.877880000000005">
    <ele>797.2900000000001</ele>
   </trkpt>
   <trkpt lat="-19.599890000000002" lon="-43.877900000000004">
    <ele>797.2800000000001</ele>
   </trkpt>
   <trkpt lat="-19.599950000000003" lon="-43.87805">
    <ele>797.34</ele>
   </trkpt>
   <trkpt lat="-19.599980000000002" lon="-43.87854">
    <ele>803.15</ele>
   </trkpt>
   <trkpt lat="-19.600070000000002" lon="-43.878750000000004">
    <ele>808.0600000000001</ele>
   </trkpt>
   <trkpt lat="-19.60021" lon="-43.87888">
    <ele>810.91</ele>
   </trkpt>
   <trkpt lat="-19.60104" lon="-43.87924">
    <ele>822.8900000000001</ele>
   </trkpt>
   <trkpt lat="-19.60133" lon="-43.87935">
    <ele>825.23</ele>
   </trkpt>
   <trkpt lat="-19.60161" lon="-43.87953">
    <ele>827.2600000000001</ele>
   </trkpt>
   <trkpt lat="-19.601940000000003" lon="-43.87984">
    <ele>829.98</ele>
   </trkpt>
   <trkpt lat="-19.60217" lon="-43.88015">
    <ele>833.88</ele>
   </trkpt>
   <trkpt lat="-19.60228" lon="-43.88065">
    <ele>836.44</ele>
   </trkpt>
   <trkpt lat="-19.602430000000002" lon="-43.88089">
    <ele>838.19</ele>
   </trkpt>
   <trkpt lat="-19.60264" lon="-43.88118">
    <ele>840.22</ele>
   </trkpt>
   <trkpt lat="-19.60283" lon="-43.881310000000006">
    <ele>842.0500000000001</ele>
   </trkpt>
   <trkpt lat="-19.60282" lon="-43.8813">
    <ele>842.0500000000001</ele>
   </trkpt>
   <trkpt lat="-19.603170000000002" lon="-43.88141">
    <ele>845.0900000000001</ele>
   </trkpt>
   <trkpt lat="-19.603540000000002" lon="-43.88148">
    <ele>847.04</ele>
   </trkpt>
   <trkpt lat="-19.604070000102414" lon="-43.88150999990682">
    <ele>849.1200000000001</ele>
   </trkpt>
   <trkpt lat="-19.6046" lon="-43.88154">
    <ele>851.59</ele>
   </trkpt>
   <trkpt lat="-19.605430000000002" lon="-43.881550000000004">
    <ele>855.9200000000001</ele>
   </trkpt>
   <trkpt lat="-19.60585" lon="-43.88152">
    <ele>857.11</ele>
   </trkpt>
   <trkpt lat="-19.606309999812854" lon="-43.88142000033266">
    <ele>858.6100000000001</ele>
   </trkpt>
   <trkpt lat="-19.60677" lon="-43.88132">
    <ele>859.23</ele>
   </trkpt>
   <trkpt lat="-19.60733" lon="-43.88123">
    <ele>860.6300000000001</ele>
   </trkpt>
   <trkpt lat="-19.607580000000002" lon="-43.88121">
    <ele>862.2400000000001</ele>
   </trkpt>
   <trkpt lat="-19.60844" lon="-43.88139">
    <ele>867.82</ele>
   </trkpt>
   <trkpt lat="-19.60902499999322" lon="-43.881419999890404">
    <ele>875.38</ele>
   </trkpt>
   <trkpt lat="-19.60961" lon="-43.88145">
    <ele>879.89</ele>
   </trkpt>
   <trkpt lat="-19.61033" lon="-43.881550000000004">
    <ele>882.0100000000001</ele>
   </trkpt>
   <trkpt lat="-19.61071" lon="-43.8815">
    <ele>882.8100000000001</ele>
   </trkpt>
   <trkpt lat="-19.610950000000003" lon="-43.88143">
    <ele>884.4900000000001</ele>
   </trkpt>
   <trkpt lat="-19.611450000246723" lon="-43.88114000089321">
    <ele>887.47</ele>
   </trkpt>
   <trkpt lat="-19.61195" lon="-43.88085">
    <ele>889.59</ele>
   </trkpt>
   <trkpt lat="-19.6122" lon="-43.88065">
    <ele>890.6800000000001</ele>
   </trkpt>
   <trkpt lat="-19.612629999976892" lon="-43.88050500041511">
    <ele>892.17</ele>
   </trkpt>
   <trkpt lat="-19.61306" lon="-43.88036">
    <ele>893.0100000000001</ele>
   </trkpt>
   <trkpt lat="-19.613860000000003" lon="-43.880140000000004">
    <ele>894.1000000000001</ele>
   </trkpt>
   <trkpt lat="-19.614535000454858" lon="-43.880544998301005">
    <ele>888.0600000000001</ele>
   </trkpt>
   <trkpt lat="-19.61521" lon="-43.880950000000006">
    <ele>881.9200000000001</ele>
   </trkpt>
   <trkpt lat="-19.61549" lon="-43.881260000000005">
    <ele>876.95</ele>
   </trkpt>
   <trkpt lat="-19.61577" lon="-43.88172">
    <ele>872.83</ele>
   </trkpt>
   <trkpt lat="-19.61606" lon="-43.8823">
    <ele>866.5400000000001</ele>
   </trkpt>
   <trkpt lat="-19.61624" lon="-43.88259">
    <ele>863.45</ele>
   </trkpt>
   <trkpt lat="-19.616580000000003" lon="-43.883070000000004">
    <ele>860.0500000000001</ele>
   </trkpt>
   <trkpt lat="-19.616835001767754" lon="-43.8838649988123">
    <ele>856.28</ele>
   </trkpt>
   <trkpt lat="-19.61709" lon="-43.884660000000004">
    <ele>849.3600000000001</ele>
   </trkpt>
   <trkpt lat="-19.617340000000002" lon="-43.88515">
    <ele>843.9100000000001</ele>
   </trkpt>
   <trkpt lat="-19.617720000000002" lon="-43.88497">
    <ele>838.32</ele>
   </trkpt>
   <trkpt lat="-19.617990000000002" lon="-43.8849">
    <ele>834.96</ele>
   </trkpt>
   <trkpt lat="-19.618650000000002" lon="-43.88477">
    <ele>827.5500000000001</ele>
   </trkpt>
   <trkpt lat="-19.61887" lon="-43.88479">
    <ele>827.5500000000001</ele>
   </trkpt>
   <trkpt lat="-19.61906" lon="-43.88488">
    <ele>819.2800000000001</ele>
   </trkpt>
   <trkpt lat="-19.61961" lon="-43.88542">
    <ele>812.5000000000001</ele>
   </trkpt>
   <trkpt lat="-19.619780000000002" lon="-43.88553">
    <ele>810.7500000000001</ele>
   </trkpt>
   <trkpt lat="-19.619970000000002" lon="-43.88559">
    <ele>807.12</ele>
   </trkpt>
   <trkpt lat="-19.62012" lon="-43.885600000000004">
    <ele>804.0100000000001</ele>
   </trkpt>
   <trkpt lat="-19.62028" lon="-43.88557">
    <ele>802.2300000000001</ele>
   </trkpt>
   <trkpt lat="-19.62106666734217" lon="-43.88522667001693">
    <ele>789.0400000000001</ele>
   </trkpt>
   <trkpt lat="-19.621853334033602" lon="-43.88488333667285">
    <ele>780.9200000000001</ele>
   </trkpt>
   <trkpt lat="-19.62264" lon="-43.88454">
    <ele>773.2500000000001</ele>
   </trkpt>
   <trkpt lat="-19.622960000000003" lon="-43.884550000000004">
    <ele>772.0600000000001</ele>
   </trkpt>
   <trkpt lat="-19.623070000000002" lon="-43.884600000000006">
    <ele>771.84</ele>
   </trkpt>
   <trkpt lat="-19.623250000000002" lon="-43.88477">
    <ele>771.44</ele>
   </trkpt>
   <trkpt lat="-19.62338" lon="-43.88481">
    <ele>770.75</ele>
   </trkpt>
   <trkpt lat="-19.6235" lon="-43.88479">
    <ele>770.34</ele>
   </trkpt>
   <trkpt lat="-19.62365" lon="-43.884710000000005">
    <ele>769.7900000000001</ele>
   </trkpt>
   <trkpt lat="-19.62403" lon="-43.884660000000004">
    <ele>767.4200000000001</ele>
   </trkpt>
   <trkpt lat="-19.62422" lon="-43.88474">
    <ele>766.33</ele>
   </trkpt>
   <trkpt lat="-19.6248" lon="-43.88519">
    <ele>759.75</ele>
   </trkpt>
   <trkpt lat="-19.625483334620082" lon="-43.88566666263475">
    <ele>753.48</ele>
   </trkpt>
   <trkpt lat="-19.62616666798562" lon="-43.886143329323815">
    <ele>746.7300000000001</ele>
   </trkpt>
   <trkpt lat="-19.62685" lon="-43.88662">
    <ele>742.59</ele>
   </trkpt>
   <trkpt lat="-19.62731" lon="-43.88703">
    <ele>741.2900000000001</ele>
   </trkpt>
   <trkpt lat="-19.62753" lon="-43.88732">
    <ele>741.08</ele>
   </trkpt>
   <trkpt lat="-19.62753" lon="-43.887330000000006">
    <ele>741.08</ele>
   </trkpt>
   <trkpt lat="-19.62791" lon="-43.88736">
    <ele>743.2800000000001</ele>
   </trkpt>
   <trkpt lat="-19.62838" lon="-43.88792">
    <ele>740.5500000000001</ele>
   </trkpt>
  </trkseg>
 </trk>
</gpx>
