<?xml version="1.0" encoding="UTF-8"?>
<gpx creator="StravaGPX" version="1.1" xmlns="http://www.topografix.com/GPX/1/1" xmlns:xsi="http://www.w3.org/2001/XMLSchema-instance" xsi:schemaLocation="http://www.topografix.com/GPX/1/1 http://www.topografix.com/GPX/1/1/gpx.xsd">
 <metadata>
  <name>Trail run matinal</name>
  <author>
   <name>Felipe Desiderio</name>
  </author>
  <copyright author="OpenStreetMap contributors">
   <year>2020</year>
   <license>https://www.openstreetmap.org/copyright</license>
  </copyright>
 </metadata>
 <trk>
  <name>Trail run matinal</name>
  <link href=""/>
  <type>trail_running</type>
  <trkseg>
   <trkpt lat="-19.65379" lon="-43.849790000000006">
    <ele>723.1700000000001</ele>
   </trkpt>
   <trkpt lat="-19.65333" lon="-43.849360000000004">
    <ele>722.5400000000001</ele>
   </trkpt>
   <trkpt lat="-19.65311" lon="-43.84924">
    <ele>722.04</ele>
   </trkpt>
   <trkpt lat="-19.6525" lon="-43.84904">
    <ele>721.35</ele>
   </trkpt>
   <trkpt lat="-19.65202" lon="-43.84868">
    <ele>721.53</ele>
   </trkpt>
   <trkpt lat="-19.65189" lon="-43.848510000000005">
    <ele>721.61</ele>
   </trkpt>
   <trkpt lat="-19.65183" lon="-43.84841">
    <ele>721.87</ele>
   </trkpt>
   <trkpt lat="-19.651925001186207" lon="-43.84775500038482">
    <ele>722.07</ele>
   </trkpt>
   <trkpt lat="-19.65202" lon="-43.847100000000005">
    <ele>723.1700000000001</ele>
   </trkpt>
   <trkpt lat="-19.651915000915608" lon="-43.846514999448594">
    <ele>722.0600000000001</ele>
   </trkpt>
   <trkpt lat="-19.65181" lon="-43.84593">
    <ele>720.57</ele>
   </trkpt>
   <trkpt lat="-19.651810000791087" lon="-43.845394999831626">
    <ele>720.58</ele>
   </trkpt>
   <trkpt lat="-19.65181" lon="-43.844860000000004">
    <ele>722.07</ele>
   </trkpt>
   <trkpt lat="-19.65172" lon="-43.84465">
    <ele>723.7900000000001</ele>
   </trkpt>
   <trkpt lat="-19.651290000509025" lon="-43.84420499876781">
    <ele>723.71</ele>
   </trkpt>
   <trkpt lat="-19.65086" lon="-43.84376">
    <ele>721.37</ele>
   </trkpt>
   <trkpt lat="-19.65129000058558" lon="-43.84420499884704">
    <ele>723.71</ele>
   </trkpt>
   <trkpt lat="-19.65172" lon="-43.84465">
    <ele>723.7900000000001</ele>
   </trkpt>
   <trkpt lat="-19.65181" lon="-43.844860000000004">
    <ele>722.07</ele>
   </trkpt>
   <trkpt lat="-19.651810000791087" lon="-43.84539500016839">
    <ele>720.58</ele>
   </trkpt>
   <trkpt lat="-19.65181" lon="-43.84593">
    <ele>720.57</ele>
   </trkpt>
   <trkpt lat="-19.651915000976118" lon="-43.84651499978573">
    <ele>722.0600000000001</ele>
   </trkpt>
   <trkpt lat="-19.65202" lon="-43.847100000000005">
    <ele>723.1700000000001</ele>
   </trkpt>
   <trkpt lat="-19.6519500007331" lon="-43.84762000033275">
    <ele>722.21</ele>
   </trkpt>
   <trkpt lat="-19.651880000000002" lon="-43.84814">
    <ele>721.92</ele>
   </trkpt>
   <trkpt lat="-19.65108" lon="-43.84832">
    <ele>727.8100000000001</ele>
   </trkpt>
   <trkpt lat="-19.65095" lon="-43.84836000000001">
    <ele>728.6700000000001</ele>
   </trkpt>
   <trkpt lat="-19.65087" lon="-43.84841">
    <ele>728.5100000000001</ele>
   </trkpt>
   <trkpt lat="-19.65078" lon="-43.848400000000005">
    <ele>729.1</ele>
   </trkpt>
   <trkpt lat="-19.650730000000003" lon="-43.84819">
    <ele>735.07</ele>
   </trkpt>
   <trkpt lat="-19.65061" lon="-43.84801">
    <ele>743.2700000000001</ele>
   </trkpt>
   <trkpt lat="-19.650550000000003" lon="-43.847770000000004">
    <ele>750.0300000000001</ele>
   </trkpt>
   <trkpt lat="-19.650270000000003" lon="-43.84725">
    <ele>762.39</ele>
   </trkpt>
   <trkpt lat="-19.650270000000003" lon="-43.84714">
    <ele>764.0</ele>
   </trkpt>
   <trkpt lat="-19.650250000000003" lon="-43.84704000000001">
    <ele>764.97</ele>
   </trkpt>
   <trkpt lat="-19.650170000000003" lon="-43.846830000000004">
    <ele>768.57</ele>
   </trkpt>
   <trkpt lat="-19.64994" lon="-43.846410000000006">
    <ele>770.51</ele>
   </trkpt>
   <trkpt lat="-19.64987" lon="-43.846320000000006">
    <ele>770.73</ele>
   </trkpt>
   <trkpt lat="-19.64976" lon="-43.846430000000005">
    <ele>771.26</ele>
   </trkpt>
   <trkpt lat="-19.64926" lon="-43.84709">
    <ele>763.8600000000001</ele>
   </trkpt>
   <trkpt lat="-19.64909" lon="-43.84727">
    <ele>760.6800000000001</ele>
   </trkpt>
   <trkpt lat="-19.64891" lon="-43.847550000000005">
    <ele>759.9800000000001</ele>
   </trkpt>
   <trkpt lat="-19.64908" lon="-43.84732">
    <ele>760.56</ele>
   </trkpt>
   <trkpt lat="-19.648760000000003" lon="-43.8477">
    <ele>760.35</ele>
   </trkpt>
   <trkpt lat="-19.64845500041268" lon="-43.848095000774684">
    <ele>764.1000000000001</ele>
   </trkpt>
   <trkpt lat="-19.64815" lon="-43.848490000000005">
    <ele>770.75</ele>
   </trkpt>
   <trkpt lat="-19.64808" lon="-43.84857">
    <ele>774.9100000000001</ele>
   </trkpt>
   <trkpt lat="-19.648000000000003" lon="-43.848780000000005">
    <ele>778.61</ele>
   </trkpt>
   <trkpt lat="-19.647930000000002" lon="-43.848870000000005">
    <ele>779.75</ele>
   </trkpt>
   <trkpt lat="-19.64786" lon="-43.84897">
    <ele>781.9800000000001</ele>
   </trkpt>
   <trkpt lat="-19.64777" lon="-43.84904">
    <ele>783.15</ele>
   </trkpt>
   <trkpt lat="-19.647650000000002" lon="-43.84921000000001">
    <ele>785.19</ele>
   </trkpt>
   <trkpt lat="-19.647560000000002" lon="-43.84926">
    <ele>790.0500000000001</ele>
   </trkpt>
   <trkpt lat="-19.64739" lon="-43.849410000000006">
    <ele>795.5600000000001</ele>
   </trkpt>
   <trkpt lat="-19.647250000000003" lon="-43.8496">
    <ele>799.3100000000001</ele>
   </trkpt>
   <trkpt lat="-19.64714" lon="-43.84958">
    <ele>800.34</ele>
   </trkpt>
   <trkpt lat="-19.646970000000003" lon="-43.849470000000004">
    <ele>802.6</ele>
   </trkpt>
   <trkpt lat="-19.64687" lon="-43.84946">
    <ele>803.95</ele>
   </trkpt>
   <trkpt lat="-19.646780000000003" lon="-43.849410000000006">
    <ele>805.4000000000001</ele>
   </trkpt>
   <trkpt lat="-19.646520000000002" lon="-43.84915">
    <ele>813.85</ele>
   </trkpt>
   <trkpt lat="-19.646330000000003" lon="-43.84883000000001">
    <ele>820.22</ele>
   </trkpt>
   <trkpt lat="-19.6462" lon="-43.84866">
    <ele>824.76</ele>
   </trkpt>
   <trkpt lat="-19.646030000000003" lon="-43.848510000000005">
    <ele>827.6800000000001</ele>
   </trkpt>
   <trkpt lat="-19.645770000000002" lon="-43.84835">
    <ele>833.1200000000001</ele>
   </trkpt>
   <trkpt lat="-19.64545" lon="-43.848110000000005">
    <ele>844.94</ele>
   </trkpt>
   <trkpt lat="-19.64523" lon="-43.84803">
    <ele>849.4100000000001</ele>
   </trkpt>
   <trkpt lat="-19.644730000000003" lon="-43.84779">
    <ele>863.6</ele>
   </trkpt>
   <trkpt lat="-19.64423" lon="-43.84774">
    <ele>870.0300000000001</ele>
   </trkpt>
   <trkpt lat="-19.64413" lon="-43.847750000000005">
    <ele>870.4200000000001</ele>
   </trkpt>
   <trkpt lat="-19.64395" lon="-43.84767">
    <ele>874.95</ele>
   </trkpt>
   <trkpt lat="-19.64375" lon="-43.84763">
    <ele>880.0100000000001</ele>
   </trkpt>
   <trkpt lat="-19.64347" lon="-43.84751000000001">
    <ele>886.5</ele>
   </trkpt>
   <trkpt lat="-19.64327" lon="-43.84742000000001">
    <ele>891.8300000000002</ele>
   </trkpt>
   <trkpt lat="-19.64274" lon="-43.84702">
    <ele>912.07</ele>
   </trkpt>
   <trkpt lat="-19.642650000000003" lon="-43.847">
    <ele>915.1700000000001</ele>
   </trkpt>
   <trkpt lat="-19.642560000000003" lon="-43.847010000000004">
    <ele>919.87</ele>
   </trkpt>
   <trkpt lat="-19.642380000000003" lon="-43.84693">
    <ele>924.24</ele>
   </trkpt>
   <trkpt lat="-19.64225" lon="-43.84676">
    <ele>923.34</ele>
   </trkpt>
   <trkpt lat="-19.64235" lon="-43.84687">
    <ele>922.6</ele>
   </trkpt>
   <trkpt lat="-19.64233" lon="-43.84705">
    <ele>927.0100000000001</ele>
   </trkpt>
   <trkpt lat="-19.64227" lon="-43.84713000000001">
    <ele>929.1400000000001</ele>
   </trkpt>
   <trkpt lat="-19.64224" lon="-43.847260000000006">
    <ele>928.4100000000001</ele>
   </trkpt>
   <trkpt lat="-19.64214" lon="-43.847460000000005">
    <ele>929.0</ele>
   </trkpt>
   <trkpt lat="-19.64198" lon="-43.847590000000004">
    <ele>932.6200000000001</ele>
   </trkpt>
   <trkpt lat="-19.64179" lon="-43.84769">
    <ele>935.64</ele>
   </trkpt>
   <trkpt lat="-19.64157" lon="-43.847750000000005">
    <ele>942.73</ele>
   </trkpt>
   <trkpt lat="-19.6414" lon="-43.847860000000004">
    <ele>945.9200000000001</ele>
   </trkpt>
   <trkpt lat="-19.641270000000002" lon="-43.84792">
    <ele>947.49</ele>
   </trkpt>
   <trkpt lat="-19.64113" lon="-43.84801">
    <ele>948.13</ele>
   </trkpt>
   <trkpt lat="-19.64105" lon="-43.8481">
    <ele>948.22</ele>
   </trkpt>
   <trkpt lat="-19.640870000000003" lon="-43.848220000000005">
    <ele>951.3900000000001</ele>
   </trkpt>
   <trkpt lat="-19.64077" lon="-43.84834">
    <ele>951.58</ele>
   </trkpt>
   <trkpt lat="-19.640610000000002" lon="-43.848470000000006">
    <ele>949.5600000000001</ele>
   </trkpt>
   <trkpt lat="-19.64055" lon="-43.84859">
    <ele>945.3800000000001</ele>
   </trkpt>
   <trkpt lat="-19.640530000000002" lon="-43.84873">
    <ele>939.5700000000002</ele>
   </trkpt>
   <trkpt lat="-19.64018" lon="-43.84910000000001">
    <ele>942.8400000000001</ele>
   </trkpt>
   <trkpt lat="-19.639950000000002" lon="-43.849180000000004">
    <ele>948.9200000000001</ele>
   </trkpt>
   <trkpt lat="-19.639460000000003" lon="-43.84930000000001">
    <ele>949.0100000000001</ele>
   </trkpt>
   <trkpt lat="-19.63906" lon="-43.849450000000004">
    <ele>943.7500000000001</ele>
   </trkpt>
   <trkpt lat="-19.63888" lon="-43.849470000000004">
    <ele>943.88</ele>
   </trkpt>
   <trkpt lat="-19.638710000000003" lon="-43.84946">
    <ele>944.46</ele>
   </trkpt>
   <trkpt lat="-19.638450000000002" lon="-43.849520000000005">
    <ele>942.27</ele>
   </trkpt>
   <trkpt lat="-19.638180000000002" lon="-43.84976">
    <ele>934.7700000000001</ele>
   </trkpt>
   <trkpt lat="-19.637990000000002" lon="-43.84989">
    <ele>927.46</ele>
   </trkpt>
   <trkpt lat="-19.63792" lon="-43.84996">
    <ele>924.7700000000001</ele>
   </trkpt>
   <trkpt lat="-19.63764" lon="-43.850170000000006">
    <ele>916.02</ele>
   </trkpt>
   <trkpt lat="-19.637420000000002" lon="-43.85024000000001">
    <ele>914.5900000000001</ele>
   </trkpt>
   <trkpt lat="-19.63729" lon="-43.85031">
    <ele>913.63</ele>
   </trkpt>
   <trkpt lat="-19.63719" lon="-43.85032">
    <ele>913.0400000000001</ele>
   </trkpt>
   <trkpt lat="-19.63706" lon="-43.850120000000004">
    <ele>907.94</ele>
   </trkpt>
   <trkpt lat="-19.636960000000002" lon="-43.85005">
    <ele>904.5300000000001</ele>
   </trkpt>
   <trkpt lat="-19.636850000000003" lon="-43.84982">
    <ele>896.4000000000001</ele>
   </trkpt>
   <trkpt lat="-19.63716000036475" lon="-43.84945500070846">
    <ele>888.9800000000001</ele>
   </trkpt>
   <trkpt lat="-19.63747" lon="-43.849090000000004">
    <ele>889.34</ele>
   </trkpt>
   <trkpt lat="-19.637320000000003" lon="-43.84859">
    <ele>894.99</ele>
   </trkpt>
   <trkpt lat="-19.637330000000002" lon="-43.84821">
    <ele>900.0300000000001</ele>
   </trkpt>
   <trkpt lat="-19.63744" lon="-43.84772">
    <ele>903.8800000000001</ele>
   </trkpt>
   <trkpt lat="-19.63739" lon="-43.84752">
    <ele>905.7400000000001</ele>
   </trkpt>
   <trkpt lat="-19.63727" lon="-43.84729">
    <ele>908.8000000000001</ele>
   </trkpt>
   <trkpt lat="-19.63727" lon="-43.84716">
    <ele>909.73</ele>
   </trkpt>
   <trkpt lat="-19.637330000000002" lon="-43.84711">
    <ele>910.87</ele>
   </trkpt>
   <trkpt lat="-19.637340000000002" lon="-43.847100000000005">
    <ele>910.87</ele>
   </trkpt>
   <trkpt lat="-19.63746" lon="-43.84711">
    <ele>912.3100000000001</ele>
   </trkpt>
   <trkpt lat="-19.637610000000002" lon="-43.84727">
    <ele>913.95</ele>
   </trkpt>
   <trkpt lat="-19.63791" lon="-43.8477">
    <ele>919.5300000000001</ele>
   </trkpt>
   <trkpt lat="-19.638080000000002" lon="-43.847860000000004">
    <ele>923.4100000000001</ele>
   </trkpt>
   <trkpt lat="-19.638740000000002" lon="-43.8481">
    <ele>931.8000000000001</ele>
   </trkpt>
   <trkpt lat="-19.63905" lon="-43.84808">
    <ele>934.6200000000001</ele>
   </trkpt>
   <trkpt lat="-19.639390000000002" lon="-43.84796">
    <ele>936.7400000000001</ele>
   </trkpt>
   <trkpt lat="-19.6398" lon="-43.84785">
    <ele>939.64</ele>
   </trkpt>
   <trkpt lat="-19.64007" lon="-43.847640000000006">
    <ele>940.6200000000001</ele>
   </trkpt>
   <trkpt lat="-19.64027" lon="-43.847570000000005">
    <ele>942.5000000000001</ele>
   </trkpt>
   <trkpt lat="-19.640430000000002" lon="-43.84763">
    <ele>945.69</ele>
   </trkpt>
   <trkpt lat="-19.640510000000003" lon="-43.84774">
    <ele>946.86</ele>
   </trkpt>
   <trkpt lat="-19.640610000000002" lon="-43.84799">
    <ele>949.27</ele>
   </trkpt>
   <trkpt lat="-19.64074" lon="-43.848150000000004">
    <ele>950.0600000000001</ele>
   </trkpt>
   <trkpt lat="-19.64082" lon="-43.84832">
    <ele>950.7</ele>
   </trkpt>
   <trkpt lat="-19.64055" lon="-43.84855">
    <ele>951.5400000000001</ele>
   </trkpt>
   <trkpt lat="-19.64054" lon="-43.8487">
    <ele>951.88</ele>
   </trkpt>
   <trkpt lat="-19.6403" lon="-43.849070000000005">
    <ele>952.4</ele>
   </trkpt>
   <trkpt lat="-19.64054" lon="-43.8487">
    <ele>951.5400000000001</ele>
   </trkpt>
   <trkpt lat="-19.64055" lon="-43.84855">
    <ele>951.34</ele>
   </trkpt>
   <trkpt lat="-19.64082" lon="-43.84832">
    <ele>950.3900000000001</ele>
   </trkpt>
   <trkpt lat="-19.640790000000003" lon="-43.84825">
    <ele>950.3900000000001</ele>
   </trkpt>
   <trkpt lat="-19.640900000000002" lon="-43.848220000000005">
    <ele>950.7700000000001</ele>
   </trkpt>
   <trkpt lat="-19.64102" lon="-43.84814">
    <ele>948.13</ele>
   </trkpt>
   <trkpt lat="-19.64114" lon="-43.848000000000006">
    <ele>948.1400000000001</ele>
   </trkpt>
   <trkpt lat="-19.641350000000003" lon="-43.84785">
    <ele>947.3800000000001</ele>
   </trkpt>
   <trkpt lat="-19.64157" lon="-43.847750000000005">
    <ele>942.73</ele>
   </trkpt>
   <trkpt lat="-19.641740000000002" lon="-43.84758">
    <ele>938.6600000000001</ele>
   </trkpt>
   <trkpt lat="-19.64178" lon="-43.84745">
    <ele>938.0</ele>
   </trkpt>
   <trkpt lat="-19.64158" lon="-43.8472">
    <ele>932.7800000000001</ele>
   </trkpt>
   <trkpt lat="-19.641840000000002" lon="-43.84698">
    <ele>927.57</ele>
   </trkpt>
   <trkpt lat="-19.64196" lon="-43.84682">
    <ele>926.2900000000001</ele>
   </trkpt>
   <trkpt lat="-19.64199" lon="-43.84655">
    <ele>924.3100000000001</ele>
   </trkpt>
   <trkpt lat="-19.64215" lon="-43.84597">
    <ele>919.8600000000001</ele>
   </trkpt>
   <trkpt lat="-19.64207" lon="-43.84546">
    <ele>922.54</ele>
   </trkpt>
   <trkpt lat="-19.64187" lon="-43.84514">
    <ele>923.1300000000001</ele>
   </trkpt>
   <trkpt lat="-19.64152" lon="-43.84481">
    <ele>923.69</ele>
   </trkpt>
   <trkpt lat="-19.64142" lon="-43.84458">
    <ele>924.09</ele>
   </trkpt>
   <trkpt lat="-19.64139500115272" lon="-43.84393499998708">
    <ele>924.82</ele>
   </trkpt>
   <trkpt lat="-19.641370000000002" lon="-43.84329">
    <ele>918.5500000000001</ele>
   </trkpt>
   <trkpt lat="-19.64142" lon="-43.84281">
    <ele>911.5900000000001</ele>
   </trkpt>
   <trkpt lat="-19.641430000000003" lon="-43.842650000000006">
    <ele>910.2800000000001</ele>
   </trkpt>
   <trkpt lat="-19.6414" lon="-43.8423">
    <ele>905.08</ele>
   </trkpt>
   <trkpt lat="-19.641090000000002" lon="-43.8415">
    <ele>898.5600000000001</ele>
   </trkpt>
   <trkpt lat="-19.640980000000003" lon="-43.840900000000005">
    <ele>898.58</ele>
   </trkpt>
   <trkpt lat="-19.64067" lon="-43.84035">
    <ele>896.0100000000001</ele>
   </trkpt>
   <trkpt lat="-19.640620000000002" lon="-43.84015">
    <ele>894.8600000000001</ele>
   </trkpt>
   <trkpt lat="-19.64037" lon="-43.839620000000004">
    <ele>890.6500000000001</ele>
   </trkpt>
   <trkpt lat="-19.64008" lon="-43.83937">
    <ele>886.9800000000001</ele>
   </trkpt>
   <trkpt lat="-19.6398" lon="-43.83908">
    <ele>886.4200000000001</ele>
   </trkpt>
   <trkpt lat="-19.63961" lon="-43.83852">
    <ele>891.48</ele>
   </trkpt>
   <trkpt lat="-19.63945" lon="-43.83827">
    <ele>892.82</ele>
   </trkpt>
   <trkpt lat="-19.639290000000003" lon="-43.83816">
    <ele>892.96</ele>
   </trkpt>
   <trkpt lat="-19.63898" lon="-43.837630000000004">
    <ele>897.7100000000002</ele>
   </trkpt>
   <trkpt lat="-19.63861" lon="-43.837070000000004">
    <ele>899.38</ele>
   </trkpt>
   <trkpt lat="-19.6382" lon="-43.83648">
    <ele>898.0100000000001</ele>
   </trkpt>
   <trkpt lat="-19.637875000382113" lon="-43.83608999916499">
    <ele>895.99</ele>
   </trkpt>
   <trkpt lat="-19.63755" lon="-43.8357">
    <ele>893.2</ele>
   </trkpt>
   <trkpt lat="-19.63728" lon="-43.835300000000004">
    <ele>891.0000000000001</ele>
   </trkpt>
   <trkpt lat="-19.637180000638725" lon="-43.8348249997779">
    <ele>886.8800000000001</ele>
   </trkpt>
   <trkpt lat="-19.63708" lon="-43.83435">
    <ele>882.4200000000001</ele>
   </trkpt>
   <trkpt lat="-19.6368700034532" lon="-43.83355999795462">
    <ele>871.95</ele>
   </trkpt>
   <trkpt lat="-19.636660003458736" lon="-43.83276999797552">
    <ele>861.33</ele>
   </trkpt>
   <trkpt lat="-19.63645" lon="-43.83198">
    <ele>852.5300000000001</ele>
   </trkpt>
   <trkpt lat="-19.636250001046694" lon="-43.831354999120904">
    <ele>845.49</ele>
   </trkpt>
   <trkpt lat="-19.63605" lon="-43.83073">
    <ele>841.38</ele>
   </trkpt>
   <trkpt lat="-19.63567" lon="-43.82988">
    <ele>834.07</ele>
   </trkpt>
   <trkpt lat="-19.63537" lon="-43.82947">
    <ele>829.57</ele>
   </trkpt>
   <trkpt lat="-19.635070002152695" lon="-43.82884666435127">
    <ele>829.7700000000001</ele>
   </trkpt>
   <trkpt lat="-19.63477000215915" lon="-43.828223331031396">
    <ele>828.69</ele>
   </trkpt>
   <trkpt lat="-19.63447" lon="-43.827600000000004">
    <ele>827.1800000000001</ele>
   </trkpt>
   <trkpt lat="-19.634195001012355" lon="-43.82699499896727">
    <ele>825.5100000000001</ele>
   </trkpt>
   <trkpt lat="-19.633920000000003" lon="-43.82639">
    <ele>822.82</ele>
   </trkpt>
   <trkpt lat="-19.63361" lon="-43.82596">
    <ele>817.7700000000001</ele>
   </trkpt>
   <trkpt lat="-19.63333" lon="-43.825610000000005">
    <ele>814.6600000000001</ele>
   </trkpt>
   <trkpt lat="-19.633185000663207" lon="-43.82511499950713">
    <ele>808.8100000000001</ele>
   </trkpt>
   <trkpt lat="-19.63304" lon="-43.82462">
    <ele>800.98</ele>
   </trkpt>
   <trkpt lat="-19.632900000800646" lon="-43.82406999938407">
    <ele>795.4000000000001</ele>
   </trkpt>
   <trkpt lat="-19.63276" lon="-43.82352">
    <ele>788.71</ele>
   </trkpt>
   <trkpt lat="-19.632730000000002" lon="-43.8228">
    <ele>780.34</ele>
   </trkpt>
   <trkpt lat="-19.63258" lon="-43.82186">
    <ele>768.07</ele>
   </trkpt>
   <trkpt lat="-19.6324" lon="-43.82155">
    <ele>764.0600000000001</ele>
   </trkpt>
   <trkpt lat="-19.632080000000002" lon="-43.82115">
    <ele>758.0400000000001</ele>
   </trkpt>
   <trkpt lat="-19.631700000000002" lon="-43.82054">
    <ele>753.21</ele>
   </trkpt>
   <trkpt lat="-19.631510000000002" lon="-43.82016">
    <ele>749.9100000000001</ele>
   </trkpt>
   <trkpt lat="-19.63136" lon="-43.819810000000004">
    <ele>748.8100000000001</ele>
   </trkpt>
   <trkpt lat="-19.63126" lon="-43.81909">
    <ele>744.2500000000001</ele>
   </trkpt>
   <trkpt lat="-19.63108" lon="-43.818780000000004">
    <ele>742.8100000000001</ele>
   </trkpt>
   <trkpt lat="-19.63108" lon="-43.81877">
    <ele>742.8100000000001</ele>
   </trkpt>
   <trkpt lat="-19.6307" lon="-43.81857">
    <ele>739.6600000000001</ele>
   </trkpt>
   <trkpt lat="-19.63041" lon="-43.81859">
    <ele>735.47</ele>
   </trkpt>
   <trkpt lat="-19.630200000000002" lon="-43.81871">
    <ele>733.2700000000001</ele>
   </trkpt>
   <trkpt lat="-19.62997" lon="-43.819050000000004">
    <ele>731.4200000000001</ele>
   </trkpt>
   <trkpt lat="-19.62976" lon="-43.81958">
    <ele>727.5100000000001</ele>
   </trkpt>
   <trkpt lat="-19.62958" lon="-43.81978">
    <ele>723.1</ele>
   </trkpt>
   <trkpt lat="-19.62948" lon="-43.81991">
    <ele>719.1</ele>
   </trkpt>
   <trkpt lat="-19.6291" lon="-43.819990000000004">
    <ele>714.2400000000001</ele>
   </trkpt>
   <trkpt lat="-19.62882" lon="-43.81987">
    <ele>710.79</ele>
   </trkpt>
   <trkpt lat="-19.628500000000003" lon="-43.81947">
    <ele>703.9399999999999</ele>
   </trkpt>
   <trkpt lat="-19.6279" lon="-43.81898">
    <ele>690.67</ele>
   </trkpt>
   <trkpt lat="-19.627419999946568" lon="-43.818789999371745">
    <ele>684.9200000000001</ele>
   </trkpt>
   <trkpt lat="-19.62694" lon="-43.8186">
    <ele>679.6700000000001</ele>
   </trkpt>
   <trkpt lat="-19.626730000000002" lon="-43.81846">
    <ele>675.3800000000001</ele>
   </trkpt>
   <trkpt lat="-19.62665" lon="-43.818200000000004">
    <ele>672.9300000000001</ele>
   </trkpt>
   <trkpt lat="-19.626640000000002" lon="-43.81817">
    <ele>672.9300000000001</ele>
   </trkpt>
   <trkpt lat="-19.626260000000002" lon="-43.81821">
    <ele>667.5600000000001</ele>
   </trkpt>
   <trkpt lat="-19.626060000000003" lon="-43.818250000000006">
    <ele>666.57</ele>
   </trkpt>
   <trkpt lat="-19.625980000000002" lon="-43.818290000000005">
    <ele>665.2900000000001</ele>
   </trkpt>
   <trkpt lat="-19.625680000000003" lon="-43.818310000000004">
    <ele>661.7700000000001</ele>
   </trkpt>
   <trkpt lat="-19.62561" lon="-43.818250000000006">
    <ele>661.1400000000001</ele>
   </trkpt>
   <trkpt lat="-19.62565" lon="-43.81805000000001">
    <ele>662.45</ele>
   </trkpt>
   <trkpt lat="-19.62562" lon="-43.818200000000004">
    <ele>661.2300000000001</ele>
   </trkpt>
   <trkpt lat="-19.62563" lon="-43.818310000000004">
    <ele>661.45</ele>
   </trkpt>
   <trkpt lat="-19.62594" lon="-43.818290000000005">
    <ele>664.83</ele>
   </trkpt>
   <trkpt lat="-19.626070000000002" lon="-43.81824">
    <ele>666.5000000000001</ele>
   </trkpt>
   <trkpt lat="-19.62629" lon="-43.818220000000004">
    <ele>667.83</ele>
   </trkpt>
   <trkpt lat="-19.62639" lon="-43.81824">
    <ele>668.66</ele>
   </trkpt>
   <trkpt lat="-19.626540000000002" lon="-43.818360000000006">
    <ele>671.83</ele>
   </trkpt>
   <trkpt lat="-19.62667" lon="-43.818310000000004">
    <ele>672.42</ele>
   </trkpt>
   <trkpt lat="-19.626730000000002" lon="-43.81846">
    <ele>675.3800000000001</ele>
   </trkpt>
   <trkpt lat="-19.62694" lon="-43.8186">
    <ele>679.6700000000001</ele>
   </trkpt>
   <trkpt lat="-19.627420000252773" lon="-43.81878999949296">
    <ele>688.8700000000001</ele>
   </trkpt>
   <trkpt lat="-19.6279" lon="-43.81898">
    <ele>690.67</ele>
   </trkpt>
   <trkpt lat="-19.628500000000003" lon="-43.81947">
    <ele>703.9399999999999</ele>
   </trkpt>
   <trkpt lat="-19.62882" lon="-43.81987">
    <ele>710.79</ele>
   </trkpt>
   <trkpt lat="-19.6291" lon="-43.819990000000004">
    <ele>714.2400000000001</ele>
   </trkpt>
   <trkpt lat="-19.62948" lon="-43.81991">
    <ele>719.1</ele>
   </trkpt>
   <trkpt lat="-19.62958" lon="-43.81978">
    <ele>723.1</ele>
   </trkpt>
   <trkpt lat="-19.62976" lon="-43.81958">
    <ele>727.5100000000001</ele>
   </trkpt>
   <trkpt lat="-19.62997" lon="-43.819050000000004">
    <ele>731.4200000000001</ele>
   </trkpt>
   <trkpt lat="-19.630200000000002" lon="-43.81871">
    <ele>733.2700000000001</ele>
   </trkpt>
   <trkpt lat="-19.63041" lon="-43.81859">
    <ele>735.47</ele>
   </trkpt>
   <trkpt lat="-19.6307" lon="-43.81857">
    <ele>739.6600000000001</ele>
   </trkpt>
   <trkpt lat="-19.63107" lon="-43.818760000000005">
    <ele>742.32</ele>
   </trkpt>
   <trkpt lat="-19.63126" lon="-43.81908000000001">
    <ele>744.5600000000001</ele>
   </trkpt>
   <trkpt lat="-19.63126" lon="-43.81909">
    <ele>744.5600000000001</ele>
   </trkpt>
   <trkpt lat="-19.63136" lon="-43.819810000000004">
    <ele>748.8100000000001</ele>
   </trkpt>
   <trkpt lat="-19.631510000000002" lon="-43.82016">
    <ele>749.9100000000001</ele>
   </trkpt>
   <trkpt lat="-19.631700000000002" lon="-43.82054">
    <ele>753.21</ele>
   </trkpt>
   <trkpt lat="-19.632080000000002" lon="-43.82115">
    <ele>758.0400000000001</ele>
   </trkpt>
   <trkpt lat="-19.6324" lon="-43.82155">
    <ele>764.0600000000001</ele>
   </trkpt>
   <trkpt lat="-19.63258" lon="-43.82186">
    <ele>768.07</ele>
   </trkpt>
   <trkpt lat="-19.632730000000002" lon="-43.8228">
    <ele>780.34</ele>
   </trkpt>
   <trkpt lat="-19.63276" lon="-43.82352">
    <ele>788.71</ele>
   </trkpt>
   <trkpt lat="-19.632900000870148" lon="-43.82406999965712">
    <ele>796.36</ele>
   </trkpt>
   <trkpt lat="-19.63304" lon="-43.82462">
    <ele>802.0100000000001</ele>
   </trkpt>
   <trkpt lat="-19.633185000690148" lon="-43.8251149995991">
    <ele>808.8100000000001</ele>
   </trkpt>
   <trkpt lat="-19.63333" lon="-43.825610000000005">
    <ele>814.6600000000001</ele>
   </trkpt>
   <trkpt lat="-19.63361" lon="-43.82596">
    <ele>817.7700000000001</ele>
   </trkpt>
   <trkpt lat="-19.633920000000003" lon="-43.82639">
    <ele>822.82</ele>
   </trkpt>
   <trkpt lat="-19.63419500100942" lon="-43.826994998960835">
    <ele>825.5100000000001</ele>
   </trkpt>
   <trkpt lat="-19.63447" lon="-43.827600000000004">
    <ele>827.1800000000001</ele>
   </trkpt>
   <trkpt lat="-19.63477000213974" lon="-43.82822333099107">
    <ele>828.69</ele>
   </trkpt>
   <trkpt lat="-19.63507000213329" lon="-43.82884666431095">
    <ele>829.67</ele>
   </trkpt>
   <trkpt lat="-19.63537" lon="-43.82947">
    <ele>829.57</ele>
   </trkpt>
   <trkpt lat="-19.63567" lon="-43.82988">
    <ele>834.07</ele>
   </trkpt>
   <trkpt lat="-19.63605" lon="-43.83073">
    <ele>841.38</ele>
   </trkpt>
   <trkpt lat="-19.636250001111133" lon="-43.83135499932228">
    <ele>847.3000000000001</ele>
   </trkpt>
   <trkpt lat="-19.63645" lon="-43.83198">
    <ele>852.5300000000001</ele>
   </trkpt>
   <trkpt lat="-19.636660003442074" lon="-43.83276999791284">
    <ele>861.33</ele>
   </trkpt>
   <trkpt lat="-19.636870003436535" lon="-43.833559997891946">
    <ele>871.95</ele>
   </trkpt>
   <trkpt lat="-19.63708" lon="-43.83435">
    <ele>882.4200000000001</ele>
   </trkpt>
   <trkpt lat="-19.63718000060769" lon="-43.83482499963049">
    <ele>886.8800000000001</ele>
   </trkpt>
   <trkpt lat="-19.63728" lon="-43.835300000000004">
    <ele>891.0000000000001</ele>
   </trkpt>
   <trkpt lat="-19.63755" lon="-43.8357">
    <ele>893.2</ele>
   </trkpt>
   <trkpt lat="-19.637875000458155" lon="-43.83608999925625">
    <ele>895.99</ele>
   </trkpt>
   <trkpt lat="-19.6382" lon="-43.83648">
    <ele>898.0100000000001</ele>
   </trkpt>
   <trkpt lat="-19.63861" lon="-43.837070000000004">
    <ele>899.38</ele>
   </trkpt>
   <trkpt lat="-19.63898" lon="-43.837630000000004">
    <ele>897.7100000000002</ele>
   </trkpt>
   <trkpt lat="-19.639290000000003" lon="-43.83816">
    <ele>892.96</ele>
   </trkpt>
   <trkpt lat="-19.63945" lon="-43.83827">
    <ele>892.82</ele>
   </trkpt>
   <trkpt lat="-19.63961" lon="-43.83852">
    <ele>891.48</ele>
   </trkpt>
   <trkpt lat="-19.6398" lon="-43.83908">
    <ele>886.4200000000001</ele>
   </trkpt>
   <trkpt lat="-19.64008" lon="-43.83937">
    <ele>886.9800000000001</ele>
   </trkpt>
   <trkpt lat="-19.64037" lon="-43.839620000000004">
    <ele>890.6500000000001</ele>
   </trkpt>
   <trkpt lat="-19.640620000000002" lon="-43.84015">
    <ele>894.8600000000001</ele>
   </trkpt>
   <trkpt lat="-19.64067" lon="-43.84035">
    <ele>896.0100000000001</ele>
   </trkpt>
   <trkpt lat="-19.640980000000003" lon="-43.84089">
    <ele>898.57</ele>
   </trkpt>
   <trkpt lat="-19.641090000000002" lon="-43.8415">
    <ele>898.6500000000001</ele>
   </trkpt>
   <trkpt lat="-19.6414" lon="-43.8423">
    <ele>905.08</ele>
   </trkpt>
   <trkpt lat="-19.641430000000003" lon="-43.842650000000006">
    <ele>910.2800000000001</ele>
   </trkpt>
   <trkpt lat="-19.641650000538306" lon="-43.843069999521745">
    <ele>920.3000000000001</ele>
   </trkpt>
   <trkpt lat="-19.64187" lon="-43.84349">
    <ele>928.32</ele>
   </trkpt>
   <trkpt lat="-19.64224" lon="-43.84407">
    <ele>933.6500000000001</ele>
   </trkpt>
   <trkpt lat="-19.64198" lon="-43.84456">
    <ele>932.7800000000001</ele>
   </trkpt>
   <trkpt lat="-19.64207" lon="-43.84546">
    <ele>922.54</ele>
   </trkpt>
   <trkpt lat="-19.64215" lon="-43.84597">
    <ele>919.7400000000001</ele>
   </trkpt>
   <trkpt lat="-19.64199" lon="-43.84655">
    <ele>925.19</ele>
   </trkpt>
   <trkpt lat="-19.64198" lon="-43.84673">
    <ele>925.85</ele>
   </trkpt>
   <trkpt lat="-19.642300000000002" lon="-43.84676">
    <ele>922.66</ele>
   </trkpt>
   <trkpt lat="-19.64234" lon="-43.84686000000001">
    <ele>923.54</ele>
   </trkpt>
   <trkpt lat="-19.64241" lon="-43.846940000000004">
    <ele>923.2600000000001</ele>
   </trkpt>
   <trkpt lat="-19.64253" lon="-43.847">
    <ele>921.51</ele>
   </trkpt>
   <trkpt lat="-19.64262" lon="-43.84707">
    <ele>917.71</ele>
   </trkpt>
   <trkpt lat="-19.64273" lon="-43.84711">
    <ele>913.3800000000001</ele>
   </trkpt>
   <trkpt lat="-19.64282" lon="-43.84716">
    <ele>910.3200000000002</ele>
   </trkpt>
   <trkpt lat="-19.64318" lon="-43.8474">
    <ele>895.29</ele>
   </trkpt>
   <trkpt lat="-19.64339" lon="-43.84751000000001">
    <ele>885.7700000000001</ele>
   </trkpt>
   <trkpt lat="-19.64349" lon="-43.84752">
    <ele>885.7700000000001</ele>
   </trkpt>
   <trkpt lat="-19.643710000000002" lon="-43.847620000000006">
    <ele>881.29</ele>
   </trkpt>
   <trkpt lat="-19.64395" lon="-43.847680000000004">
    <ele>874.95</ele>
   </trkpt>
   <trkpt lat="-19.64412" lon="-43.84778">
    <ele>870.2200000000001</ele>
   </trkpt>
   <trkpt lat="-19.64433" lon="-43.84781">
    <ele>868.7800000000001</ele>
   </trkpt>
   <trkpt lat="-19.64443" lon="-43.84779">
    <ele>868.0000000000001</ele>
   </trkpt>
   <trkpt lat="-19.6447" lon="-43.847770000000004">
    <ele>863.6</ele>
   </trkpt>
   <trkpt lat="-19.64479" lon="-43.84780000000001">
    <ele>861.3900000000001</ele>
   </trkpt>
   <trkpt lat="-19.64506" lon="-43.847950000000004">
    <ele>853.71</ele>
   </trkpt>
   <trkpt lat="-19.64544" lon="-43.848090000000006">
    <ele>842.0500000000001</ele>
   </trkpt>
   <trkpt lat="-19.64562" lon="-43.84821">
    <ele>836.67</ele>
   </trkpt>
   <trkpt lat="-19.64581" lon="-43.84837">
    <ele>832.8700000000001</ele>
   </trkpt>
   <trkpt lat="-19.64609" lon="-43.84855">
    <ele>826.91</ele>
   </trkpt>
   <trkpt lat="-19.64628" lon="-43.848690000000005">
    <ele>822.85</ele>
   </trkpt>
   <trkpt lat="-19.64635" lon="-43.84879">
    <ele>819.96</ele>
   </trkpt>
   <trkpt lat="-19.64637" lon="-43.848890000000004">
    <ele>818.4200000000001</ele>
   </trkpt>
   <trkpt lat="-19.64655" lon="-43.849180000000004">
    <ele>813.85</ele>
   </trkpt>
   <trkpt lat="-19.646620000000002" lon="-43.849270000000004">
    <ele>810.6300000000001</ele>
   </trkpt>
   <trkpt lat="-19.64686" lon="-43.84946">
    <ele>803.95</ele>
   </trkpt>
   <trkpt lat="-19.647000000000002" lon="-43.84948000000001">
    <ele>800.6200000000001</ele>
   </trkpt>
   <trkpt lat="-19.647100000000002" lon="-43.84953">
    <ele>800.6200000000001</ele>
   </trkpt>
   <trkpt lat="-19.64721" lon="-43.84966">
    <ele>799.94</ele>
   </trkpt>
   <trkpt lat="-19.64724" lon="-43.84998">
    <ele>800.08</ele>
   </trkpt>
   <trkpt lat="-19.64729" lon="-43.850060000000006">
    <ele>799.9600000000002</ele>
   </trkpt>
   <trkpt lat="-19.64752" lon="-43.850190000000005">
    <ele>800.72</ele>
   </trkpt>
   <trkpt lat="-19.647740000000002" lon="-43.850390000000004">
    <ele>796.75</ele>
   </trkpt>
   <trkpt lat="-19.647840000000002" lon="-43.85052">
    <ele>793.86</ele>
   </trkpt>
   <trkpt lat="-19.64798" lon="-43.85063">
    <ele>788.58</ele>
   </trkpt>
   <trkpt lat="-19.64808" lon="-43.85069">
    <ele>787.0</ele>
   </trkpt>
   <trkpt lat="-19.648320000000002" lon="-43.850730000000006">
    <ele>785.49</ele>
   </trkpt>
   <trkpt lat="-19.64845" lon="-43.8507">
    <ele>784.21</ele>
   </trkpt>
   <trkpt lat="-19.648600000000002" lon="-43.85065">
    <ele>781.1300000000001</ele>
   </trkpt>
   <trkpt lat="-19.64872" lon="-43.850550000000005">
    <ele>777.11</ele>
   </trkpt>
   <trkpt lat="-19.64891" lon="-43.85051000000001">
    <ele>776.2</ele>
   </trkpt>
   <trkpt lat="-19.648970000000002" lon="-43.850440000000006">
    <ele>774.51</ele>
   </trkpt>
   <trkpt lat="-19.64911" lon="-43.8502">
    <ele>764.5</ele>
   </trkpt>
   <trkpt lat="-19.649130000000003" lon="-43.850080000000005">
    <ele>760.0100000000001</ele>
   </trkpt>
   <trkpt lat="-19.64912" lon="-43.849990000000005">
    <ele>757.17</ele>
   </trkpt>
   <trkpt lat="-19.64898" lon="-43.8498">
    <ele>752.48</ele>
   </trkpt>
   <trkpt lat="-19.648960000000002" lon="-43.849680000000006">
    <ele>750.21</ele>
   </trkpt>
   <trkpt lat="-19.649030000000003" lon="-43.84949">
    <ele>747.72</ele>
   </trkpt>
   <trkpt lat="-19.649030000000003" lon="-43.84939000000001">
    <ele>747.2800000000001</ele>
   </trkpt>
   <trkpt lat="-19.649150000000002" lon="-43.849430000000005">
    <ele>745.5500000000001</ele>
   </trkpt>
   <trkpt lat="-19.64921" lon="-43.849270000000004">
    <ele>743.6600000000001</ele>
   </trkpt>
   <trkpt lat="-19.649160000000002" lon="-43.84924">
    <ele>731.23</ele>
   </trkpt>
   <trkpt lat="-19.649160000000002" lon="-43.849180000000004">
    <ele>731.6300000000001</ele>
   </trkpt>
   <trkpt lat="-19.64928" lon="-43.84902">
    <ele>732.3900000000001</ele>
   </trkpt>
   <trkpt lat="-19.64967" lon="-43.84879">
    <ele>735.08</ele>
   </trkpt>
   <trkpt lat="-19.65013" lon="-43.84884">
    <ele>732.26</ele>
   </trkpt>
   <trkpt lat="-19.65043" lon="-43.84879">
    <ele>731.72</ele>
   </trkpt>
   <trkpt lat="-19.65088" lon="-43.84841">
    <ele>728.01</ele>
   </trkpt>
   <trkpt lat="-19.65106" lon="-43.848330000000004">
    <ele>727.5600000000001</ele>
   </trkpt>
   <trkpt lat="-19.65125" lon="-43.84834">
    <ele>725.8800000000001</ele>
   </trkpt>
   <trkpt lat="-19.651600000000002" lon="-43.848510000000005">
    <ele>723.9000000000001</ele>
   </trkpt>
   <trkpt lat="-19.651960000000003" lon="-43.84861">
    <ele>721.55</ele>
   </trkpt>
   <trkpt lat="-19.65209" lon="-43.84874000000001">
    <ele>721.5400000000001</ele>
   </trkpt>
   <trkpt lat="-19.6525" lon="-43.84904">
    <ele>721.35</ele>
   </trkpt>
   <trkpt lat="-19.65311" lon="-43.84924">
    <ele>721.96</ele>
   </trkpt>
   <trkpt lat="-19.65333" lon="-43.849360000000004">
    <ele>722.5400000000001</ele>
   </trkpt>
   <trkpt lat="-19.65399" lon="-43.84998">
    <ele>723.44</ele>
   </trkpt>
   <trkpt lat="-19.65447" lon="-43.850660000000005">
    <ele>725.0200000000001</ele>
   </trkpt>
   <trkpt lat="-19.65462" lon="-43.8511">
    <ele>726.99</ele>
   </trkpt>
   <trkpt lat="-19.65463" lon="-43.85161">
    <ele>729.59</ele>
   </trkpt>
   <trkpt lat="-19.654605002114792" lon="-43.85248500019034">
    <ele>733.5400000000001</ele>
   </trkpt>
   <trkpt lat="-19.654580000000003" lon="-43.85336">
    <ele>736.59</ele>
   </trkpt>
   <trkpt lat="-19.65461" lon="-43.85383">
    <ele>737.24</ele>
   </trkpt>
   <trkpt lat="-19.654700001283636" lon="-43.85451499951376">
    <ele>740.3100000000001</ele>
   </trkpt>
   <trkpt lat="-19.654790000000002" lon="-43.8552">
    <ele>746.65</ele>
   </trkpt>
   <trkpt lat="-19.65477666907528" lon="-43.85586000008838">
    <ele>748.3900000000001</ele>
   </trkpt>
   <trkpt lat="-19.65476333574237" lon="-43.85652000006706">
    <ele>755.1300000000001</ele>
   </trkpt>
   <trkpt lat="-19.65475" lon="-43.85718000000001">
    <ele>759.14</ele>
   </trkpt>
   <trkpt lat="-19.654725000792887" lon="-43.85771500004694">
    <ele>760.82</ele>
   </trkpt>
   <trkpt lat="-19.654700000000002" lon="-43.858250000000005">
    <ele>763.47</ele>
   </trkpt>
   <trkpt lat="-19.654595001609085" lon="-43.85901000040703">
    <ele>767.23</ele>
   </trkpt>
   <trkpt lat="-19.654490000000003" lon="-43.859770000000005">
    <ele>772.14</ele>
   </trkpt>
   <trkpt lat="-19.65436" lon="-43.86057">
    <ele>776.82</ele>
   </trkpt>
   <trkpt lat="-19.65424" lon="-43.861050000000006">
    <ele>778.2900000000001</ele>
   </trkpt>
   <trkpt lat="-19.65406" lon="-43.86157">
    <ele>780.4300000000001</ele>
   </trkpt>
   <trkpt lat="-19.653636670306263" lon="-43.86238000425064">
    <ele>786.45</ele>
   </trkpt>
   <trkpt lat="-19.653213336985484" lon="-43.86319000422652">
    <ele>792.69</ele>
   </trkpt>
   <trkpt lat="-19.652790000000003" lon="-43.864000000000004">
    <ele>793.64</ele>
   </trkpt>
   <trkpt lat="-19.65237200655419" lon="-43.864770008025395">
    <ele>794.5500000000001</ele>
   </trkpt>
   <trkpt lat="-19.651954009830867" lon="-43.86554001203861">
    <ele>796.37</ele>
   </trkpt>
   <trkpt lat="-19.651536009830117" lon="-43.866310012039726">
    <ele>801.6700000000001</ele>
   </trkpt>
   <trkpt lat="-19.65111800655205" lon="-43.86708000802883">
    <ele>805.15</ele>
   </trkpt>
   <trkpt lat="-19.6507" lon="-43.867850000000004">
    <ele>808.4100000000001</ele>
   </trkpt>
   <trkpt lat="-19.65044666908464" lon="-43.868513335464904">
    <ele>809.36</ele>
   </trkpt>
   <trkpt lat="-19.650193335737157" lon="-43.869176668835244">
    <ele>809.8700000000001</ele>
   </trkpt>
   <trkpt lat="-19.64994" lon="-43.86984">
    <ele>810.6000000000001</ele>
   </trkpt>
   <trkpt lat="-19.65019333577957" lon="-43.869176668724194">
    <ele>809.8700000000001</ele>
   </trkpt>
   <trkpt lat="-19.650446669127046" lon="-43.86851333535385">
    <ele>809.36</ele>
   </trkpt>
   <trkpt lat="-19.6507" lon="-43.867850000000004">
    <ele>808.4100000000001</ele>
   </trkpt>
   <trkpt lat="-19.65111800655531" lon="-43.867080008022825">
    <ele>804.42</ele>
   </trkpt>
   <trkpt lat="-19.651536009833386" lon="-43.86631001203372">
    <ele>799.7700000000001</ele>
   </trkpt>
   <trkpt lat="-19.651954009834125" lon="-43.8655400120326">
    <ele>796.37</ele>
   </trkpt>
   <trkpt lat="-19.652372006557457" lon="-43.86477000801939">
    <ele>794.5500000000001</ele>
   </trkpt>
   <trkpt lat="-19.652790000000003" lon="-43.864000000000004">
    <ele>793.64</ele>
   </trkpt>
   <trkpt lat="-19.653213336947708" lon="-43.863190004298794">
    <ele>792.69</ele>
   </trkpt>
   <trkpt lat="-19.653636670268483" lon="-43.862380004322915">
    <ele>786.45</ele>
   </trkpt>
   <trkpt lat="-19.65406" lon="-43.86157">
    <ele>780.4300000000001</ele>
   </trkpt>
   <trkpt lat="-19.65424" lon="-43.861050000000006">
    <ele>778.2900000000001</ele>
   </trkpt>
   <trkpt lat="-19.65436" lon="-43.86057">
    <ele>776.82</ele>
   </trkpt>
   <trkpt lat="-19.654490000000003" lon="-43.859770000000005">
    <ele>772.14</ele>
   </trkpt>
   <trkpt lat="-19.65459500158411" lon="-43.85901000058785">
    <ele>767.23</ele>
   </trkpt>
   <trkpt lat="-19.654700000000002" lon="-43.858250000000005">
    <ele>763.48</ele>
   </trkpt>
   <trkpt lat="-19.654725000789487" lon="-43.857715000119825">
    <ele>760.82</ele>
   </trkpt>
   <trkpt lat="-19.65475" lon="-43.85718000000001">
    <ele>759.14</ele>
   </trkpt>
   <trkpt lat="-19.654763335741077" lon="-43.856520000131056">
    <ele>755.1300000000001</ele>
   </trkpt>
   <trkpt lat="-19.654776669073982" lon="-43.855860000152376">
    <ele>748.3900000000001</ele>
   </trkpt>
   <trkpt lat="-19.654790000000002" lon="-43.8552">
    <ele>746.65</ele>
   </trkpt>
   <trkpt lat="-19.654700001310427" lon="-43.854514999717644">
    <ele>741.0000000000001</ele>
   </trkpt>
   <trkpt lat="-19.65461" lon="-43.85383">
    <ele>737.24</ele>
   </trkpt>
   <trkpt lat="-19.654580000000003" lon="-43.85336">
    <ele>736.59</ele>
   </trkpt>
   <trkpt lat="-19.654605002117876" lon="-43.852485000082375">
    <ele>733.5400000000001</ele>
   </trkpt>
   <trkpt lat="-19.65463" lon="-43.85161">
    <ele>729.59</ele>
   </trkpt>
   <trkpt lat="-19.65462" lon="-43.8511">
    <ele>726.99</ele>
   </trkpt>
   <trkpt lat="-19.65446" lon="-43.85065">
    <ele>724.89</ele>
   </trkpt>
   <trkpt lat="-19.65399" lon="-43.84998">
    <ele>723.44</ele>
   </trkpt>
   <trkpt lat="-19.65333" lon="-43.849360000000004">
    <ele>722.4200000000001</ele>
   </trkpt>
   <trkpt lat="-19.65311" lon="-43.84924">
    <ele>721.96</ele>
   </trkpt>
   <trkpt lat="-19.6525" lon="-43.84904">
    <ele>721.35</ele>
   </trkpt>
   <trkpt lat="-19.65209" lon="-43.84874000000001">
    <ele>721.5400000000001</ele>
   </trkpt>
   <trkpt lat="-19.651960000000003" lon="-43.84861">
    <ele>721.55</ele>
   </trkpt>
   <trkpt lat="-19.65183" lon="-43.84841">
    <ele>721.87</ele>
   </trkpt>
   <trkpt lat="-19.651880000000002" lon="-43.84814">
    <ele>721.92</ele>
   </trkpt>
   <trkpt lat="-19.65183" lon="-43.84841">
    <ele>721.87</ele>
   </trkpt>
   <trkpt lat="-19.65189" lon="-43.848510000000005">
    <ele>721.61</ele>
   </trkpt>
   <trkpt lat="-19.65202" lon="-43.84868">
    <ele>721.53</ele>
   </trkpt>
   <trkpt lat="-19.6525" lon="-43.84904">
    <ele>721.35</ele>
   </trkpt>
   <trkpt lat="-19.65311" lon="-43.84924">
    <ele>722.04</ele>
   </trkpt>
   <trkpt lat="-19.65333" lon="-43.849360000000004">
    <ele>722.5400000000001</ele>
   </trkpt>
   <trkpt lat="-19.65399" lon="-43.84998">
    <ele>723.44</ele>
   </trkpt>
   <trkpt lat="-19.65446" lon="-43.85065">
    <ele>724.89</ele>
   </trkpt>
   <trkpt lat="-19.65462" lon="-43.8511">
    <ele>726.99</ele>
   </trkpt>
   <trkpt lat="-19.65463" lon="-43.85161">
    <ele>729.59</ele>
   </trkpt>
   <trkpt lat="-19.654610001744754" lon="-43.85240500018988">
    <ele>731.8</ele>
   </trkpt>
   <trkpt lat="-19.654590000000002" lon="-43.8532">
    <ele>736.04</ele>
   </trkpt>
  </trkseg>
 </trk>
</gpx>
