<?xml version="1.0" encoding="UTF-8"?>
<gpx creator="StravaGPX" version="1.1" xmlns="http://www.topografix.com/GPX/1/1" xmlns:xsi="http://www.w3.org/2001/XMLSchema-instance" xsi:schemaLocation="http://www.topografix.com/GPX/1/1 http://www.topografix.com/GPX/1/1/gpx.xsd">
 <metadata>
  <name>WTR Nova Lima 2024 - Percurso Long 28km</name>
  <author>
   <name>Felipe Desiderio</name>
  </author>
  <copyright author="OpenStreetMap contributors">
   <year>2020</year>
   <license>https://www.openstreetmap.org/copyright</license>
  </copyright>
 </metadata>
 <trk>
  <name>WTR Nova Lima 2024 - Percurso Long 28km</name>
  <link href=""/>
  <type>trail_running</type>
  <trkseg>
   <trkpt lat="-20.059620000000002" lon="-43.98496">
    <ele>1396.65</ele>
   </trkpt>
   <trkpt lat="-20.05919600673517" lon="-43.98573400836952">
    <ele>1389.2900000000002</ele>
   </trkpt>
   <trkpt lat="-20.058772010101563" lon="-43.98650801255618">
    <ele>1379.6200000000001</ele>
   </trkpt>
   <trkpt lat="-20.05834801009929" lon="-43.987282012560065">
    <ele>1378.8300000000002</ele>
   </trkpt>
   <trkpt lat="-20.05792400672844" lon="-43.988056008381264">
    <ele>1378.7600000000002</ele>
   </trkpt>
   <trkpt lat="-20.0575" lon="-43.98883">
    <ele>1376.13</ele>
   </trkpt>
   <trkpt lat="-20.057560000000002" lon="-43.988870000000006">
    <ele>1376.26</ele>
   </trkpt>
   <trkpt lat="-20.057190003844546" lon="-43.989545004771045">
    <ele>1379.3300000000002</ele>
   </trkpt>
   <trkpt lat="-20.05682000512722" lon="-43.99022000635916">
    <ele>1385.5400000000002</ele>
   </trkpt>
   <trkpt lat="-20.05645000384808" lon="-43.99089500476442">
    <ele>1388.0100000000002</ele>
   </trkpt>
   <trkpt lat="-20.05608" lon="-43.99157">
    <ele>1389.18</ele>
   </trkpt>
   <trkpt lat="-20.05568429418322" lon="-43.99227858214657">
    <ele>1390.0</ele>
   </trkpt>
   <trkpt lat="-20.055288585543536" lon="-43.99298716072001">
    <ele>1387.41</ele>
   </trkpt>
   <trkpt lat="-20.05489287408101" lon="-43.993695735720394">
    <ele>1386.0800000000002</ele>
   </trkpt>
   <trkpt lat="-20.05449715979572" lon="-43.99440430714779">
    <ele>1386.8700000000001</ele>
   </trkpt>
   <trkpt lat="-20.05410144268775" lon="-43.995112875002285">
    <ele>1385.3000000000002</ele>
   </trkpt>
   <trkpt lat="-20.053705722757158" lon="-43.99582143928392">
    <ele>1386.41</ele>
   </trkpt>
   <trkpt lat="-20.053310000000003" lon="-43.99653000000001">
    <ele>1392.3200000000002</ele>
   </trkpt>
   <trkpt lat="-20.05309" lon="-43.99687">
    <ele>1392.4800000000002</ele>
   </trkpt>
   <trkpt lat="-20.05281" lon="-43.997640000000004">
    <ele>1392.6900000000003</ele>
   </trkpt>
   <trkpt lat="-20.05271" lon="-43.9981">
    <ele>1393.3200000000002</ele>
   </trkpt>
   <trkpt lat="-20.052580000000003" lon="-43.99889">
    <ele>1393.82</ele>
   </trkpt>
   <trkpt lat="-20.052500000000002" lon="-43.99916">
    <ele>1394.65</ele>
   </trkpt>
   <trkpt lat="-20.05205" lon="-43.99971">
    <ele>1395.2900000000002</ele>
   </trkpt>
   <trkpt lat="-20.05199" lon="-44.000530000000005">
    <ele>1394.7200000000003</ele>
   </trkpt>
   <trkpt lat="-20.051930000000002" lon="-44.00076000000001">
    <ele>1394.63</ele>
   </trkpt>
   <trkpt lat="-20.05196" lon="-44.001050000000006">
    <ele>1394.3500000000001</ele>
   </trkpt>
   <trkpt lat="-20.051840000000002" lon="-44.00101">
    <ele>1392.22</ele>
   </trkpt>
   <trkpt lat="-20.05177" lon="-44.00092">
    <ele>1391.2300000000002</ele>
   </trkpt>
   <trkpt lat="-20.05159" lon="-44.000910000000005">
    <ele>1389.8600000000001</ele>
   </trkpt>
   <trkpt lat="-20.051440000000003" lon="-44.00104">
    <ele>1387.99</ele>
   </trkpt>
   <trkpt lat="-20.05122" lon="-44.00115">
    <ele>1386.12</ele>
   </trkpt>
   <trkpt lat="-20.05121" lon="-44.001310000000004">
    <ele>1384.06</ele>
   </trkpt>
   <trkpt lat="-20.05112" lon="-44.00175">
    <ele>1381.45</ele>
   </trkpt>
   <trkpt lat="-20.05094" lon="-44.00193">
    <ele>1380.5900000000001</ele>
   </trkpt>
   <trkpt lat="-20.05083" lon="-44.00227">
    <ele>1379.89</ele>
   </trkpt>
   <trkpt lat="-20.050800000000002" lon="-44.00256">
    <ele>1379.6200000000001</ele>
   </trkpt>
   <trkpt lat="-20.05084" lon="-44.002790000000005">
    <ele>1379.75</ele>
   </trkpt>
   <trkpt lat="-20.05067" lon="-44.00352">
    <ele>1381.6200000000001</ele>
   </trkpt>
   <trkpt lat="-20.0503" lon="-44.00397">
    <ele>1378.16</ele>
   </trkpt>
   <trkpt lat="-20.050340000000002" lon="-44.00405000000001">
    <ele>1377.18</ele>
   </trkpt>
   <trkpt lat="-20.05029" lon="-44.004200000000004">
    <ele>1373.3600000000001</ele>
   </trkpt>
   <trkpt lat="-20.05018" lon="-44.00428">
    <ele>1373.3600000000001</ele>
   </trkpt>
   <trkpt lat="-20.04979" lon="-44.004200000000004">
    <ele>1369.64</ele>
   </trkpt>
   <trkpt lat="-20.049770000000002" lon="-44.004200000000004">
    <ele>1369.5300000000002</ele>
   </trkpt>
   <trkpt lat="-20.04979" lon="-44.00457">
    <ele>1365.8000000000002</ele>
   </trkpt>
   <trkpt lat="-20.05011" lon="-44.00495">
    <ele>1359.4</ele>
   </trkpt>
   <trkpt lat="-20.05029" lon="-44.00542">
    <ele>1352.67</ele>
   </trkpt>
   <trkpt lat="-20.050600000000003" lon="-44.00553">
    <ele>1350.14</ele>
   </trkpt>
   <trkpt lat="-20.05083" lon="-44.00591">
    <ele>1346.14</ele>
   </trkpt>
   <trkpt lat="-20.05084" lon="-44.00618">
    <ele>1342.7</ele>
   </trkpt>
   <trkpt lat="-20.05093" lon="-44.00668">
    <ele>1338.15</ele>
   </trkpt>
   <trkpt lat="-20.05093" lon="-44.00686">
    <ele>1336.0100000000002</ele>
   </trkpt>
   <trkpt lat="-20.05086" lon="-44.007020000000004">
    <ele>1334.1900000000003</ele>
   </trkpt>
   <trkpt lat="-20.050800000000002" lon="-44.00753">
    <ele>1327.28</ele>
   </trkpt>
   <trkpt lat="-20.05084" lon="-44.00775">
    <ele>1325.53</ele>
   </trkpt>
   <trkpt lat="-20.05093" lon="-44.00786">
    <ele>1324.21</ele>
   </trkpt>
   <trkpt lat="-20.05093" lon="-44.00793">
    <ele>1324.21</ele>
   </trkpt>
   <trkpt lat="-20.05096" lon="-44.00804">
    <ele>1323.3600000000001</ele>
   </trkpt>
   <trkpt lat="-20.05112" lon="-44.00804">
    <ele>1322.7600000000002</ele>
   </trkpt>
   <trkpt lat="-20.05121" lon="-44.00811">
    <ele>1322.77</ele>
   </trkpt>
   <trkpt lat="-20.051280000000002" lon="-44.00827">
    <ele>1323.05</ele>
   </trkpt>
   <trkpt lat="-20.05138" lon="-44.00827">
    <ele>1323.6000000000001</ele>
   </trkpt>
   <trkpt lat="-20.0514" lon="-44.00835">
    <ele>1323.72</ele>
   </trkpt>
   <trkpt lat="-20.05149" lon="-44.008430000000004">
    <ele>1323.92</ele>
   </trkpt>
   <trkpt lat="-20.051340000000003" lon="-44.00869">
    <ele>1324.95</ele>
   </trkpt>
   <trkpt lat="-20.05139" lon="-44.00874">
    <ele>1325.1200000000001</ele>
   </trkpt>
   <trkpt lat="-20.05149" lon="-44.00878">
    <ele>1325.35</ele>
   </trkpt>
   <trkpt lat="-20.05178" lon="-44.00878">
    <ele>1325.88</ele>
   </trkpt>
   <trkpt lat="-20.05187" lon="-44.00876">
    <ele>1326.0900000000001</ele>
   </trkpt>
   <trkpt lat="-20.05196" lon="-44.0088">
    <ele>1326.48</ele>
   </trkpt>
   <trkpt lat="-20.05198" lon="-44.00885">
    <ele>1326.74</ele>
   </trkpt>
   <trkpt lat="-20.05196" lon="-44.00892">
    <ele>1327.3400000000001</ele>
   </trkpt>
   <trkpt lat="-20.05188" lon="-44.00896">
    <ele>1328.0</ele>
   </trkpt>
   <trkpt lat="-20.05187" lon="-44.00907">
    <ele>1328.7000000000003</ele>
   </trkpt>
   <trkpt lat="-20.051840000000002" lon="-44.00912">
    <ele>1329.3400000000001</ele>
   </trkpt>
   <trkpt lat="-20.051750000000002" lon="-44.00914">
    <ele>1329.3400000000001</ele>
   </trkpt>
   <trkpt lat="-20.051750000000002" lon="-44.009190000000004">
    <ele>1330.1900000000003</ele>
   </trkpt>
   <trkpt lat="-20.051840000000002" lon="-44.009190000000004">
    <ele>1330.74</ele>
   </trkpt>
   <trkpt lat="-20.05188" lon="-44.00923">
    <ele>1330.74</ele>
   </trkpt>
   <trkpt lat="-20.05189" lon="-44.0093">
    <ele>1331.23</ele>
   </trkpt>
   <trkpt lat="-20.05204" lon="-44.009280000000004">
    <ele>1331.62</ele>
   </trkpt>
   <trkpt lat="-20.05225" lon="-44.00921">
    <ele>1332.7000000000003</ele>
   </trkpt>
   <trkpt lat="-20.05233" lon="-44.00923">
    <ele>1333.35</ele>
   </trkpt>
   <trkpt lat="-20.05234" lon="-44.00927">
    <ele>1333.35</ele>
   </trkpt>
   <trkpt lat="-20.05225" lon="-44.009370000000004">
    <ele>1334.8300000000002</ele>
   </trkpt>
   <trkpt lat="-20.05218" lon="-44.00959">
    <ele>1336.1000000000001</ele>
   </trkpt>
   <trkpt lat="-20.052020000000002" lon="-44.009660000000004">
    <ele>1337.0700000000002</ele>
   </trkpt>
   <trkpt lat="-20.05197" lon="-44.00983">
    <ele>1338.3400000000001</ele>
   </trkpt>
   <trkpt lat="-20.0518" lon="-44.00988">
    <ele>1340.3100000000002</ele>
   </trkpt>
   <trkpt lat="-20.05179" lon="-44.00997">
    <ele>1340.75</ele>
   </trkpt>
   <trkpt lat="-20.05196" lon="-44.01015">
    <ele>1343.49</ele>
   </trkpt>
   <trkpt lat="-20.052020000000002" lon="-44.01026">
    <ele>1343.49</ele>
   </trkpt>
   <trkpt lat="-20.052130000000002" lon="-44.01033">
    <ele>1345.8400000000001</ele>
   </trkpt>
   <trkpt lat="-20.05225" lon="-44.01037">
    <ele>1346.8300000000002</ele>
   </trkpt>
   <trkpt lat="-20.05234" lon="-44.01033">
    <ele>1348.3700000000001</ele>
   </trkpt>
   <trkpt lat="-20.052410000000002" lon="-44.01041">
    <ele>1349.32</ele>
   </trkpt>
   <trkpt lat="-20.052390000000003" lon="-44.01055">
    <ele>1350.19</ele>
   </trkpt>
   <trkpt lat="-20.05235" lon="-44.010580000000004">
    <ele>1350.19</ele>
   </trkpt>
   <trkpt lat="-20.05234" lon="-44.01071">
    <ele>1352.0200000000002</ele>
   </trkpt>
   <trkpt lat="-20.052310000000002" lon="-44.01073">
    <ele>1352.0200000000002</ele>
   </trkpt>
   <trkpt lat="-20.05235" lon="-44.01071">
    <ele>1352.0200000000002</ele>
   </trkpt>
   <trkpt lat="-20.052300000000002" lon="-44.01073">
    <ele>1352.0200000000002</ele>
   </trkpt>
   <trkpt lat="-20.05226" lon="-44.01064">
    <ele>1354.4600000000003</ele>
   </trkpt>
   <trkpt lat="-20.05218" lon="-44.01066">
    <ele>1354.4600000000003</ele>
   </trkpt>
   <trkpt lat="-20.052210000000002" lon="-44.01077">
    <ele>1355.41</ele>
   </trkpt>
   <trkpt lat="-20.05207" lon="-44.0108">
    <ele>1356.41</ele>
   </trkpt>
   <trkpt lat="-20.05198" lon="-44.01077">
    <ele>1358.0400000000002</ele>
   </trkpt>
   <trkpt lat="-20.05195" lon="-44.0108">
    <ele>1358.0400000000002</ele>
   </trkpt>
   <trkpt lat="-20.05196" lon="-44.01086">
    <ele>1361.46</ele>
   </trkpt>
   <trkpt lat="-20.051830000000002" lon="-44.01090000000001">
    <ele>1361.94</ele>
   </trkpt>
   <trkpt lat="-20.05179" lon="-44.01086">
    <ele>1362.21</ele>
   </trkpt>
   <trkpt lat="-20.05151" lon="-44.01073">
    <ele>1364.67</ele>
   </trkpt>
   <trkpt lat="-20.05149" lon="-44.01068">
    <ele>1365.0300000000002</ele>
   </trkpt>
   <trkpt lat="-20.05131" lon="-44.010600000000004">
    <ele>1365.88</ele>
   </trkpt>
   <trkpt lat="-20.05122" lon="-44.01062">
    <ele>1367.67</ele>
   </trkpt>
   <trkpt lat="-20.05122" lon="-44.01073">
    <ele>1367.67</ele>
   </trkpt>
   <trkpt lat="-20.051170000000003" lon="-44.010870000000004">
    <ele>1367.92</ele>
   </trkpt>
   <trkpt lat="-20.05121" lon="-44.010960000000004">
    <ele>1370.81</ele>
   </trkpt>
   <trkpt lat="-20.051190000000002" lon="-44.011050000000004">
    <ele>1371.34</ele>
   </trkpt>
   <trkpt lat="-20.05111" lon="-44.01113">
    <ele>1372.5500000000002</ele>
   </trkpt>
   <trkpt lat="-20.05093" lon="-44.0112">
    <ele>1373.0200000000002</ele>
   </trkpt>
   <trkpt lat="-20.050610000000002" lon="-44.01111">
    <ele>1375.75</ele>
   </trkpt>
   <trkpt lat="-20.05056" lon="-44.01115">
    <ele>1375.75</ele>
   </trkpt>
   <trkpt lat="-20.05056" lon="-44.0112">
    <ele>1375.75</ele>
   </trkpt>
   <trkpt lat="-20.05066" lon="-44.01129">
    <ele>1377.0600000000002</ele>
   </trkpt>
   <trkpt lat="-20.05075" lon="-44.01129">
    <ele>1377.88</ele>
   </trkpt>
   <trkpt lat="-20.050810000000002" lon="-44.01136">
    <ele>1378.6</ele>
   </trkpt>
   <trkpt lat="-20.05073" lon="-44.01144">
    <ele>1379.3000000000002</ele>
   </trkpt>
   <trkpt lat="-20.05063" lon="-44.01144">
    <ele>1379.73</ele>
   </trkpt>
   <trkpt lat="-20.050420000000003" lon="-44.01131">
    <ele>1380.8100000000002</ele>
   </trkpt>
   <trkpt lat="-20.05008" lon="-44.011250000000004">
    <ele>1382.89</ele>
   </trkpt>
   <trkpt lat="-20.04998" lon="-44.01129">
    <ele>1384.02</ele>
   </trkpt>
   <trkpt lat="-20.04982" lon="-44.01144">
    <ele>1387.0300000000002</ele>
   </trkpt>
   <trkpt lat="-20.04992" lon="-44.01165">
    <ele>1389.27</ele>
   </trkpt>
   <trkpt lat="-20.04981" lon="-44.01203">
    <ele>1394.7200000000003</ele>
   </trkpt>
   <trkpt lat="-20.04988" lon="-44.01214">
    <ele>1395.69</ele>
   </trkpt>
   <trkpt lat="-20.04983" lon="-44.01234">
    <ele>1397.43</ele>
   </trkpt>
   <trkpt lat="-20.049780000000002" lon="-44.01241">
    <ele>1397.8700000000001</ele>
   </trkpt>
   <trkpt lat="-20.04905" lon="-44.01259">
    <ele>1406.8100000000002</ele>
   </trkpt>
   <trkpt lat="-20.048370000000002" lon="-44.013020000000004">
    <ele>1414.8100000000002</ele>
   </trkpt>
   <trkpt lat="-20.04793" lon="-44.0131">
    <ele>1415.49</ele>
   </trkpt>
   <trkpt lat="-20.047320000000003" lon="-44.01301">
    <ele>1411.55</ele>
   </trkpt>
   <trkpt lat="-20.04729" lon="-44.01297">
    <ele>1411.55</ele>
   </trkpt>
   <trkpt lat="-20.04717" lon="-44.01294">
    <ele>1411.3000000000002</ele>
   </trkpt>
   <trkpt lat="-20.046760000000003" lon="-44.012950000000004">
    <ele>1411.5900000000001</ele>
   </trkpt>
   <trkpt lat="-20.04664" lon="-44.012890000000006">
    <ele>1412.4500000000003</ele>
   </trkpt>
   <trkpt lat="-20.04652" lon="-44.01296000000001">
    <ele>1413.8400000000001</ele>
   </trkpt>
   <trkpt lat="-20.04625" lon="-44.01285">
    <ele>1418.16</ele>
   </trkpt>
   <trkpt lat="-20.04616" lon="-44.01285">
    <ele>1418.7900000000002</ele>
   </trkpt>
   <trkpt lat="-20.046110000000002" lon="-44.01281">
    <ele>1419.03</ele>
   </trkpt>
   <trkpt lat="-20.045930000000002" lon="-44.012800000000006">
    <ele>1419.03</ele>
   </trkpt>
   <trkpt lat="-20.04587" lon="-44.01272">
    <ele>1418.91</ele>
   </trkpt>
   <trkpt lat="-20.04577" lon="-44.01243">
    <ele>1417.34</ele>
   </trkpt>
   <trkpt lat="-20.04568" lon="-44.012240000000006">
    <ele>1416.3500000000001</ele>
   </trkpt>
   <trkpt lat="-20.04551" lon="-44.01174">
    <ele>1414.2800000000002</ele>
   </trkpt>
   <trkpt lat="-20.045050000000003" lon="-44.01117000000001">
    <ele>1409.1100000000001</ele>
   </trkpt>
   <trkpt lat="-20.044890000000002" lon="-44.011160000000004">
    <ele>1407.97</ele>
   </trkpt>
   <trkpt lat="-20.044800000000002" lon="-44.01104">
    <ele>1406.5700000000002</ele>
   </trkpt>
   <trkpt lat="-20.04456" lon="-44.01097">
    <ele>1406.05</ele>
   </trkpt>
   <trkpt lat="-20.044430000000002" lon="-44.01086">
    <ele>1406.56</ele>
   </trkpt>
   <trkpt lat="-20.04436" lon="-44.01084">
    <ele>1407.51</ele>
   </trkpt>
   <trkpt lat="-20.04426" lon="-44.01086">
    <ele>1408.39</ele>
   </trkpt>
   <trkpt lat="-20.043860000000002" lon="-44.01084">
    <ele>1410.8700000000001</ele>
   </trkpt>
   <trkpt lat="-20.04361" lon="-44.01075">
    <ele>1413.45</ele>
   </trkpt>
   <trkpt lat="-20.04342" lon="-44.01062">
    <ele>1413.96</ele>
   </trkpt>
   <trkpt lat="-20.04333" lon="-44.010510000000004">
    <ele>1413.3600000000001</ele>
   </trkpt>
   <trkpt lat="-20.04295" lon="-44.0103">
    <ele>1411.92</ele>
   </trkpt>
   <trkpt lat="-20.04278" lon="-44.01008">
    <ele>1409.34</ele>
   </trkpt>
   <trkpt lat="-20.04249" lon="-44.00961">
    <ele>1405.04</ele>
   </trkpt>
   <trkpt lat="-20.04248" lon="-44.00954">
    <ele>1405.04</ele>
   </trkpt>
   <trkpt lat="-20.0423" lon="-44.00938">
    <ele>1401.8300000000002</ele>
   </trkpt>
   <trkpt lat="-20.04211" lon="-44.00932">
    <ele>1398.73</ele>
   </trkpt>
   <trkpt lat="-20.04183" lon="-44.008990000000004">
    <ele>1389.95</ele>
   </trkpt>
   <trkpt lat="-20.04176" lon="-44.008810000000004">
    <ele>1387.5600000000002</ele>
   </trkpt>
   <trkpt lat="-20.04184" lon="-44.008680000000005">
    <ele>1385.61</ele>
   </trkpt>
   <trkpt lat="-20.041860000000003" lon="-44.008680000000005">
    <ele>1386.0</ele>
   </trkpt>
   <trkpt lat="-20.04167" lon="-44.008430000000004">
    <ele>1388.8500000000001</ele>
   </trkpt>
   <trkpt lat="-20.04145" lon="-44.0082">
    <ele>1388.9600000000003</ele>
   </trkpt>
   <trkpt lat="-20.04117" lon="-44.007670000000005">
    <ele>1388.8500000000001</ele>
   </trkpt>
   <trkpt lat="-20.040940000000003" lon="-44.007490000000004">
    <ele>1388.8600000000001</ele>
   </trkpt>
   <trkpt lat="-20.04005" lon="-44.00746">
    <ele>1385.34</ele>
   </trkpt>
   <trkpt lat="-20.03966" lon="-44.00739">
    <ele>1380.5</ele>
   </trkpt>
   <trkpt lat="-20.03921" lon="-44.007490000000004">
    <ele>1375.75</ele>
   </trkpt>
   <trkpt lat="-20.03885" lon="-44.007400000000004">
    <ele>1371.43</ele>
   </trkpt>
   <trkpt lat="-20.03893" lon="-44.00695">
    <ele>1382.8200000000002</ele>
   </trkpt>
   <trkpt lat="-20.039050000000003" lon="-44.00668">
    <ele>1390.88</ele>
   </trkpt>
   <trkpt lat="-20.03904" lon="-44.00652">
    <ele>1392.53</ele>
   </trkpt>
   <trkpt lat="-20.039270000000002" lon="-44.00632">
    <ele>1393.0600000000002</ele>
   </trkpt>
   <trkpt lat="-20.03922" lon="-44.00625">
    <ele>1392.97</ele>
   </trkpt>
   <trkpt lat="-20.038860000000003" lon="-44.006040000000006">
    <ele>1392.7800000000002</ele>
   </trkpt>
   <trkpt lat="-20.038800000000002" lon="-44.00596">
    <ele>1391.79</ele>
   </trkpt>
   <trkpt lat="-20.03874" lon="-44.00596">
    <ele>1391.17</ele>
   </trkpt>
   <trkpt lat="-20.038710000000002" lon="-44.00607">
    <ele>1388.7200000000003</ele>
   </trkpt>
   <trkpt lat="-20.03862" lon="-44.00612">
    <ele>1386.56</ele>
   </trkpt>
   <trkpt lat="-20.038610000000002" lon="-44.006280000000004">
    <ele>1381.04</ele>
   </trkpt>
   <trkpt lat="-20.03855" lon="-44.00632">
    <ele>1381.04</ele>
   </trkpt>
   <trkpt lat="-20.03847" lon="-44.00634">
    <ele>1376.13</ele>
   </trkpt>
   <trkpt lat="-20.03825" lon="-44.00634">
    <ele>1366.45</ele>
   </trkpt>
   <trkpt lat="-20.03808" lon="-44.00641">
    <ele>1361.92</ele>
   </trkpt>
   <trkpt lat="-20.037940000000003" lon="-44.00641">
    <ele>1358.21</ele>
   </trkpt>
   <trkpt lat="-20.03787" lon="-44.00638">
    <ele>1356.16</ele>
   </trkpt>
   <trkpt lat="-20.037760000000002" lon="-44.00641">
    <ele>1354.3100000000002</ele>
   </trkpt>
   <trkpt lat="-20.03771" lon="-44.00636">
    <ele>1353.6200000000001</ele>
   </trkpt>
   <trkpt lat="-20.0375" lon="-44.00598">
    <ele>1349.31</ele>
   </trkpt>
   <trkpt lat="-20.03679" lon="-44.00542">
    <ele>1343.9</ele>
   </trkpt>
   <trkpt lat="-20.03676" lon="-44.00506">
    <ele>1340.38</ele>
   </trkpt>
   <trkpt lat="-20.0362" lon="-44.00466">
    <ele>1342.87</ele>
   </trkpt>
   <trkpt lat="-20.03592" lon="-44.00392">
    <ele>1334.3</ele>
   </trkpt>
   <trkpt lat="-20.03545" lon="-44.00345">
    <ele>1324.93</ele>
   </trkpt>
   <trkpt lat="-20.03497" lon="-44.0031">
    <ele>1326.0900000000001</ele>
   </trkpt>
   <trkpt lat="-20.034670000000002" lon="-44.002840000000006">
    <ele>1326.99</ele>
   </trkpt>
   <trkpt lat="-20.034200000000002" lon="-44.00296">
    <ele>1319.23</ele>
   </trkpt>
   <trkpt lat="-20.03395" lon="-44.0028">
    <ele>1313.52</ele>
   </trkpt>
   <trkpt lat="-20.03338" lon="-44.0033">
    <ele>1283.8700000000001</ele>
   </trkpt>
   <trkpt lat="-20.03319" lon="-44.00379">
    <ele>1269.5</ele>
   </trkpt>
   <trkpt lat="-20.033060000000003" lon="-44.00408">
    <ele>1258.99</ele>
   </trkpt>
   <trkpt lat="-20.0333" lon="-44.00442">
    <ele>1251.4900000000002</ele>
   </trkpt>
   <trkpt lat="-20.03311" lon="-44.00471">
    <ele>1241.74</ele>
   </trkpt>
   <trkpt lat="-20.03331" lon="-44.00553">
    <ele>1215.3400000000001</ele>
   </trkpt>
   <trkpt lat="-20.032980000000002" lon="-44.005990000000004">
    <ele>1215.3</ele>
   </trkpt>
   <trkpt lat="-20.032960000000003" lon="-44.00607">
    <ele>1215.13</ele>
   </trkpt>
   <trkpt lat="-20.03266" lon="-44.00618">
    <ele>1211.7600000000002</ele>
   </trkpt>
   <trkpt lat="-20.03247" lon="-44.006280000000004">
    <ele>1210.43</ele>
   </trkpt>
   <trkpt lat="-20.03215" lon="-44.00638">
    <ele>1206.2</ele>
   </trkpt>
   <trkpt lat="-20.03181" lon="-44.00674">
    <ele>1201.3</ele>
   </trkpt>
   <trkpt lat="-20.03162" lon="-44.00683">
    <ele>1199.74</ele>
   </trkpt>
   <trkpt lat="-20.03159" lon="-44.006930000000004">
    <ele>1198.83</ele>
   </trkpt>
   <trkpt lat="-20.03085" lon="-44.00715">
    <ele>1194.21</ele>
   </trkpt>
   <trkpt lat="-20.03039000024983" lon="-44.007440000840205">
    <ele>1189.66</ele>
   </trkpt>
   <trkpt lat="-20.02993" lon="-44.00773">
    <ele>1187.18</ele>
   </trkpt>
   <trkpt lat="-20.02935" lon="-44.00797">
    <ele>1184.7</ele>
   </trkpt>
   <trkpt lat="-20.02925" lon="-44.008140000000004">
    <ele>1183.47</ele>
   </trkpt>
   <trkpt lat="-20.02909" lon="-44.00815">
    <ele>1182.8100000000002</ele>
   </trkpt>
   <trkpt lat="-20.02897" lon="-44.008250000000004">
    <ele>1182.45</ele>
   </trkpt>
   <trkpt lat="-20.02869" lon="-44.00833">
    <ele>1181.65</ele>
   </trkpt>
   <trkpt lat="-20.02823" lon="-44.00851">
    <ele>1184.1200000000001</ele>
   </trkpt>
   <trkpt lat="-20.02786" lon="-44.00874">
    <ele>1187.1200000000001</ele>
   </trkpt>
   <trkpt lat="-20.027420000000003" lon="-44.009080000000004">
    <ele>1191.44</ele>
   </trkpt>
   <trkpt lat="-20.02739" lon="-44.009100000000004">
    <ele>1191.44</ele>
   </trkpt>
   <trkpt lat="-20.027340000000002" lon="-44.009280000000004">
    <ele>1192.8400000000001</ele>
   </trkpt>
   <trkpt lat="-20.02767" lon="-44.00948">
    <ele>1193.41</ele>
   </trkpt>
   <trkpt lat="-20.028383333599113" lon="-44.009693331399966">
    <ele>1192.8400000000001</ele>
   </trkpt>
   <trkpt lat="-20.029096666942632" lon="-44.00990666473631">
    <ele>1192.0000000000002</ele>
   </trkpt>
   <trkpt lat="-20.02981" lon="-44.01012">
    <ele>1191.3</ele>
   </trkpt>
   <trkpt lat="-20.03018" lon="-44.01026">
    <ele>1191.43</ele>
   </trkpt>
   <trkpt lat="-20.03057" lon="-44.00977">
    <ele>1191.01</ele>
   </trkpt>
   <trkpt lat="-20.0309950004294" lon="-44.009330001308236">
    <ele>1192.6499999999999</ele>
   </trkpt>
   <trkpt lat="-20.03142" lon="-44.00889">
    <ele>1195.13</ele>
   </trkpt>
   <trkpt lat="-20.031750000000002" lon="-44.00838">
    <ele>1197.7000000000003</ele>
   </trkpt>
   <trkpt lat="-20.032" lon="-44.00762">
    <ele>1200.26</ele>
   </trkpt>
   <trkpt lat="-20.032320000615716" lon="-44.00717000085027">
    <ele>1202.67</ele>
   </trkpt>
   <trkpt lat="-20.03264" lon="-44.00672">
    <ele>1208.63</ele>
   </trkpt>
   <trkpt lat="-20.032880000000002" lon="-44.00672">
    <ele>1210.18</ele>
   </trkpt>
   <trkpt lat="-20.032970000000002" lon="-44.00605">
    <ele>1215.18</ele>
   </trkpt>
   <trkpt lat="-20.033060000000003" lon="-44.00603">
    <ele>1216.15</ele>
   </trkpt>
   <trkpt lat="-20.0331" lon="-44.006060000000005">
    <ele>1216.15</ele>
   </trkpt>
   <trkpt lat="-20.033050000000003" lon="-44.006040000000006">
    <ele>1216.15</ele>
   </trkpt>
   <trkpt lat="-20.0331" lon="-44.00605">
    <ele>1216.55</ele>
   </trkpt>
   <trkpt lat="-20.033250000000002" lon="-44.006190000000004">
    <ele>1218.24</ele>
   </trkpt>
   <trkpt lat="-20.03348" lon="-44.006550000000004">
    <ele>1220.65</ele>
   </trkpt>
   <trkpt lat="-20.03368" lon="-44.007020000000004">
    <ele>1219.92</ele>
   </trkpt>
   <trkpt lat="-20.033810000000003" lon="-44.00715">
    <ele>1219.6</ele>
   </trkpt>
   <trkpt lat="-20.03395" lon="-44.00721">
    <ele>1220.3600000000001</ele>
   </trkpt>
   <trkpt lat="-20.034280000000003" lon="-44.00728">
    <ele>1223.46</ele>
   </trkpt>
   <trkpt lat="-20.03451" lon="-44.00746">
    <ele>1225.14</ele>
   </trkpt>
   <trkpt lat="-20.035040000000002" lon="-44.007960000000004">
    <ele>1230.4700000000003</ele>
   </trkpt>
   <trkpt lat="-20.03525" lon="-44.00829">
    <ele>1229.65</ele>
   </trkpt>
   <trkpt lat="-20.035330000000002" lon="-44.00847">
    <ele>1229.5500000000002</ele>
   </trkpt>
   <trkpt lat="-20.03534" lon="-44.00854">
    <ele>1229.94</ele>
   </trkpt>
   <trkpt lat="-20.03544" lon="-44.00858">
    <ele>1230.73</ele>
   </trkpt>
   <trkpt lat="-20.03543" lon="-44.008630000000004">
    <ele>1231.24</ele>
   </trkpt>
   <trkpt lat="-20.03553" lon="-44.00887">
    <ele>1233.2500000000002</ele>
   </trkpt>
   <trkpt lat="-20.035420000000002" lon="-44.00887">
    <ele>1232.92</ele>
   </trkpt>
   <trkpt lat="-20.03535" lon="-44.00892">
    <ele>1232.64</ele>
   </trkpt>
   <trkpt lat="-20.03527" lon="-44.00894">
    <ele>1231.71</ele>
   </trkpt>
   <trkpt lat="-20.03527" lon="-44.00914">
    <ele>1230.88</ele>
   </trkpt>
   <trkpt lat="-20.03525" lon="-44.00934">
    <ele>1230.8300000000002</ele>
   </trkpt>
   <trkpt lat="-20.03538" lon="-44.009460000000004">
    <ele>1231.19</ele>
   </trkpt>
   <trkpt lat="-20.03573" lon="-44.00992">
    <ele>1233.73</ele>
   </trkpt>
   <trkpt lat="-20.035790000000002" lon="-44.009930000000004">
    <ele>1233.73</ele>
   </trkpt>
   <trkpt lat="-20.03573" lon="-44.00992">
    <ele>1233.73</ele>
   </trkpt>
   <trkpt lat="-20.035880000000002" lon="-44.009930000000004">
    <ele>1234.48</ele>
   </trkpt>
   <trkpt lat="-20.03592" lon="-44.00997">
    <ele>1234.79</ele>
   </trkpt>
   <trkpt lat="-20.036060000000003" lon="-44.009930000000004">
    <ele>1236.89</ele>
   </trkpt>
   <trkpt lat="-20.0361" lon="-44.00999">
    <ele>1236.89</ele>
   </trkpt>
   <trkpt lat="-20.036170000000002" lon="-44.00997">
    <ele>1236.89</ele>
   </trkpt>
   <trkpt lat="-20.03621" lon="-44.0097">
    <ele>1238.5600000000002</ele>
   </trkpt>
   <trkpt lat="-20.0362" lon="-44.00961">
    <ele>1238.65</ele>
   </trkpt>
   <trkpt lat="-20.03594" lon="-44.00956">
    <ele>1237.94</ele>
   </trkpt>
   <trkpt lat="-20.03593" lon="-44.00952">
    <ele>1237.94</ele>
   </trkpt>
   <trkpt lat="-20.035970000000002" lon="-44.00943">
    <ele>1237.4900000000002</ele>
   </trkpt>
   <trkpt lat="-20.03592" lon="-44.00938">
    <ele>1237.1100000000001</ele>
   </trkpt>
   <trkpt lat="-20.03583" lon="-44.00939">
    <ele>1236.85</ele>
   </trkpt>
   <trkpt lat="-20.03582" lon="-44.00947">
    <ele>1236.01</ele>
   </trkpt>
   <trkpt lat="-20.035790000000002" lon="-44.0095">
    <ele>1236.01</ele>
   </trkpt>
   <trkpt lat="-20.03571" lon="-44.00945">
    <ele>1235.4900000000002</ele>
   </trkpt>
   <trkpt lat="-20.03573" lon="-44.00934">
    <ele>1235.06</ele>
   </trkpt>
   <trkpt lat="-20.035420000000002" lon="-44.00927">
    <ele>1234.3600000000001</ele>
   </trkpt>
   <trkpt lat="-20.03536" lon="-44.009190000000004">
    <ele>1234.9</ele>
   </trkpt>
   <trkpt lat="-20.03545" lon="-44.00907">
    <ele>1235.73</ele>
   </trkpt>
   <trkpt lat="-20.03554" lon="-44.00907">
    <ele>1237.73</ele>
   </trkpt>
   <trkpt lat="-20.03557" lon="-44.00901">
    <ele>1238.2600000000002</ele>
   </trkpt>
   <trkpt lat="-20.035700000000002" lon="-44.00901">
    <ele>1238.8300000000002</ele>
   </trkpt>
   <trkpt lat="-20.03573" lon="-44.00894">
    <ele>1241.96</ele>
   </trkpt>
   <trkpt lat="-20.03585" lon="-44.00892">
    <ele>1241.96</ele>
   </trkpt>
   <trkpt lat="-20.036" lon="-44.00885">
    <ele>1245.33</ele>
   </trkpt>
   <trkpt lat="-20.036170000000002" lon="-44.00849">
    <ele>1251.6</ele>
   </trkpt>
   <trkpt lat="-20.03629" lon="-44.00844">
    <ele>1253.15</ele>
   </trkpt>
   <trkpt lat="-20.03629" lon="-44.00838">
    <ele>1253.74</ele>
   </trkpt>
   <trkpt lat="-20.036450000000002" lon="-44.00833">
    <ele>1254.16</ele>
   </trkpt>
   <trkpt lat="-20.036530000000003" lon="-44.008410000000005">
    <ele>1254.16</ele>
   </trkpt>
   <trkpt lat="-20.03649" lon="-44.008630000000004">
    <ele>1251.57</ele>
   </trkpt>
   <trkpt lat="-20.03638" lon="-44.00869">
    <ele>1248.17</ele>
   </trkpt>
   <trkpt lat="-20.036270000000002" lon="-44.00889">
    <ele>1246.5600000000002</ele>
   </trkpt>
   <trkpt lat="-20.03628" lon="-44.009">
    <ele>1245.69</ele>
   </trkpt>
   <trkpt lat="-20.036260000000002" lon="-44.009080000000004">
    <ele>1245.43</ele>
   </trkpt>
   <trkpt lat="-20.03628" lon="-44.00916">
    <ele>1245.43</ele>
   </trkpt>
   <trkpt lat="-20.03637" lon="-44.0093">
    <ele>1244.94</ele>
   </trkpt>
   <trkpt lat="-20.03639" lon="-44.00945">
    <ele>1244.41</ele>
   </trkpt>
   <trkpt lat="-20.03647" lon="-44.0095">
    <ele>1244.25</ele>
   </trkpt>
   <trkpt lat="-20.036530000000003" lon="-44.009460000000004">
    <ele>1244.3600000000001</ele>
   </trkpt>
   <trkpt lat="-20.036640000000002" lon="-44.0095">
    <ele>1244.49</ele>
   </trkpt>
   <trkpt lat="-20.03667" lon="-44.00954">
    <ele>1244.93</ele>
   </trkpt>
   <trkpt lat="-20.03676" lon="-44.00954">
    <ele>1245.09</ele>
   </trkpt>
   <trkpt lat="-20.036890000000003" lon="-44.009640000000005">
    <ele>1244.85</ele>
   </trkpt>
   <trkpt lat="-20.036320000901714" lon="-44.01021000207891">
    <ele>1234.6200000000001</ele>
   </trkpt>
   <trkpt lat="-20.03575" lon="-44.010780000000004">
    <ele>1226.85</ele>
   </trkpt>
   <trkpt lat="-20.035590000000003" lon="-44.010830000000006">
    <ele>1225.6</ele>
   </trkpt>
   <trkpt lat="-20.03571" lon="-44.01091">
    <ele>1225.1000000000001</ele>
   </trkpt>
   <trkpt lat="-20.03499" lon="-44.01135">
    <ele>1218.6200000000001</ele>
   </trkpt>
   <trkpt lat="-20.034580000000002" lon="-44.011160000000004">
    <ele>1216.28</ele>
   </trkpt>
   <trkpt lat="-20.03385" lon="-44.01113">
    <ele>1209.68</ele>
   </trkpt>
   <trkpt lat="-20.033295000121342" lon="-44.010994999540245">
    <ele>1206.62</ele>
   </trkpt>
   <trkpt lat="-20.03274" lon="-44.01086">
    <ele>1202.19</ele>
   </trkpt>
   <trkpt lat="-20.032320000000002" lon="-44.01095">
    <ele>1199.48</ele>
   </trkpt>
   <trkpt lat="-20.03217" lon="-44.01095">
    <ele>1199.48</ele>
   </trkpt>
   <trkpt lat="-20.032040000000002" lon="-44.010920000000006">
    <ele>1198.16</ele>
   </trkpt>
   <trkpt lat="-20.03181" lon="-44.01113">
    <ele>1196.86</ele>
   </trkpt>
   <trkpt lat="-20.0317" lon="-44.01126">
    <ele>1195.98</ele>
   </trkpt>
   <trkpt lat="-20.03169" lon="-44.01165">
    <ele>1195.44</ele>
   </trkpt>
   <trkpt lat="-20.03168" lon="-44.01176">
    <ele>1195.26</ele>
   </trkpt>
   <trkpt lat="-20.0316" lon="-44.011900000000004">
    <ele>1195.14</ele>
   </trkpt>
   <trkpt lat="-20.03149" lon="-44.012040000000006">
    <ele>1194.73</ele>
   </trkpt>
   <trkpt lat="-20.0316" lon="-44.01256">
    <ele>1192.63</ele>
   </trkpt>
   <trkpt lat="-20.031650000000003" lon="-44.01301">
    <ele>1191.5800000000002</ele>
   </trkpt>
   <trkpt lat="-20.03172" lon="-44.01346">
    <ele>1196.77</ele>
   </trkpt>
   <trkpt lat="-20.03143" lon="-44.013540000000006">
    <ele>1194.96</ele>
   </trkpt>
   <trkpt lat="-20.03105" lon="-44.013720000000006">
    <ele>1196.9</ele>
   </trkpt>
   <trkpt lat="-20.03097" lon="-44.01391">
    <ele>1196.55</ele>
   </trkpt>
   <trkpt lat="-20.031233337451848" lon="-44.01476666378449">
    <ele>1200.3000000000002</ele>
   </trkpt>
   <trkpt lat="-20.03149667078177" lon="-44.01562333043996">
    <ele>1200.3000000000002</ele>
   </trkpt>
   <trkpt lat="-20.031760000000002" lon="-44.01648">
    <ele>1207.5200000000002</ele>
   </trkpt>
   <trkpt lat="-20.031155000823556" lon="-44.01704000220876">
    <ele>1210.88</ele>
   </trkpt>
   <trkpt lat="-20.03055" lon="-44.0176">
    <ele>1218.5600000000002</ele>
   </trkpt>
   <trkpt lat="-20.03001" lon="-44.016960000000005">
    <ele>1218.88</ele>
   </trkpt>
   <trkpt lat="-20.029880000000002" lon="-44.016540000000006">
    <ele>1217.13</ele>
   </trkpt>
   <trkpt lat="-20.02955" lon="-44.01641">
    <ele>1212.79</ele>
   </trkpt>
   <trkpt lat="-20.029420000000002" lon="-44.01652000000001">
    <ele>1213.15</ele>
   </trkpt>
   <trkpt lat="-20.02937" lon="-44.016850000000005">
    <ele>1214.5400000000002</ele>
   </trkpt>
   <trkpt lat="-20.02955" lon="-44.01719000000001">
    <ele>1213.63</ele>
   </trkpt>
   <trkpt lat="-20.02981" lon="-44.01715">
    <ele>1216.97</ele>
   </trkpt>
   <trkpt lat="-20.02984" lon="-44.017320000000005">
    <ele>1216.39</ele>
   </trkpt>
   <trkpt lat="-20.030275001226965" lon="-44.01796999826139">
    <ele>1215.1000000000001</ele>
   </trkpt>
   <trkpt lat="-20.030710000000003" lon="-44.018620000000006">
    <ele>1225.1200000000001</ele>
   </trkpt>
   <trkpt lat="-20.031326666796055" lon="-44.01873666576107">
    <ele>1216.55</ele>
   </trkpt>
   <trkpt lat="-20.03194333351565" lon="-44.018853332437736">
    <ele>1216.55</ele>
   </trkpt>
   <trkpt lat="-20.03256" lon="-44.01897">
    <ele>1201.0100000000002</ele>
   </trkpt>
   <trkpt lat="-20.032390000997054" lon="-44.01836499923547">
    <ele>1208.0000000000002</ele>
   </trkpt>
   <trkpt lat="-20.032220000000002" lon="-44.01776">
    <ele>1208.0000000000002</ele>
   </trkpt>
   <trkpt lat="-20.032000000953882" lon="-44.017149998893345">
    <ele>1200.44</ele>
   </trkpt>
   <trkpt lat="-20.03178" lon="-44.016540000000006">
    <ele>1200.44</ele>
   </trkpt>
   <trkpt lat="-20.03218" lon="-44.0163">
    <ele>1198.55</ele>
   </trkpt>
   <trkpt lat="-20.032690000000002" lon="-44.0161">
    <ele>1198.73</ele>
   </trkpt>
   <trkpt lat="-20.03282" lon="-44.01628">
    <ele>1199.09</ele>
   </trkpt>
   <trkpt lat="-20.03303" lon="-44.01693">
    <ele>1200.1200000000001</ele>
   </trkpt>
   <trkpt lat="-20.03312" lon="-44.017070000000004">
    <ele>1200.1200000000001</ele>
   </trkpt>
   <trkpt lat="-20.03322" lon="-44.017340000000004">
    <ele>1200.72</ele>
   </trkpt>
   <trkpt lat="-20.03338" lon="-44.017540000000004">
    <ele>1200.92</ele>
   </trkpt>
   <trkpt lat="-20.033440000000002" lon="-44.017590000000006">
    <ele>1200.92</ele>
   </trkpt>
   <trkpt lat="-20.03355" lon="-44.01776">
    <ele>1200.8500000000001</ele>
   </trkpt>
   <trkpt lat="-20.03357" lon="-44.01785">
    <ele>1200.6499999999999</ele>
   </trkpt>
   <trkpt lat="-20.03355" lon="-44.01789">
    <ele>1200.6499999999999</ele>
   </trkpt>
   <trkpt lat="-20.03356" lon="-44.018010000000004">
    <ele>1200.6499999999999</ele>
   </trkpt>
   <trkpt lat="-20.033450000000002" lon="-44.018390000000004">
    <ele>1199.69</ele>
   </trkpt>
   <trkpt lat="-20.0332" lon="-44.01899">
    <ele>1197.33</ele>
   </trkpt>
   <trkpt lat="-20.033060000000003" lon="-44.01926">
    <ele>1196.02</ele>
   </trkpt>
   <trkpt lat="-20.03284" lon="-44.01943000000001">
    <ele>1194.6000000000001</ele>
   </trkpt>
   <trkpt lat="-20.032970000000002" lon="-44.01975">
    <ele>1201.57</ele>
   </trkpt>
   <trkpt lat="-20.032890000000002" lon="-44.01991">
    <ele>1204.15</ele>
   </trkpt>
   <trkpt lat="-20.03294" lon="-44.02004">
    <ele>1205.21</ele>
   </trkpt>
   <trkpt lat="-20.032980000000002" lon="-44.02018">
    <ele>1206.88</ele>
   </trkpt>
   <trkpt lat="-20.03271" lon="-44.0206">
    <ele>1211.5500000000002</ele>
   </trkpt>
   <trkpt lat="-20.03271" lon="-44.020680000000006">
    <ele>1211.68</ele>
   </trkpt>
   <trkpt lat="-20.03271" lon="-44.02069">
    <ele>1211.68</ele>
   </trkpt>
   <trkpt lat="-20.03281" lon="-44.02071">
    <ele>1211.54</ele>
   </trkpt>
   <trkpt lat="-20.03321" lon="-44.02033">
    <ele>1205.17</ele>
   </trkpt>
   <trkpt lat="-20.03356500094387" lon="-44.019750001311905">
    <ele>1201.78</ele>
   </trkpt>
   <trkpt lat="-20.033920000000002" lon="-44.01917">
    <ele>1200.2400000000002</ele>
   </trkpt>
   <trkpt lat="-20.0345" lon="-44.0193">
    <ele>1195.4600000000003</ele>
   </trkpt>
   <trkpt lat="-20.03451" lon="-44.0193">
    <ele>1195.4600000000003</ele>
   </trkpt>
   <trkpt lat="-20.034470000000002" lon="-44.01955">
    <ele>1197.9700000000003</ele>
   </trkpt>
   <trkpt lat="-20.03395" lon="-44.02006">
    <ele>1204.53</ele>
   </trkpt>
   <trkpt lat="-20.03397" lon="-44.02098">
    <ele>1208.93</ele>
   </trkpt>
   <trkpt lat="-20.03388" lon="-44.02116">
    <ele>1209.57</ele>
   </trkpt>
   <trkpt lat="-20.03366" lon="-44.0212">
    <ele>1212.3400000000001</ele>
   </trkpt>
   <trkpt lat="-20.033450000000002" lon="-44.02147">
    <ele>1213.81</ele>
   </trkpt>
   <trkpt lat="-20.033450000000002" lon="-44.02158">
    <ele>1214.3700000000001</ele>
   </trkpt>
   <trkpt lat="-20.03347" lon="-44.021640000000005">
    <ele>1214.6100000000001</ele>
   </trkpt>
   <trkpt lat="-20.03348" lon="-44.021660000000004">
    <ele>1214.65</ele>
   </trkpt>
   <trkpt lat="-20.03415666713696" lon="-44.02193999760072">
    <ele>1212.9</ele>
   </trkpt>
   <trkpt lat="-20.03483333383352" lon="-44.022219997613036">
    <ele>1210.7800000000002</ele>
   </trkpt>
   <trkpt lat="-20.035510000000002" lon="-44.0225">
    <ele>1198.88</ele>
   </trkpt>
   <trkpt lat="-20.03583" lon="-44.022710000000004">
    <ele>1182.2</ele>
   </trkpt>
   <trkpt lat="-20.03657" lon="-44.022890000000004">
    <ele>1163.73</ele>
   </trkpt>
   <trkpt lat="-20.03722" lon="-44.02309">
    <ele>1133.16</ele>
   </trkpt>
   <trkpt lat="-20.037380000000002" lon="-44.02317">
    <ele>1119.4</ele>
   </trkpt>
   <trkpt lat="-20.03744" lon="-44.02333">
    <ele>1114.69</ele>
   </trkpt>
   <trkpt lat="-20.03751" lon="-44.02333">
    <ele>1111.5000000000002</ele>
   </trkpt>
   <trkpt lat="-20.03754" lon="-44.02311">
    <ele>1107.5400000000002</ele>
   </trkpt>
   <trkpt lat="-20.03797" lon="-44.02302">
    <ele>1091.07</ele>
   </trkpt>
   <trkpt lat="-20.038130000000002" lon="-44.02273">
    <ele>1085.7400000000002</ele>
   </trkpt>
   <trkpt lat="-20.038670000000003" lon="-44.022800000000004">
    <ele>1093.2</ele>
   </trkpt>
   <trkpt lat="-20.03911" lon="-44.02248">
    <ele>1095.3700000000001</ele>
   </trkpt>
   <trkpt lat="-20.03922" lon="-44.022510000000004">
    <ele>1094.03</ele>
   </trkpt>
   <trkpt lat="-20.03931" lon="-44.02235">
    <ele>1094.44</ele>
   </trkpt>
   <trkpt lat="-20.039440000000003" lon="-44.02235">
    <ele>1095.7700000000002</ele>
   </trkpt>
   <trkpt lat="-20.039550000000002" lon="-44.02248">
    <ele>1098.3500000000001</ele>
   </trkpt>
   <trkpt lat="-20.03976" lon="-44.02259">
    <ele>1099.5000000000002</ele>
   </trkpt>
   <trkpt lat="-20.039800000000003" lon="-44.02257">
    <ele>1100.36</ele>
   </trkpt>
   <trkpt lat="-20.039920000000002" lon="-44.02268">
    <ele>1101.6200000000001</ele>
   </trkpt>
   <trkpt lat="-20.04022" lon="-44.02284">
    <ele>1103.63</ele>
   </trkpt>
   <trkpt lat="-20.04033" lon="-44.02284">
    <ele>1105.45</ele>
   </trkpt>
   <trkpt lat="-20.0405" lon="-44.02279">
    <ele>1106.92</ele>
   </trkpt>
   <trkpt lat="-20.04079" lon="-44.02261">
    <ele>1109.16</ele>
   </trkpt>
   <trkpt lat="-20.0408" lon="-44.0225">
    <ele>1108.7600000000002</ele>
   </trkpt>
   <trkpt lat="-20.0408" lon="-44.022400000000005">
    <ele>1108.3200000000002</ele>
   </trkpt>
   <trkpt lat="-20.04072" lon="-44.022310000000004">
    <ele>1107.3600000000001</ele>
   </trkpt>
   <trkpt lat="-20.0405" lon="-44.02206">
    <ele>1106.75</ele>
   </trkpt>
   <trkpt lat="-20.03994" lon="-44.02163">
    <ele>1112.33</ele>
   </trkpt>
   <trkpt lat="-20.03986" lon="-44.02152">
    <ele>1113.89</ele>
   </trkpt>
   <trkpt lat="-20.03985" lon="-44.02125">
    <ele>1115.92</ele>
   </trkpt>
   <trkpt lat="-20.03985" lon="-44.02107">
    <ele>1115.92</ele>
   </trkpt>
   <trkpt lat="-20.03986" lon="-44.02091">
    <ele>1117.3600000000001</ele>
   </trkpt>
   <trkpt lat="-20.03996" lon="-44.02062">
    <ele>1118.8200000000002</ele>
   </trkpt>
   <trkpt lat="-20.04007" lon="-44.02038">
    <ele>1120.4</ele>
   </trkpt>
   <trkpt lat="-20.040110000000002" lon="-44.02026">
    <ele>1121.28</ele>
   </trkpt>
   <trkpt lat="-20.03994" lon="-44.02004">
    <ele>1122.7600000000002</ele>
   </trkpt>
   <trkpt lat="-20.039920000000002" lon="-44.019800000000004">
    <ele>1126.18</ele>
   </trkpt>
   <trkpt lat="-20.03995" lon="-44.01944">
    <ele>1128.89</ele>
   </trkpt>
   <trkpt lat="-20.040010000000002" lon="-44.0193">
    <ele>1129.8300000000002</ele>
   </trkpt>
   <trkpt lat="-20.040190000000003" lon="-44.01906">
    <ele>1134.73</ele>
   </trkpt>
   <trkpt lat="-20.040480000000002" lon="-44.01881">
    <ele>1140.43</ele>
   </trkpt>
   <trkpt lat="-20.040570000000002" lon="-44.0187">
    <ele>1142.77</ele>
   </trkpt>
   <trkpt lat="-20.04061" lon="-44.01859">
    <ele>1144.2800000000002</ele>
   </trkpt>
   <trkpt lat="-20.04063" lon="-44.018390000000004">
    <ele>1147.44</ele>
   </trkpt>
   <trkpt lat="-20.04061" lon="-44.018190000000004">
    <ele>1148.7800000000002</ele>
   </trkpt>
   <trkpt lat="-20.040570000000002" lon="-44.01811">
    <ele>1150.08</ele>
   </trkpt>
   <trkpt lat="-20.03995" lon="-44.01769">
    <ele>1156.02</ele>
   </trkpt>
   <trkpt lat="-20.03986" lon="-44.0176">
    <ele>1156.32</ele>
   </trkpt>
   <trkpt lat="-20.039830000000002" lon="-44.01749">
    <ele>1156.0100000000002</ele>
   </trkpt>
   <trkpt lat="-20.03987" lon="-44.01711">
    <ele>1155.1100000000001</ele>
   </trkpt>
   <trkpt lat="-20.039830000000002" lon="-44.016870000000004">
    <ele>1155.3200000000002</ele>
   </trkpt>
   <trkpt lat="-20.03975" lon="-44.0168">
    <ele>1155.16</ele>
   </trkpt>
   <trkpt lat="-20.03948" lon="-44.016780000000004">
    <ele>1155.2</ele>
   </trkpt>
   <trkpt lat="-20.03921" lon="-44.01671">
    <ele>1156.02</ele>
   </trkpt>
   <trkpt lat="-20.03894" lon="-44.01648">
    <ele>1158.44</ele>
   </trkpt>
   <trkpt lat="-20.038520000000002" lon="-44.01601">
    <ele>1167.6000000000001</ele>
   </trkpt>
   <trkpt lat="-20.038140000000002" lon="-44.015690000000006">
    <ele>1172.8100000000002</ele>
   </trkpt>
   <trkpt lat="-20.03819" lon="-44.01556">
    <ele>1176.67</ele>
   </trkpt>
   <trkpt lat="-20.038210000000003" lon="-44.01545">
    <ele>1177.5</ele>
   </trkpt>
   <trkpt lat="-20.038210000000003" lon="-44.015420000000006">
    <ele>1177.5</ele>
   </trkpt>
   <trkpt lat="-20.03838" lon="-44.01514">
    <ele>1183.8600000000001</ele>
   </trkpt>
   <trkpt lat="-20.03845" lon="-44.01496">
    <ele>1188.22</ele>
   </trkpt>
   <trkpt lat="-20.03853" lon="-44.01485">
    <ele>1193.4600000000003</ele>
   </trkpt>
   <trkpt lat="-20.038520000000002" lon="-44.01465">
    <ele>1197.74</ele>
   </trkpt>
   <trkpt lat="-20.03883" lon="-44.01418">
    <ele>1217.8</ele>
   </trkpt>
   <trkpt lat="-20.039" lon="-44.01397">
    <ele>1224.3500000000001</ele>
   </trkpt>
   <trkpt lat="-20.039270000000002" lon="-44.01371">
    <ele>1232.1000000000001</ele>
   </trkpt>
   <trkpt lat="-20.03956" lon="-44.01368">
    <ele>1238.25</ele>
   </trkpt>
   <trkpt lat="-20.03976" lon="-44.01346">
    <ele>1249.06</ele>
   </trkpt>
   <trkpt lat="-20.03986" lon="-44.01346">
    <ele>1249.06</ele>
   </trkpt>
   <trkpt lat="-20.040480000000002" lon="-44.01319">
    <ele>1273.0800000000002</ele>
   </trkpt>
   <trkpt lat="-20.040770000000002" lon="-44.01312">
    <ele>1276.78</ele>
   </trkpt>
   <trkpt lat="-20.04117" lon="-44.013130000000004">
    <ele>1285.47</ele>
   </trkpt>
   <trkpt lat="-20.04172" lon="-44.01321">
    <ele>1303.53</ele>
   </trkpt>
   <trkpt lat="-20.0421" lon="-44.0131">
    <ele>1312.01</ele>
   </trkpt>
   <trkpt lat="-20.04231" lon="-44.0129">
    <ele>1316.81</ele>
   </trkpt>
   <trkpt lat="-20.04279" lon="-44.01279">
    <ele>1323.99</ele>
   </trkpt>
   <trkpt lat="-20.04298" lon="-44.01265">
    <ele>1325.71</ele>
   </trkpt>
   <trkpt lat="-20.04324" lon="-44.01243">
    <ele>1328.81</ele>
   </trkpt>
   <trkpt lat="-20.04389" lon="-44.01227">
    <ele>1340.5800000000002</ele>
   </trkpt>
   <trkpt lat="-20.044" lon="-44.01227">
    <ele>1344.5</ele>
   </trkpt>
   <trkpt lat="-20.044030000000003" lon="-44.01227">
    <ele>1344.5</ele>
   </trkpt>
   <trkpt lat="-20.044320000000003" lon="-44.012370000000004">
    <ele>1353.93</ele>
   </trkpt>
   <trkpt lat="-20.04474" lon="-44.01279">
    <ele>1363.8000000000002</ele>
   </trkpt>
   <trkpt lat="-20.045240000000003" lon="-44.013040000000004">
    <ele>1378.13</ele>
   </trkpt>
   <trkpt lat="-20.04594" lon="-44.01335">
    <ele>1398.39</ele>
   </trkpt>
   <trkpt lat="-20.04636" lon="-44.01337">
    <ele>1409.34</ele>
   </trkpt>
   <trkpt lat="-20.04643" lon="-44.01342">
    <ele>1409.34</ele>
   </trkpt>
   <trkpt lat="-20.04654" lon="-44.013870000000004">
    <ele>1420.8500000000001</ele>
   </trkpt>
   <trkpt lat="-20.04645" lon="-44.01402">
    <ele>1423.38</ele>
   </trkpt>
   <trkpt lat="-20.046580000992826" lon="-44.01462499933273">
    <ele>1426.42</ele>
   </trkpt>
   <trkpt lat="-20.04671" lon="-44.01523">
    <ele>1427.42</ele>
   </trkpt>
   <trkpt lat="-20.04699" lon="-44.01518">
    <ele>1432.86</ele>
   </trkpt>
   <trkpt lat="-20.04755" lon="-44.015130000000006">
    <ele>1441.2600000000002</ele>
   </trkpt>
   <trkpt lat="-20.04765" lon="-44.01534">
    <ele>1442.46</ele>
   </trkpt>
   <trkpt lat="-20.04804" lon="-44.01563">
    <ele>1443.9400000000003</ele>
   </trkpt>
   <trkpt lat="-20.04859" lon="-44.01617">
    <ele>1441.38</ele>
   </trkpt>
   <trkpt lat="-20.04895000068379" lon="-44.016664998858325">
    <ele>1440.5</ele>
   </trkpt>
   <trkpt lat="-20.049310000000002" lon="-44.017160000000004">
    <ele>1440.86</ele>
   </trkpt>
   <trkpt lat="-20.049670000000003" lon="-44.0176">
    <ele>1440.86</ele>
   </trkpt>
   <trkpt lat="-20.050350000047278" lon="-44.01773499941447">
    <ele>1436.9900000000002</ele>
   </trkpt>
   <trkpt lat="-20.05103" lon="-44.01787">
    <ele>1428.66</ele>
   </trkpt>
   <trkpt lat="-20.05188" lon="-44.0176">
    <ele>1422.65</ele>
   </trkpt>
   <trkpt lat="-20.05251" lon="-44.01756">
    <ele>1427.5300000000002</ele>
   </trkpt>
   <trkpt lat="-20.05302" lon="-44.01756">
    <ele>1430.14</ele>
   </trkpt>
   <trkpt lat="-20.053710000000002" lon="-44.01787">
    <ele>1431.93</ele>
   </trkpt>
   <trkpt lat="-20.054100000000002" lon="-44.01834">
    <ele>1433.21</ele>
   </trkpt>
   <trkpt lat="-20.05423" lon="-44.01832">
    <ele>1433.46</ele>
   </trkpt>
   <trkpt lat="-20.054540000000003" lon="-44.01881">
    <ele>1434.13</ele>
   </trkpt>
   <trkpt lat="-20.054660000000002" lon="-44.01903">
    <ele>1435.3600000000001</ele>
   </trkpt>
   <trkpt lat="-20.054750000000002" lon="-44.019310000000004">
    <ele>1439.54</ele>
   </trkpt>
   <trkpt lat="-20.05485000100484" lon="-44.019909999574814">
    <ele>1442.1000000000001</ele>
   </trkpt>
   <trkpt lat="-20.05495" lon="-44.02051">
    <ele>1443.99</ele>
   </trkpt>
   <trkpt lat="-20.05497" lon="-44.0208">
    <ele>1442.69</ele>
   </trkpt>
   <trkpt lat="-20.0549" lon="-44.02103">
    <ele>1439.7900000000002</ele>
   </trkpt>
   <trkpt lat="-20.05477" lon="-44.021330000000006">
    <ele>1437.1</ele>
   </trkpt>
   <trkpt lat="-20.05527" lon="-44.02158">
    <ele>1444.7</ele>
   </trkpt>
   <trkpt lat="-20.055490000000002" lon="-44.02221">
    <ele>1432.3600000000001</ele>
   </trkpt>
   <trkpt lat="-20.05565" lon="-44.02248">
    <ele>1425.18</ele>
   </trkpt>
   <trkpt lat="-20.055880000000002" lon="-44.02275">
    <ele>1415.0</ele>
   </trkpt>
   <trkpt lat="-20.056040000000003" lon="-44.02286">
    <ele>1408.91</ele>
   </trkpt>
   <trkpt lat="-20.05612" lon="-44.022960000000005">
    <ele>1406.1100000000001</ele>
   </trkpt>
   <trkpt lat="-20.05627" lon="-44.023070000000004">
    <ele>1401.8100000000002</ele>
   </trkpt>
   <trkpt lat="-20.05639" lon="-44.02319000000001">
    <ele>1398.2500000000002</ele>
   </trkpt>
   <trkpt lat="-20.05648" lon="-44.023250000000004">
    <ele>1396.0800000000002</ele>
   </trkpt>
   <trkpt lat="-20.05677" lon="-44.02322">
    <ele>1388.5500000000002</ele>
   </trkpt>
   <trkpt lat="-20.05693" lon="-44.023230000000005">
    <ele>1383.9</ele>
   </trkpt>
   <trkpt lat="-20.057090000000002" lon="-44.0232">
    <ele>1380.13</ele>
   </trkpt>
   <trkpt lat="-20.05751" lon="-44.02297">
    <ele>1374.24</ele>
   </trkpt>
   <trkpt lat="-20.057660000000002" lon="-44.02277">
    <ele>1376.02</ele>
   </trkpt>
   <trkpt lat="-20.05806" lon="-44.0227">
    <ele>1366.2800000000002</ele>
   </trkpt>
   <trkpt lat="-20.058040000000002" lon="-44.02257">
    <ele>1366.74</ele>
   </trkpt>
   <trkpt lat="-20.057940000000002" lon="-44.02223">
    <ele>1369.24</ele>
   </trkpt>
   <trkpt lat="-20.05787" lon="-44.02176">
    <ele>1372.2800000000002</ele>
   </trkpt>
   <trkpt lat="-20.05787" lon="-44.02143">
    <ele>1376.21</ele>
   </trkpt>
   <trkpt lat="-20.057750000000002" lon="-44.02127">
    <ele>1377.4</ele>
   </trkpt>
   <trkpt lat="-20.05759" lon="-44.021190000000004">
    <ele>1378.5200000000002</ele>
   </trkpt>
   <trkpt lat="-20.05722" lon="-44.02109">
    <ele>1381.49</ele>
   </trkpt>
   <trkpt lat="-20.05704" lon="-44.02096">
    <ele>1382.54</ele>
   </trkpt>
   <trkpt lat="-20.056910000000002" lon="-44.02065">
    <ele>1385.65</ele>
   </trkpt>
   <trkpt lat="-20.056900000000002" lon="-44.02047">
    <ele>1386.33</ele>
   </trkpt>
   <trkpt lat="-20.05695" lon="-44.020360000000004">
    <ele>1386.7600000000002</ele>
   </trkpt>
   <trkpt lat="-20.05704" lon="-44.02031">
    <ele>1386.88</ele>
   </trkpt>
   <trkpt lat="-20.0575" lon="-44.02013">
    <ele>1387.2300000000002</ele>
   </trkpt>
   <trkpt lat="-20.057560000000002" lon="-44.02004">
    <ele>1387.49</ele>
   </trkpt>
   <trkpt lat="-20.05761" lon="-44.01977">
    <ele>1388.98</ele>
   </trkpt>
   <trkpt lat="-20.057660000000002" lon="-44.01948">
    <ele>1391.2600000000002</ele>
   </trkpt>
   <trkpt lat="-20.05761" lon="-44.01906">
    <ele>1393.25</ele>
   </trkpt>
   <trkpt lat="-20.05733" lon="-44.018280000000004">
    <ele>1401.1200000000001</ele>
   </trkpt>
   <trkpt lat="-20.057180000000002" lon="-44.01805">
    <ele>1402.8100000000002</ele>
   </trkpt>
   <trkpt lat="-20.05671000073895" lon="-44.01756999865563">
    <ele>1400.19</ele>
   </trkpt>
   <trkpt lat="-20.056240000000003" lon="-44.01709">
    <ele>1392.66</ele>
   </trkpt>
   <trkpt lat="-20.056160000000002" lon="-44.01691">
    <ele>1391.61</ele>
   </trkpt>
   <trkpt lat="-20.05612" lon="-44.01639">
    <ele>1388.43</ele>
   </trkpt>
   <trkpt lat="-20.056060000000002" lon="-44.016220000000004">
    <ele>1388.3700000000001</ele>
   </trkpt>
   <trkpt lat="-20.05628" lon="-44.016020000000005">
    <ele>1390.47</ele>
   </trkpt>
   <trkpt lat="-20.05659" lon="-44.01581">
    <ele>1394.0100000000002</ele>
   </trkpt>
   <trkpt lat="-20.05698500035687" lon="-44.01544500093504">
    <ele>1399.0800000000002</ele>
   </trkpt>
   <trkpt lat="-20.057380000000002" lon="-44.015080000000005">
    <ele>1405.15</ele>
   </trkpt>
   <trkpt lat="-20.057560000000002" lon="-44.01469">
    <ele>1412.25</ele>
   </trkpt>
   <trkpt lat="-20.05807" lon="-44.013960000000004">
    <ele>1428.17</ele>
   </trkpt>
   <trkpt lat="-20.05833" lon="-44.01324">
    <ele>1441.68</ele>
   </trkpt>
   <trkpt lat="-20.05846" lon="-44.01297">
    <ele>1446.5</ele>
   </trkpt>
   <trkpt lat="-20.05863" lon="-44.01277">
    <ele>1450.91</ele>
   </trkpt>
   <trkpt lat="-20.05864" lon="-44.01247">
    <ele>1454.1000000000001</ele>
   </trkpt>
   <trkpt lat="-20.05855" lon="-44.01205">
    <ele>1455.7600000000002</ele>
   </trkpt>
   <trkpt lat="-20.058590000000002" lon="-44.01153">
    <ele>1458.8</ele>
   </trkpt>
   <trkpt lat="-20.05863" lon="-44.01104">
    <ele>1461.2900000000002</ele>
   </trkpt>
   <trkpt lat="-20.058750000000003" lon="-44.01048">
    <ele>1466.8500000000001</ele>
   </trkpt>
   <trkpt lat="-20.058960000000003" lon="-44.01019">
    <ele>1470.7500000000002</ele>
   </trkpt>
   <trkpt lat="-20.0591" lon="-44.0101">
    <ele>1472.0300000000002</ele>
   </trkpt>
   <trkpt lat="-20.0591" lon="-44.009660000000004">
    <ele>1474.67</ele>
   </trkpt>
   <trkpt lat="-20.05903" lon="-44.00934">
    <ele>1474.97</ele>
   </trkpt>
   <trkpt lat="-20.05892" lon="-44.00901">
    <ele>1474.7400000000002</ele>
   </trkpt>
   <trkpt lat="-20.05889" lon="-44.00833">
    <ele>1474.9</ele>
   </trkpt>
   <trkpt lat="-20.058770000000003" lon="-44.00798">
    <ele>1476.16</ele>
   </trkpt>
   <trkpt lat="-20.05874" lon="-44.00764">
    <ele>1477.17</ele>
   </trkpt>
   <trkpt lat="-20.05864" lon="-44.00748">
    <ele>1478.5000000000002</ele>
   </trkpt>
   <trkpt lat="-20.05865" lon="-44.0073">
    <ele>1479.13</ele>
   </trkpt>
   <trkpt lat="-20.05855" lon="-44.00715">
    <ele>1479.72</ele>
   </trkpt>
   <trkpt lat="-20.05855" lon="-44.00674">
    <ele>1481.4</ele>
   </trkpt>
   <trkpt lat="-20.058490000000003" lon="-44.00621">
    <ele>1484.6200000000001</ele>
   </trkpt>
   <trkpt lat="-20.058320000000002" lon="-44.00591">
    <ele>1486.93</ele>
   </trkpt>
   <trkpt lat="-20.05787" lon="-44.0054">
    <ele>1492.65</ele>
   </trkpt>
   <trkpt lat="-20.057750000000002" lon="-44.00507">
    <ele>1493.89</ele>
   </trkpt>
   <trkpt lat="-20.05769" lon="-44.00471">
    <ele>1493.02</ele>
   </trkpt>
   <trkpt lat="-20.057750000000002" lon="-44.0043">
    <ele>1492.5300000000002</ele>
   </trkpt>
   <trkpt lat="-20.05788" lon="-44.00397">
    <ele>1492.38</ele>
   </trkpt>
   <trkpt lat="-20.058040000000002" lon="-44.00372">
    <ele>1491.5</ele>
   </trkpt>
   <trkpt lat="-20.058120000000002" lon="-44.00341">
    <ele>1491.16</ele>
   </trkpt>
   <trkpt lat="-20.05798" lon="-44.00305">
    <ele>1491.8600000000001</ele>
   </trkpt>
   <trkpt lat="-20.05799" lon="-44.00285">
    <ele>1492.2600000000002</ele>
   </trkpt>
   <trkpt lat="-20.058175000855364" lon="-44.00231000053288">
    <ele>1493.48</ele>
   </trkpt>
   <trkpt lat="-20.05836" lon="-44.00177">
    <ele>1495.43</ele>
   </trkpt>
   <trkpt lat="-20.05846" lon="-44.00148">
    <ele>1496.69</ele>
   </trkpt>
   <trkpt lat="-20.058790000000002" lon="-44.000730000000004">
    <ele>1501.45</ele>
   </trkpt>
   <trkpt lat="-20.059000000655505" lon="-44.0002900003559">
    <ele>1502.5900000000001</ele>
   </trkpt>
   <trkpt lat="-20.05921" lon="-43.99985">
    <ele>1501.51</ele>
   </trkpt>
   <trkpt lat="-20.05947" lon="-43.99945">
    <ele>1500.42</ele>
   </trkpt>
   <trkpt lat="-20.059710000000003" lon="-43.999">
    <ele>1497.94</ele>
   </trkpt>
   <trkpt lat="-20.05986" lon="-43.99851">
    <ele>1495.3200000000002</ele>
   </trkpt>
   <trkpt lat="-20.060280000000002" lon="-43.99808">
    <ele>1491.2900000000002</ele>
   </trkpt>
   <trkpt lat="-20.0605" lon="-43.99779">
    <ele>1489.26</ele>
   </trkpt>
   <trkpt lat="-20.060785000747767" lon="-43.997295000796996">
    <ele>1483.23</ele>
   </trkpt>
   <trkpt lat="-20.06107" lon="-43.9968">
    <ele>1479.24</ele>
   </trkpt>
   <trkpt lat="-20.061506670228866" lon="-43.996003337780806">
    <ele>1468.28</ele>
   </trkpt>
   <trkpt lat="-20.0619433368885" lon="-43.995206671127065">
    <ele>1460.6000000000001</ele>
   </trkpt>
   <trkpt lat="-20.06238" lon="-43.99441">
    <ele>1451.0800000000002</ele>
   </trkpt>
   <trkpt lat="-20.062700000000003" lon="-43.994110000000006">
    <ele>1447.42</ele>
   </trkpt>
   <trkpt lat="-20.06293" lon="-43.993990000000004">
    <ele>1444.3400000000001</ele>
   </trkpt>
   <trkpt lat="-20.06325" lon="-43.99401">
    <ele>1438.96</ele>
   </trkpt>
   <trkpt lat="-20.064140000000002" lon="-43.99389">
    <ele>1423.2600000000002</ele>
   </trkpt>
   <trkpt lat="-20.06435" lon="-43.993790000000004">
    <ele>1420.0700000000002</ele>
   </trkpt>
   <trkpt lat="-20.06462" lon="-43.993500000000004">
    <ele>1411.91</ele>
   </trkpt>
   <trkpt lat="-20.06503" lon="-43.99282">
    <ele>1407.5900000000001</ele>
   </trkpt>
   <trkpt lat="-20.065170000000002" lon="-43.9923">
    <ele>1406.49</ele>
   </trkpt>
   <trkpt lat="-20.065360000000002" lon="-43.992140000000006">
    <ele>1403.61</ele>
   </trkpt>
   <trkpt lat="-20.06538" lon="-43.99213">
    <ele>1403.61</ele>
   </trkpt>
   <trkpt lat="-20.06566" lon="-43.99204">
    <ele>1398.7</ele>
   </trkpt>
   <trkpt lat="-20.06596" lon="-43.992020000000004">
    <ele>1394.7</ele>
   </trkpt>
   <trkpt lat="-20.066290000000002" lon="-43.99206">
    <ele>1391.5400000000002</ele>
   </trkpt>
   <trkpt lat="-20.06653" lon="-43.99197">
    <ele>1389.73</ele>
   </trkpt>
   <trkpt lat="-20.067125000338862" lon="-43.99165500116331">
    <ele>1389.0</ele>
   </trkpt>
   <trkpt lat="-20.06772" lon="-43.99134">
    <ele>1387.6200000000001</ele>
   </trkpt>
   <trkpt lat="-20.06811" lon="-43.99118000000001">
    <ele>1385.58</ele>
   </trkpt>
   <trkpt lat="-20.06856" lon="-43.99114">
    <ele>1392.0</ele>
   </trkpt>
   <trkpt lat="-20.06877" lon="-43.991060000000004">
    <ele>1396.7</ele>
   </trkpt>
   <trkpt lat="-20.06896" lon="-43.99114">
    <ele>1399.8700000000001</ele>
   </trkpt>
   <trkpt lat="-20.06914" lon="-43.991150000000005">
    <ele>1402.19</ele>
   </trkpt>
   <trkpt lat="-20.06931" lon="-43.9913">
    <ele>1407.0900000000001</ele>
   </trkpt>
   <trkpt lat="-20.06942" lon="-43.99132">
    <ele>1408.3500000000001</ele>
   </trkpt>
   <trkpt lat="-20.0696" lon="-43.99127">
    <ele>1409.5900000000001</ele>
   </trkpt>
   <trkpt lat="-20.06979" lon="-43.991290000000006">
    <ele>1411.7400000000002</ele>
   </trkpt>
   <trkpt lat="-20.070230000000002" lon="-43.992090000000005">
    <ele>1424.0100000000002</ele>
   </trkpt>
   <trkpt lat="-20.070320000000002" lon="-43.992290000000004">
    <ele>1426.38</ele>
   </trkpt>
   <trkpt lat="-20.070310000000003" lon="-43.99246">
    <ele>1427.39</ele>
   </trkpt>
   <trkpt lat="-20.070330000000002" lon="-43.99255">
    <ele>1427.5800000000002</ele>
   </trkpt>
   <trkpt lat="-20.070230000000002" lon="-43.99277">
    <ele>1427.07</ele>
   </trkpt>
   <trkpt lat="-20.06991" lon="-43.99331">
    <ele>1425.5000000000002</ele>
   </trkpt>
   <trkpt lat="-20.06963" lon="-43.99372">
    <ele>1424.9900000000002</ele>
   </trkpt>
   <trkpt lat="-20.0696" lon="-43.99387">
    <ele>1425.07</ele>
   </trkpt>
   <trkpt lat="-20.06959" lon="-43.993990000000004">
    <ele>1425.17</ele>
   </trkpt>
   <trkpt lat="-20.06961" lon="-43.9941">
    <ele>1425.0600000000002</ele>
   </trkpt>
   <trkpt lat="-20.0697" lon="-43.99421">
    <ele>1424.77</ele>
   </trkpt>
   <trkpt lat="-20.07" lon="-43.9941">
    <ele>1424.4500000000003</ele>
   </trkpt>
   <trkpt lat="-20.07017" lon="-43.9941">
    <ele>1424.0700000000002</ele>
   </trkpt>
   <trkpt lat="-20.070420000000002" lon="-43.99419">
    <ele>1422.9600000000003</ele>
   </trkpt>
   <trkpt lat="-20.0709" lon="-43.9943">
    <ele>1423.7</ele>
   </trkpt>
   <trkpt lat="-20.070990000000002" lon="-43.99437">
    <ele>1424.26</ele>
   </trkpt>
   <trkpt lat="-20.07111" lon="-43.994440000000004">
    <ele>1425.67</ele>
   </trkpt>
   <trkpt lat="-20.071360000000002" lon="-43.994460000000004">
    <ele>1428.64</ele>
   </trkpt>
   <trkpt lat="-20.07175" lon="-43.99441">
    <ele>1431.2</ele>
   </trkpt>
   <trkpt lat="-20.072400000093705" lon="-43.99436000020061">
    <ele>1432.0700000000002</ele>
   </trkpt>
   <trkpt lat="-20.073050000000002" lon="-43.994310000000006">
    <ele>1431.44</ele>
   </trkpt>
   <trkpt lat="-20.07307" lon="-43.99443">
    <ele>1431.44</ele>
   </trkpt>
   <trkpt lat="-20.0728" lon="-43.99466">
    <ele>1431.04</ele>
   </trkpt>
   <trkpt lat="-20.07269" lon="-43.99486">
    <ele>1430.4800000000002</ele>
   </trkpt>
   <trkpt lat="-20.07261" lon="-43.99517">
    <ele>1428.68</ele>
   </trkpt>
   <trkpt lat="-20.07259" lon="-43.99611">
    <ele>1424.3500000000001</ele>
   </trkpt>
   <trkpt lat="-20.07252" lon="-43.99649">
    <ele>1419.04</ele>
   </trkpt>
   <trkpt lat="-20.07262" lon="-43.99705">
    <ele>1415.24</ele>
   </trkpt>
   <trkpt lat="-20.072770000000002" lon="-43.997260000000004">
    <ele>1415.41</ele>
   </trkpt>
   <trkpt lat="-20.07308" lon="-43.997350000000004">
    <ele>1417.48</ele>
   </trkpt>
   <trkpt lat="-20.0731" lon="-43.997350000000004">
    <ele>1417.48</ele>
   </trkpt>
   <trkpt lat="-20.07308" lon="-43.997350000000004">
    <ele>1417.48</ele>
   </trkpt>
   <trkpt lat="-20.07318" lon="-43.99732">
    <ele>1418.26</ele>
   </trkpt>
   <trkpt lat="-20.07335" lon="-43.99723">
    <ele>1420.2800000000002</ele>
   </trkpt>
   <trkpt lat="-20.07336" lon="-43.997080000000004">
    <ele>1422.43</ele>
   </trkpt>
   <trkpt lat="-20.07327" lon="-43.99692">
    <ele>1424.2400000000002</ele>
   </trkpt>
   <trkpt lat="-20.0732" lon="-43.99672">
    <ele>1426.0000000000002</ele>
   </trkpt>
   <trkpt lat="-20.0731" lon="-43.996500000000005">
    <ele>1427.41</ele>
   </trkpt>
   <trkpt lat="-20.07297" lon="-43.99631">
    <ele>1428.0900000000001</ele>
   </trkpt>
   <trkpt lat="-20.07287" lon="-43.99604">
    <ele>1429.51</ele>
   </trkpt>
   <trkpt lat="-20.072860000000002" lon="-43.995850000000004">
    <ele>1430.13</ele>
   </trkpt>
   <trkpt lat="-20.0729" lon="-43.99566">
    <ele>1430.5800000000002</ele>
   </trkpt>
   <trkpt lat="-20.07308" lon="-43.99533">
    <ele>1431.0900000000001</ele>
   </trkpt>
   <trkpt lat="-20.073140000000002" lon="-43.994910000000004">
    <ele>1431.4</ele>
   </trkpt>
   <trkpt lat="-20.07336" lon="-43.99475">
    <ele>1431.4</ele>
   </trkpt>
   <trkpt lat="-20.07345" lon="-43.99459">
    <ele>1431.7700000000002</ele>
   </trkpt>
   <trkpt lat="-20.07364" lon="-43.99439">
    <ele>1431.81</ele>
   </trkpt>
   <trkpt lat="-20.07364" lon="-43.9943">
    <ele>1431.78</ele>
   </trkpt>
   <trkpt lat="-20.073420000000002" lon="-43.99416">
    <ele>1431.45</ele>
   </trkpt>
   <trkpt lat="-20.0741" lon="-43.99392">
    <ele>1432.18</ele>
   </trkpt>
   <trkpt lat="-20.07448" lon="-43.99383">
    <ele>1430.53</ele>
   </trkpt>
   <trkpt lat="-20.07468" lon="-43.99383">
    <ele>1429.8600000000001</ele>
   </trkpt>
   <trkpt lat="-20.07486" lon="-43.99392">
    <ele>1429.43</ele>
   </trkpt>
   <trkpt lat="-20.07523" lon="-43.99421">
    <ele>1426.02</ele>
   </trkpt>
   <trkpt lat="-20.075760000000002" lon="-43.994550000000004">
    <ele>1420.16</ele>
   </trkpt>
   <trkpt lat="-20.07591" lon="-43.994260000000004">
    <ele>1416.25</ele>
   </trkpt>
   <trkpt lat="-20.07599" lon="-43.99405">
    <ele>1414.3100000000002</ele>
   </trkpt>
   <trkpt lat="-20.0762" lon="-43.99378">
    <ele>1412.49</ele>
   </trkpt>
   <trkpt lat="-20.076320000000003" lon="-43.99356">
    <ele>1410.5</ele>
   </trkpt>
   <trkpt lat="-20.07648" lon="-43.99293">
    <ele>1405.65</ele>
   </trkpt>
   <trkpt lat="-20.07648" lon="-43.99251">
    <ele>1402.29</ele>
   </trkpt>
   <trkpt lat="-20.07655" lon="-43.992230000000006">
    <ele>1400.5100000000002</ele>
   </trkpt>
   <trkpt lat="-20.07655" lon="-43.99222">
    <ele>1400.49</ele>
   </trkpt>
   <trkpt lat="-20.07648" lon="-43.99188">
    <ele>1398.5700000000002</ele>
   </trkpt>
   <trkpt lat="-20.07647" lon="-43.99159">
    <ele>1396.8700000000001</ele>
   </trkpt>
   <trkpt lat="-20.07636" lon="-43.99127">
    <ele>1395.5300000000002</ele>
   </trkpt>
   <trkpt lat="-20.076130000000003" lon="-43.99081">
    <ele>1393.17</ele>
   </trkpt>
   <trkpt lat="-20.07598" lon="-43.99036">
    <ele>1389.64</ele>
   </trkpt>
   <trkpt lat="-20.07542" lon="-43.990050000000004">
    <ele>1386.51</ele>
   </trkpt>
   <trkpt lat="-20.075300000000002" lon="-43.98991">
    <ele>1383.61</ele>
   </trkpt>
   <trkpt lat="-20.07513" lon="-43.9896">
    <ele>1381.85</ele>
   </trkpt>
   <trkpt lat="-20.074840000000002" lon="-43.98951">
    <ele>1379.72</ele>
   </trkpt>
   <trkpt lat="-20.074370000000002" lon="-43.9894">
    <ele>1375.5000000000002</ele>
   </trkpt>
   <trkpt lat="-20.07412" lon="-43.98928">
    <ele>1375.5000000000002</ele>
   </trkpt>
   <trkpt lat="-20.07375" lon="-43.98886">
    <ele>1370.5200000000002</ele>
   </trkpt>
   <trkpt lat="-20.07363" lon="-43.988780000000006">
    <ele>1367.1700000000003</ele>
   </trkpt>
   <trkpt lat="-20.073400000000003" lon="-43.989140000000006">
    <ele>1367.6000000000001</ele>
   </trkpt>
   <trkpt lat="-20.07319" lon="-43.989450000000005">
    <ele>1371.3700000000001</ele>
   </trkpt>
   <trkpt lat="-20.07238125000314" lon="-43.98944499981951">
    <ele>1372.39</ele>
   </trkpt>
   <trkpt lat="-20.07157250000613" lon="-43.989439999690596">
    <ele>1388.3700000000001</ele>
   </trkpt>
   <trkpt lat="-20.07076375000899" lon="-43.989434999613266">
    <ele>1390.16</ele>
   </trkpt>
   <trkpt lat="-20.069955000011696" lon="-43.98942999958751">
    <ele>1390.16</ele>
   </trkpt>
   <trkpt lat="-20.069146250014267" lon="-43.98942499961331">
    <ele>1379.2600000000002</ele>
   </trkpt>
   <trkpt lat="-20.0683375000167" lon="-43.98941999969069">
    <ele>1373.96</ele>
   </trkpt>
   <trkpt lat="-20.067528750018994" lon="-43.98941499981963">
    <ele>1373.96</ele>
   </trkpt>
   <trkpt lat="-20.06672" lon="-43.98941000000001">
    <ele>1378.69</ele>
   </trkpt>
   <trkpt lat="-20.066024001028786" lon="-43.98971400540017">
    <ele>1378.94</ele>
   </trkpt>
   <trkpt lat="-20.065328001537743" lon="-43.990018008102496">
    <ele>1390.16</ele>
   </trkpt>
   <trkpt lat="-20.064632001526892" lon="-43.9903220081071">
    <ele>1416.2700000000002</ele>
   </trkpt>
   <trkpt lat="-20.06393600099625" lon="-43.990626005414114">
    <ele>1416.2700000000002</ele>
   </trkpt>
   <trkpt lat="-20.06324" lon="-43.990930000000006">
    <ele>1435.3200000000002</ele>
   </trkpt>
   <trkpt lat="-20.06269500003902" lon="-43.991025000327646">
    <ele>1422.86</ele>
   </trkpt>
   <trkpt lat="-20.062150000000003" lon="-43.99112">
    <ele>1422.86</ele>
   </trkpt>
   <trkpt lat="-20.06203" lon="-43.99036">
    <ele>1411.72</ele>
   </trkpt>
   <trkpt lat="-20.062025000817503" lon="-43.98981999971746">
    <ele>1406.93</ele>
   </trkpt>
   <trkpt lat="-20.06202" lon="-43.98928">
    <ele>1399.28</ele>
   </trkpt>
   <trkpt lat="-20.06182" lon="-43.98854">
    <ele>1389.8600000000001</ele>
   </trkpt>
   <trkpt lat="-20.06173" lon="-43.98845">
    <ele>1389.96</ele>
   </trkpt>
   <trkpt lat="-20.06171" lon="-43.98847000000001">
    <ele>1389.96</ele>
   </trkpt>
   <trkpt lat="-20.06161" lon="-43.98823">
    <ele>1387.7400000000002</ele>
   </trkpt>
   <trkpt lat="-20.06156" lon="-43.988200000000006">
    <ele>1385.8300000000002</ele>
   </trkpt>
   <trkpt lat="-20.06175" lon="-43.98787">
    <ele>1383.92</ele>
   </trkpt>
   <trkpt lat="-20.06103333444686" lon="-43.98742666262179">
    <ele>1384.47</ele>
   </trkpt>
   <trkpt lat="-20.06031666778843" lon="-43.98698332929362">
    <ele>1382.06</ele>
   </trkpt>
   <trkpt lat="-20.059600000000003" lon="-43.986540000000005">
    <ele>1381.3700000000001</ele>
   </trkpt>
   <trkpt lat="-20.05993000099438" lon="-43.985935001336145">
    <ele>1385.97</ele>
   </trkpt>
   <trkpt lat="-20.060260000000003" lon="-43.985330000000005">
    <ele>1394.13</ele>
   </trkpt>
   <trkpt lat="-20.059600000000003" lon="-43.984910000000006">
    <ele>1396.6900000000003</ele>
   </trkpt>
  </trkseg>
 </trk>
</gpx>
