<?xml version="1.0" encoding="UTF-8"?>
<gpx creator="StravaGPX" version="1.1" xmlns="http://www.topografix.com/GPX/1/1" xmlns:xsi="http://www.w3.org/2001/XMLSchema-instance" xsi:schemaLocation="http://www.topografix.com/GPX/1/1 http://www.topografix.com/GPX/1/1/gpx.xsd">
 <metadata>
  <name>Corrida matinal</name>
  <author>
   <name>Felipe Desiderio</name>
  </author>
  <copyright author="OpenStreetMap contributors">
   <year>2020</year>
   <license>https://www.openstreetmap.org/copyright</license>
  </copyright>
 </metadata>
 <trk>
  <name>Corrida matinal</name>
  <link href=""/>
  <type>running</type>
  <trkseg>
   <trkpt lat="-19.63034" lon="-43.89184">
    <ele>741.6100000000001</ele>
   </trkpt>
   <trkpt lat="-19.63042" lon="-43.89206">
    <ele>741.6100000000001</ele>
   </trkpt>
   <trkpt lat="-19.630560000000003" lon="-43.892320000000005">
    <ele>741.69</ele>
   </trkpt>
   <trkpt lat="-19.63071" lon="-43.89253">
    <ele>741.6400000000001</ele>
   </trkpt>
   <trkpt lat="-19.631" lon="-43.89269">
    <ele>741.68</ele>
   </trkpt>
   <trkpt lat="-19.63117" lon="-43.89269">
    <ele>741.68</ele>
   </trkpt>
   <trkpt lat="-19.63172" lon="-43.89249">
    <ele>741.53</ele>
   </trkpt>
   <trkpt lat="-19.63192" lon="-43.89247">
    <ele>741.57</ele>
   </trkpt>
   <trkpt lat="-19.632160000000002" lon="-43.89262">
    <ele>741.92</ele>
   </trkpt>
   <trkpt lat="-19.632700000943288" lon="-43.89316999826076">
    <ele>742.3100000000001</ele>
   </trkpt>
   <trkpt lat="-19.63324" lon="-43.89372">
    <ele>742.0600000000001</ele>
   </trkpt>
   <trkpt lat="-19.63334" lon="-43.8939">
    <ele>742.11</ele>
   </trkpt>
   <trkpt lat="-19.633555000996846" lon="-43.89448999930758">
    <ele>742.3100000000001</ele>
   </trkpt>
   <trkpt lat="-19.633770000000002" lon="-43.89508">
    <ele>742.4300000000001</ele>
   </trkpt>
   <trkpt lat="-19.63408" lon="-43.89591">
    <ele>742.84</ele>
   </trkpt>
   <trkpt lat="-19.63426" lon="-43.8962">
    <ele>742.89</ele>
   </trkpt>
   <trkpt lat="-19.634715000708024" lon="-43.89670499857333">
    <ele>742.97</ele>
   </trkpt>
   <trkpt lat="-19.635170000000002" lon="-43.89721">
    <ele>743.45</ele>
   </trkpt>
   <trkpt lat="-19.63529" lon="-43.89739">
    <ele>743.44</ele>
   </trkpt>
   <trkpt lat="-19.635655001426855" lon="-43.89811499830271">
    <ele>743.2</ele>
   </trkpt>
   <trkpt lat="-19.636020000000002" lon="-43.89884000000001">
    <ele>743.04</ele>
   </trkpt>
   <trkpt lat="-19.63641" lon="-43.899300000000004">
    <ele>742.9100000000001</ele>
   </trkpt>
   <trkpt lat="-19.63688" lon="-43.89979">
    <ele>742.65</ele>
   </trkpt>
   <trkpt lat="-19.63726" lon="-43.900090000000006">
    <ele>742.47</ele>
   </trkpt>
   <trkpt lat="-19.63764" lon="-43.90032">
    <ele>742.2800000000001</ele>
   </trkpt>
   <trkpt lat="-19.63801" lon="-43.900510000000004">
    <ele>742.1800000000001</ele>
   </trkpt>
   <trkpt lat="-19.63819" lon="-43.900580000000005">
    <ele>742.1600000000001</ele>
   </trkpt>
   <trkpt lat="-19.63886" lon="-43.900710000000004">
    <ele>742.09</ele>
   </trkpt>
   <trkpt lat="-19.639000000000003" lon="-43.90077">
    <ele>742.09</ele>
   </trkpt>
   <trkpt lat="-19.639535000651712" lon="-43.90124499844246">
    <ele>741.74</ele>
   </trkpt>
   <trkpt lat="-19.64007" lon="-43.901720000000005">
    <ele>741.7600000000001</ele>
   </trkpt>
   <trkpt lat="-19.64045" lon="-43.90202">
    <ele>741.6600000000001</ele>
   </trkpt>
   <trkpt lat="-19.64074" lon="-43.90216">
    <ele>741.59</ele>
   </trkpt>
   <trkpt lat="-19.64104" lon="-43.90227">
    <ele>741.53</ele>
   </trkpt>
   <trkpt lat="-19.64167" lon="-43.90238">
    <ele>741.5600000000001</ele>
   </trkpt>
   <trkpt lat="-19.642179999985963" lon="-43.90248499965726">
    <ele>741.38</ele>
   </trkpt>
   <trkpt lat="-19.64269" lon="-43.902590000000004">
    <ele>741.33</ele>
   </trkpt>
   <trkpt lat="-19.642950000000003" lon="-43.90261">
    <ele>741.4300000000001</ele>
   </trkpt>
   <trkpt lat="-19.643140000000002" lon="-43.902590000000004">
    <ele>741.63</ele>
   </trkpt>
   <trkpt lat="-19.64328" lon="-43.90252">
    <ele>741.63</ele>
   </trkpt>
   <trkpt lat="-19.643430000000002" lon="-43.90241">
    <ele>741.7600000000001</ele>
   </trkpt>
   <trkpt lat="-19.643530000000002" lon="-43.90227">
    <ele>741.89</ele>
   </trkpt>
   <trkpt lat="-19.64358" lon="-43.90207">
    <ele>741.89</ele>
   </trkpt>
   <trkpt lat="-19.643680000000003" lon="-43.90162">
    <ele>742.53</ele>
   </trkpt>
   <trkpt lat="-19.643690000000003" lon="-43.901610000000005">
    <ele>742.53</ele>
   </trkpt>
   <trkpt lat="-19.64391" lon="-43.901630000000004">
    <ele>742.85</ele>
   </trkpt>
   <trkpt lat="-19.644170000000003" lon="-43.90178">
    <ele>743.94</ele>
   </trkpt>
   <trkpt lat="-19.64452" lon="-43.90203">
    <ele>745.75</ele>
   </trkpt>
   <trkpt lat="-19.644530000000003" lon="-43.90204000000001">
    <ele>745.75</ele>
   </trkpt>
   <trkpt lat="-19.644650000000002" lon="-43.902170000000005">
    <ele>746.53</ele>
   </trkpt>
   <trkpt lat="-19.645170001239862" lon="-43.90284499778839">
    <ele>749.57</ele>
   </trkpt>
   <trkpt lat="-19.645690000000002" lon="-43.90352">
    <ele>752.87</ele>
   </trkpt>
   <trkpt lat="-19.646130000632308" lon="-43.904024998532485">
    <ele>754.6700000000001</ele>
   </trkpt>
   <trkpt lat="-19.64657" lon="-43.90453">
    <ele>756.2500000000001</ele>
   </trkpt>
   <trkpt lat="-19.647180000000002" lon="-43.90518">
    <ele>757.58</ele>
   </trkpt>
   <trkpt lat="-19.647170000000003" lon="-43.90523">
    <ele>757.58</ele>
   </trkpt>
   <trkpt lat="-19.647370000000002" lon="-43.90532">
    <ele>757.71</ele>
   </trkpt>
   <trkpt lat="-19.647090000000002" lon="-43.9061">
    <ele>758.84</ele>
   </trkpt>
   <trkpt lat="-19.646860001576364" lon="-43.90685000100304">
    <ele>760.9800000000001</ele>
   </trkpt>
   <trkpt lat="-19.646630000000002" lon="-43.9076">
    <ele>759.8100000000001</ele>
   </trkpt>
   <trkpt lat="-19.646840001147005" lon="-43.90823999920879">
    <ele>752.23</ele>
   </trkpt>
   <trkpt lat="-19.64705" lon="-43.90888">
    <ele>747.8800000000001</ele>
   </trkpt>
   <trkpt lat="-19.64713" lon="-43.90898000000001">
    <ele>747.84</ele>
   </trkpt>
   <trkpt lat="-19.647370000000002" lon="-43.90883">
    <ele>747.57</ele>
   </trkpt>
   <trkpt lat="-19.647840000000002" lon="-43.908590000000004">
    <ele>747.26</ele>
   </trkpt>
   <trkpt lat="-19.64816" lon="-43.90872">
    <ele>747.38</ele>
   </trkpt>
   <trkpt lat="-19.64872" lon="-43.90858">
    <ele>747.77</ele>
   </trkpt>
   <trkpt lat="-19.64928" lon="-43.90899">
    <ele>747.5500000000001</ele>
   </trkpt>
   <trkpt lat="-19.64958" lon="-43.90927000000001">
    <ele>747.8</ele>
   </trkpt>
   <trkpt lat="-19.64984" lon="-43.90957">
    <ele>747.6</ele>
   </trkpt>
   <trkpt lat="-19.650250000019316" lon="-43.909814999286404">
    <ele>747.5400000000001</ele>
   </trkpt>
   <trkpt lat="-19.650660000000002" lon="-43.91006">
    <ele>747.4900000000001</ele>
   </trkpt>
   <trkpt lat="-19.65097" lon="-43.91035">
    <ele>747.53</ele>
   </trkpt>
   <trkpt lat="-19.65096" lon="-43.910740000000004">
    <ele>747.71</ele>
   </trkpt>
   <trkpt lat="-19.65099" lon="-43.91113000000001">
    <ele>748.44</ele>
   </trkpt>
   <trkpt lat="-19.650920000999488" lon="-43.911735000368694">
    <ele>748.23</ele>
   </trkpt>
   <trkpt lat="-19.650850000000002" lon="-43.91234">
    <ele>748.83</ele>
   </trkpt>
   <trkpt lat="-19.65016999995476" lon="-43.91223999956551">
    <ele>747.8</ele>
   </trkpt>
   <trkpt lat="-19.64949" lon="-43.91214">
    <ele>747.75</ele>
   </trkpt>
   <trkpt lat="-19.64927" lon="-43.91176">
    <ele>747.2</ele>
   </trkpt>
   <trkpt lat="-19.64919" lon="-43.9117">
    <ele>747.14</ele>
   </trkpt>
   <trkpt lat="-19.648543333998276" lon="-43.91134999717269">
    <ele>747.3400000000001</ele>
   </trkpt>
   <trkpt lat="-19.6478966673195" lon="-43.91099999716618">
    <ele>747.5200000000001</ele>
   </trkpt>
   <trkpt lat="-19.647250000000003" lon="-43.910650000000004">
    <ele>747.74</ele>
   </trkpt>
   <trkpt lat="-19.64692" lon="-43.91071">
    <ele>748.23</ele>
   </trkpt>
   <trkpt lat="-19.64676" lon="-43.91078">
    <ele>748.3900000000001</ele>
   </trkpt>
   <trkpt lat="-19.64664" lon="-43.91098">
    <ele>748.4300000000001</ele>
   </trkpt>
   <trkpt lat="-19.64644000196231" lon="-43.91181500089142">
    <ele>748.19</ele>
   </trkpt>
   <trkpt lat="-19.646240000000002" lon="-43.912650000000006">
    <ele>746.6</ele>
   </trkpt>
   <trkpt lat="-19.64563" lon="-43.91255">
    <ele>747.53</ele>
   </trkpt>
   <trkpt lat="-19.645410000000002" lon="-43.911660000000005">
    <ele>749.5</ele>
   </trkpt>
   <trkpt lat="-19.645560000821707" lon="-43.91112500039004">
    <ele>748.87</ele>
   </trkpt>
   <trkpt lat="-19.64571" lon="-43.910590000000006">
    <ele>748.6600000000001</ele>
   </trkpt>
   <trkpt lat="-19.646080000889206" lon="-43.91004500115555">
    <ele>748.48</ele>
   </trkpt>
   <trkpt lat="-19.64645" lon="-43.9095">
    <ele>747.98</ele>
   </trkpt>
   <trkpt lat="-19.646530000000002" lon="-43.90941">
    <ele>747.98</ele>
   </trkpt>
   <trkpt lat="-19.64668" lon="-43.90928">
    <ele>747.83</ele>
   </trkpt>
   <trkpt lat="-19.64696" lon="-43.90917">
    <ele>747.86</ele>
   </trkpt>
   <trkpt lat="-19.64703" lon="-43.90912">
    <ele>747.86</ele>
   </trkpt>
   <trkpt lat="-19.64713" lon="-43.90898000000001">
    <ele>747.84</ele>
   </trkpt>
   <trkpt lat="-19.64705" lon="-43.90888">
    <ele>747.8800000000001</ele>
   </trkpt>
   <trkpt lat="-19.646840001116672" lon="-43.908239999116354">
    <ele>752.23</ele>
   </trkpt>
   <trkpt lat="-19.646630000000002" lon="-43.9076">
    <ele>759.8100000000001</ele>
   </trkpt>
   <trkpt lat="-19.64686000153233" lon="-43.906850001146644">
    <ele>760.9800000000001</ele>
   </trkpt>
   <trkpt lat="-19.647090000000002" lon="-43.9061">
    <ele>758.84</ele>
   </trkpt>
   <trkpt lat="-19.647370000000002" lon="-43.90532">
    <ele>757.71</ele>
   </trkpt>
   <trkpt lat="-19.647170000000003" lon="-43.90523">
    <ele>757.58</ele>
   </trkpt>
   <trkpt lat="-19.647180000000002" lon="-43.90518">
    <ele>757.58</ele>
   </trkpt>
   <trkpt lat="-19.64657" lon="-43.90453">
    <ele>756.2500000000001</ele>
   </trkpt>
   <trkpt lat="-19.646130000777053" lon="-43.90402499869862">
    <ele>754.6700000000001</ele>
   </trkpt>
   <trkpt lat="-19.645690000000002" lon="-43.90352">
    <ele>752.87</ele>
   </trkpt>
   <trkpt lat="-19.645170001277997" lon="-43.90284499783791">
    <ele>749.57</ele>
   </trkpt>
   <trkpt lat="-19.644650000000002" lon="-43.902170000000005">
    <ele>746.53</ele>
   </trkpt>
   <trkpt lat="-19.64452" lon="-43.90203">
    <ele>745.9300000000001</ele>
   </trkpt>
   <trkpt lat="-19.644170000000003" lon="-43.90178">
    <ele>743.94</ele>
   </trkpt>
   <trkpt lat="-19.64365" lon="-43.90148000000001">
    <ele>743.0600000000001</ele>
   </trkpt>
   <trkpt lat="-19.643270000232448" lon="-43.90112999907382">
    <ele>741.7600000000001</ele>
   </trkpt>
   <trkpt lat="-19.64289" lon="-43.900780000000005">
    <ele>741.68</ele>
   </trkpt>
   <trkpt lat="-19.642770000000002" lon="-43.90059">
    <ele>741.7</ele>
   </trkpt>
   <trkpt lat="-19.64271" lon="-43.90039">
    <ele>741.75</ele>
   </trkpt>
   <trkpt lat="-19.64271" lon="-43.900380000000006">
    <ele>741.7600000000001</ele>
   </trkpt>
   <trkpt lat="-19.64272" lon="-43.90023">
    <ele>741.7600000000001</ele>
   </trkpt>
   <trkpt lat="-19.64279" lon="-43.900040000000004">
    <ele>741.68</ele>
   </trkpt>
   <trkpt lat="-19.64311" lon="-43.89943">
    <ele>741.7800000000001</ele>
   </trkpt>
   <trkpt lat="-19.643430000000002" lon="-43.89898">
    <ele>741.62</ele>
   </trkpt>
   <trkpt lat="-19.643620000000002" lon="-43.898720000000004">
    <ele>741.84</ele>
   </trkpt>
   <trkpt lat="-19.643945000362073" lon="-43.89835000076757">
    <ele>741.84</ele>
   </trkpt>
   <trkpt lat="-19.644270000000002" lon="-43.897980000000004">
    <ele>741.95</ele>
   </trkpt>
   <trkpt lat="-19.644830000000002" lon="-43.89744">
    <ele>742.1</ele>
   </trkpt>
   <trkpt lat="-19.64496" lon="-43.89726">
    <ele>742.04</ele>
   </trkpt>
   <trkpt lat="-19.64505" lon="-43.89703">
    <ele>741.96</ele>
   </trkpt>
   <trkpt lat="-19.645120000000002" lon="-43.896750000000004">
    <ele>741.97</ele>
   </trkpt>
   <trkpt lat="-19.64515" lon="-43.89647">
    <ele>742.11</ele>
   </trkpt>
   <trkpt lat="-19.645120000000002" lon="-43.89605">
    <ele>742.09</ele>
   </trkpt>
   <trkpt lat="-19.64481667111145" lon="-43.8951533299495">
    <ele>742.21</ele>
   </trkpt>
   <trkpt lat="-19.644513337779863" lon="-43.894256663288076">
    <ele>742.5400000000001</ele>
   </trkpt>
   <trkpt lat="-19.64421" lon="-43.89336">
    <ele>742.7</ele>
   </trkpt>
   <trkpt lat="-19.644170000000003" lon="-43.893100000000004">
    <ele>742.59</ele>
   </trkpt>
   <trkpt lat="-19.64411000119469" lon="-43.892439999655906">
    <ele>742.26</ele>
   </trkpt>
   <trkpt lat="-19.64405" lon="-43.891780000000004">
    <ele>742.23</ele>
   </trkpt>
   <trkpt lat="-19.644080000000002" lon="-43.89106">
    <ele>741.96</ele>
   </trkpt>
   <trkpt lat="-19.64412" lon="-43.8905">
    <ele>742.0300000000001</ele>
   </trkpt>
   <trkpt lat="-19.644280000000002" lon="-43.88958">
    <ele>742.0300000000001</ele>
   </trkpt>
   <trkpt lat="-19.6444" lon="-43.8892">
    <ele>741.8800000000001</ele>
   </trkpt>
   <trkpt lat="-19.644685000620687" lon="-43.8887200008791">
    <ele>741.85</ele>
   </trkpt>
   <trkpt lat="-19.64497" lon="-43.88824">
    <ele>742.0000000000001</ele>
   </trkpt>
   <trkpt lat="-19.64515" lon="-43.888020000000004">
    <ele>742.2200000000001</ele>
   </trkpt>
   <trkpt lat="-19.64564" lon="-43.88779">
    <ele>742.32</ele>
   </trkpt>
   <trkpt lat="-19.646050000000002" lon="-43.88754">
    <ele>742.3000000000001</ele>
   </trkpt>
   <trkpt lat="-19.64618" lon="-43.88743">
    <ele>742.3000000000001</ele>
   </trkpt>
   <trkpt lat="-19.64628" lon="-43.88729">
    <ele>742.2800000000001</ele>
   </trkpt>
   <trkpt lat="-19.64639" lon="-43.88705">
    <ele>742.2800000000001</ele>
   </trkpt>
   <trkpt lat="-19.646440000000002" lon="-43.88691">
    <ele>742.32</ele>
   </trkpt>
   <trkpt lat="-19.64645" lon="-43.886720000000004">
    <ele>742.32</ele>
   </trkpt>
   <trkpt lat="-19.646410000000003" lon="-43.886160000000004">
    <ele>742.4200000000001</ele>
   </trkpt>
   <trkpt lat="-19.646340000000002" lon="-43.886010000000006">
    <ele>742.3400000000001</ele>
   </trkpt>
   <trkpt lat="-19.64617" lon="-43.885740000000006">
    <ele>742.1700000000001</ele>
   </trkpt>
   <trkpt lat="-19.646160000000002" lon="-43.88573">
    <ele>742.1700000000001</ele>
   </trkpt>
   <trkpt lat="-19.64564" lon="-43.8855">
    <ele>741.77</ele>
   </trkpt>
   <trkpt lat="-19.64545" lon="-43.88546">
    <ele>741.74</ele>
   </trkpt>
   <trkpt lat="-19.64527" lon="-43.88546">
    <ele>741.75</ele>
   </trkpt>
   <trkpt lat="-19.64496" lon="-43.885490000000004">
    <ele>741.96</ele>
   </trkpt>
   <trkpt lat="-19.64452000020053" lon="-43.885765000759115">
    <ele>742.0300000000001</ele>
   </trkpt>
   <trkpt lat="-19.644080000000002" lon="-43.88604">
    <ele>742.1200000000001</ele>
   </trkpt>
   <trkpt lat="-19.64391" lon="-43.88611">
    <ele>742.11</ele>
   </trkpt>
   <trkpt lat="-19.643620000000002" lon="-43.88609">
    <ele>742.08</ele>
   </trkpt>
   <trkpt lat="-19.643024999980565" lon="-43.88615500024432">
    <ele>741.87</ele>
   </trkpt>
   <trkpt lat="-19.64243" lon="-43.88622">
    <ele>741.5600000000001</ele>
   </trkpt>
   <trkpt lat="-19.64225" lon="-43.88629">
    <ele>741.5600000000001</ele>
   </trkpt>
   <trkpt lat="-19.64206" lon="-43.8864">
    <ele>741.5400000000001</ele>
   </trkpt>
   <trkpt lat="-19.64189" lon="-43.88655000000001">
    <ele>741.5400000000001</ele>
   </trkpt>
   <trkpt lat="-19.641433335078396" lon="-43.88711333654853">
    <ele>741.46</ele>
   </trkpt>
   <trkpt lat="-19.640976668403365" lon="-43.88767666989212">
    <ele>741.47</ele>
   </trkpt>
   <trkpt lat="-19.640520000000002" lon="-43.88824">
    <ele>741.65</ele>
   </trkpt>
   <trkpt lat="-19.64028" lon="-43.88846">
    <ele>741.48</ele>
   </trkpt>
   <trkpt lat="-19.64007" lon="-43.88859">
    <ele>741.48</ele>
   </trkpt>
   <trkpt lat="-19.63962" lon="-43.88879">
    <ele>741.3700000000001</ele>
   </trkpt>
   <trkpt lat="-19.63944" lon="-43.88881000000001">
    <ele>741.2900000000001</ele>
   </trkpt>
   <trkpt lat="-19.63905" lon="-43.8888">
    <ele>741.3000000000001</ele>
   </trkpt>
   <trkpt lat="-19.63877" lon="-43.88875">
    <ele>741.3000000000001</ele>
   </trkpt>
   <trkpt lat="-19.63849" lon="-43.88866">
    <ele>741.23</ele>
   </trkpt>
   <trkpt lat="-19.637800000472396" lon="-43.88830499853844">
    <ele>741.5</ele>
   </trkpt>
   <trkpt lat="-19.63711" lon="-43.887950000000004">
    <ele>741.48</ele>
   </trkpt>
   <trkpt lat="-19.63701" lon="-43.887910000000005">
    <ele>741.48</ele>
   </trkpt>
   <trkpt lat="-19.636870000000002" lon="-43.88788">
    <ele>741.4000000000001</ele>
   </trkpt>
   <trkpt lat="-19.63662" lon="-43.88786">
    <ele>741.4000000000001</ele>
   </trkpt>
   <trkpt lat="-19.63642" lon="-43.88788">
    <ele>741.4000000000001</ele>
   </trkpt>
   <trkpt lat="-19.635810000000003" lon="-43.888000000000005">
    <ele>741.3700000000001</ele>
   </trkpt>
   <trkpt lat="-19.635640000000002" lon="-43.88801">
    <ele>741.38</ele>
   </trkpt>
   <trkpt lat="-19.63539" lon="-43.88799">
    <ele>741.32</ele>
   </trkpt>
   <trkpt lat="-19.63486000011616" lon="-43.88786499960469">
    <ele>741.23</ele>
   </trkpt>
   <trkpt lat="-19.634330000000002" lon="-43.88774">
    <ele>741.26</ele>
   </trkpt>
   <trkpt lat="-19.63379" lon="-43.88767000000001">
    <ele>741.08</ele>
   </trkpt>
   <trkpt lat="-19.633390000000002" lon="-43.88765">
    <ele>741.01</ele>
   </trkpt>
   <trkpt lat="-19.63298" lon="-43.88768">
    <ele>740.95</ele>
   </trkpt>
   <trkpt lat="-19.632150000091727" lon="-43.88779500058661">
    <ele>741.13</ele>
   </trkpt>
   <trkpt lat="-19.631320000000002" lon="-43.887910000000005">
    <ele>741.14</ele>
   </trkpt>
   <trkpt lat="-19.63089" lon="-43.88801">
    <ele>741.0000000000001</ele>
   </trkpt>
   <trkpt lat="-19.630000000000003" lon="-43.888130000000004">
    <ele>740.77</ele>
   </trkpt>
   <trkpt lat="-19.62927" lon="-43.888310000000004">
    <ele>740.6700000000001</ele>
   </trkpt>
   <trkpt lat="-19.628890000000002" lon="-43.88846">
    <ele>740.5600000000001</ele>
   </trkpt>
   <trkpt lat="-19.628780000000003" lon="-43.88855">
    <ele>740.57</ele>
   </trkpt>
   <trkpt lat="-19.62863" lon="-43.88889">
    <ele>740.96</ele>
   </trkpt>
   <trkpt lat="-19.62866" lon="-43.889250000000004">
    <ele>740.9300000000001</ele>
   </trkpt>
   <trkpt lat="-19.62873" lon="-43.88938">
    <ele>740.95</ele>
   </trkpt>
   <trkpt lat="-19.62882" lon="-43.88951">
    <ele>740.95</ele>
   </trkpt>
   <trkpt lat="-19.62902" lon="-43.889720000000004">
    <ele>741.08</ele>
   </trkpt>
  </trkseg>
 </trk>
</gpx>
