<?xml version="1.0" encoding="UTF-8"?>
<gpx creator="StravaGPX" version="1.1" xmlns="http://www.topografix.com/GPX/1/1" xmlns:xsi="http://www.w3.org/2001/XMLSchema-instance" xsi:schemaLocation="http://www.topografix.com/GPX/1/1 http://www.topografix.com/GPX/1/1/gpx.xsd">
 <metadata>
  <name>Minas Racer 2024</name>
  <author>
   <name>Felipe Desiderio</name>
  </author>
  <copyright author="OpenStreetMap contributors">
   <year>2020</year>
   <license>https://www.openstreetmap.org/copyright</license>
  </copyright>
 </metadata>
 <trk>
  <name>Minas Racer 2024</name>
  <link href=""/>
  <type>trail_running</type>
  <trkseg>
   <trkpt lat="-19.62378" lon="-43.88458000000001">
    <ele>768.7900000000001</ele>
   </trkpt>
   <trkpt lat="-19.623820000000002" lon="-43.8845">
    <ele>768.47</ele>
   </trkpt>
   <trkpt lat="-19.62383" lon="-43.88436">
    <ele>767.87</ele>
   </trkpt>
   <trkpt lat="-19.623810000000002" lon="-43.88423">
    <ele>767.7100000000002</ele>
   </trkpt>
   <trkpt lat="-19.623730000000002" lon="-43.884100000000004">
    <ele>767.7100000000002</ele>
   </trkpt>
   <trkpt lat="-19.62357" lon="-43.883970000000005">
    <ele>768.27</ele>
   </trkpt>
   <trkpt lat="-19.622970000496665" lon="-43.883549998438674">
    <ele>770.6800000000001</ele>
   </trkpt>
   <trkpt lat="-19.62237" lon="-43.88313">
    <ele>773.0600000000001</ele>
   </trkpt>
   <trkpt lat="-19.62234" lon="-43.88311">
    <ele>773.33</ele>
   </trkpt>
   <trkpt lat="-19.62226" lon="-43.88313">
    <ele>773.44</ele>
   </trkpt>
   <trkpt lat="-19.62218" lon="-43.88327">
    <ele>773.5200000000001</ele>
   </trkpt>
   <trkpt lat="-19.62159" lon="-43.88315">
    <ele>777.0100000000001</ele>
   </trkpt>
   <trkpt lat="-19.621560000000002" lon="-43.883100000000006">
    <ele>777.97</ele>
   </trkpt>
   <trkpt lat="-19.62143" lon="-43.883160000000004">
    <ele>780.99</ele>
   </trkpt>
   <trkpt lat="-19.62124" lon="-43.883120000000005">
    <ele>785.1700000000001</ele>
   </trkpt>
   <trkpt lat="-19.62094" lon="-43.882960000000004">
    <ele>789.07</ele>
   </trkpt>
   <trkpt lat="-19.62076" lon="-43.88282">
    <ele>787.1</ele>
   </trkpt>
   <trkpt lat="-19.62066" lon="-43.88277">
    <ele>786.95</ele>
   </trkpt>
   <trkpt lat="-19.620320000000003" lon="-43.88251">
    <ele>784.14</ele>
   </trkpt>
   <trkpt lat="-19.62003" lon="-43.882270000000005">
    <ele>783.48</ele>
   </trkpt>
   <trkpt lat="-19.619960000000003" lon="-43.882180000000005">
    <ele>783.2900000000001</ele>
   </trkpt>
   <trkpt lat="-19.619880000000002" lon="-43.88212">
    <ele>784.8900000000001</ele>
   </trkpt>
   <trkpt lat="-19.61981" lon="-43.882180000000005">
    <ele>787.3800000000001</ele>
   </trkpt>
   <trkpt lat="-19.61973" lon="-43.882290000000005">
    <ele>791.7400000000001</ele>
   </trkpt>
   <trkpt lat="-19.61963" lon="-43.88248">
    <ele>797.88</ele>
   </trkpt>
   <trkpt lat="-19.61963" lon="-43.88271">
    <ele>803.4100000000001</ele>
   </trkpt>
   <trkpt lat="-19.61955" lon="-43.88282">
    <ele>805.49</ele>
   </trkpt>
   <trkpt lat="-19.619480000000003" lon="-43.88290000000001">
    <ele>808.8100000000001</ele>
   </trkpt>
   <trkpt lat="-19.619490000000003" lon="-43.883030000000005">
    <ele>811.8400000000001</ele>
   </trkpt>
   <trkpt lat="-19.619410000000002" lon="-43.883390000000006">
    <ele>818.62</ele>
   </trkpt>
   <trkpt lat="-19.61942" lon="-43.88349">
    <ele>821.34</ele>
   </trkpt>
   <trkpt lat="-19.619380000000003" lon="-43.88371">
    <ele>823.07</ele>
   </trkpt>
   <trkpt lat="-19.619310000000002" lon="-43.88383">
    <ele>824.23</ele>
   </trkpt>
   <trkpt lat="-19.61917" lon="-43.88396">
    <ele>827.3600000000001</ele>
   </trkpt>
   <trkpt lat="-19.61905" lon="-43.884">
    <ele>829.76</ele>
   </trkpt>
   <trkpt lat="-19.61896" lon="-43.88396">
    <ele>830.5400000000001</ele>
   </trkpt>
   <trkpt lat="-19.61886" lon="-43.883900000000004">
    <ele>831.3000000000001</ele>
   </trkpt>
   <trkpt lat="-19.61881" lon="-43.88383">
    <ele>831.3000000000001</ele>
   </trkpt>
   <trkpt lat="-19.618720000000003" lon="-43.883770000000005">
    <ele>831.08</ele>
   </trkpt>
   <trkpt lat="-19.618640000000003" lon="-43.883680000000005">
    <ele>831.08</ele>
   </trkpt>
   <trkpt lat="-19.618440000000003" lon="-43.88353">
    <ele>833.6600000000001</ele>
   </trkpt>
   <trkpt lat="-19.61834" lon="-43.883480000000006">
    <ele>836.19</ele>
   </trkpt>
   <trkpt lat="-19.618180000000002" lon="-43.88336">
    <ele>839.64</ele>
   </trkpt>
   <trkpt lat="-19.61794" lon="-43.88288">
    <ele>837.19</ele>
   </trkpt>
   <trkpt lat="-19.617910000000002" lon="-43.88279000000001">
    <ele>835.3000000000001</ele>
   </trkpt>
   <trkpt lat="-19.617780000000003" lon="-43.88261000000001">
    <ele>835.9200000000001</ele>
   </trkpt>
   <trkpt lat="-19.617710000000002" lon="-43.88252000000001">
    <ele>837.0500000000001</ele>
   </trkpt>
   <trkpt lat="-19.617620000000002" lon="-43.882450000000006">
    <ele>838.6600000000001</ele>
   </trkpt>
   <trkpt lat="-19.617440000000002" lon="-43.88235">
    <ele>843.19</ele>
   </trkpt>
   <trkpt lat="-19.617440000000002" lon="-43.88221">
    <ele>842.38</ele>
   </trkpt>
   <trkpt lat="-19.61746" lon="-43.88208">
    <ele>839.73</ele>
   </trkpt>
   <trkpt lat="-19.617440000000002" lon="-43.881730000000005">
    <ele>839.01</ele>
   </trkpt>
   <trkpt lat="-19.617350000000002" lon="-43.88152">
    <ele>838.9300000000001</ele>
   </trkpt>
   <trkpt lat="-19.61719" lon="-43.88134">
    <ele>839.0300000000001</ele>
   </trkpt>
   <trkpt lat="-19.617140000000003" lon="-43.88121">
    <ele>837.28</ele>
   </trkpt>
   <trkpt lat="-19.61711" lon="-43.88101">
    <ele>837.58</ele>
   </trkpt>
   <trkpt lat="-19.61702" lon="-43.8808">
    <ele>839.57</ele>
   </trkpt>
   <trkpt lat="-19.61699" lon="-43.88058">
    <ele>838.57</ele>
   </trkpt>
   <trkpt lat="-19.61701" lon="-43.880480000000006">
    <ele>837.1500000000001</ele>
   </trkpt>
   <trkpt lat="-19.61719" lon="-43.88024">
    <ele>833.91</ele>
   </trkpt>
   <trkpt lat="-19.6174" lon="-43.880210000000005">
    <ele>831.03</ele>
   </trkpt>
   <trkpt lat="-19.617600000000003" lon="-43.88031">
    <ele>825.61</ele>
   </trkpt>
   <trkpt lat="-19.61768" lon="-43.880390000000006">
    <ele>823.24</ele>
   </trkpt>
   <trkpt lat="-19.617820000000002" lon="-43.880570000000006">
    <ele>816.8400000000001</ele>
   </trkpt>
   <trkpt lat="-19.61802" lon="-43.88065">
    <ele>809.9200000000001</ele>
   </trkpt>
   <trkpt lat="-19.61811" lon="-43.88071">
    <ele>807.7500000000001</ele>
   </trkpt>
   <trkpt lat="-19.618160000000003" lon="-43.88078">
    <ele>807.47</ele>
   </trkpt>
   <trkpt lat="-19.618460000000002" lon="-43.8806">
    <ele>795.4100000000001</ele>
   </trkpt>
   <trkpt lat="-19.61862" lon="-43.88044">
    <ele>788.6400000000001</ele>
   </trkpt>
   <trkpt lat="-19.618660000000002" lon="-43.88031">
    <ele>787.9100000000001</ele>
   </trkpt>
   <trkpt lat="-19.618640000000003" lon="-43.880010000000006">
    <ele>787.02</ele>
   </trkpt>
   <trkpt lat="-19.618660000000002" lon="-43.87995">
    <ele>781.73</ele>
   </trkpt>
   <trkpt lat="-19.61916" lon="-43.87935">
    <ele>780.6700000000001</ele>
   </trkpt>
   <trkpt lat="-19.61972" lon="-43.8789">
    <ele>780.0400000000001</ele>
   </trkpt>
   <trkpt lat="-19.619960000000003" lon="-43.87857">
    <ele>780.3100000000001</ele>
   </trkpt>
   <trkpt lat="-19.620350000000002" lon="-43.87848">
    <ele>780.5300000000001</ele>
   </trkpt>
   <trkpt lat="-19.62056" lon="-43.87783">
    <ele>788.33</ele>
   </trkpt>
   <trkpt lat="-19.62059" lon="-43.87762">
    <ele>793.21</ele>
   </trkpt>
   <trkpt lat="-19.62103" lon="-43.877460000000006">
    <ele>801.0200000000001</ele>
   </trkpt>
   <trkpt lat="-19.62105" lon="-43.87745">
    <ele>802.32</ele>
   </trkpt>
   <trkpt lat="-19.62076000082051" lon="-43.87691999912622">
    <ele>808.36</ele>
   </trkpt>
   <trkpt lat="-19.62047" lon="-43.87639">
    <ele>814.6600000000001</ele>
   </trkpt>
   <trkpt lat="-19.62019" lon="-43.87577">
    <ele>822.32</ele>
   </trkpt>
   <trkpt lat="-19.61981" lon="-43.87534">
    <ele>828.4</ele>
   </trkpt>
   <trkpt lat="-19.61933" lon="-43.87501">
    <ele>838.16</ele>
   </trkpt>
   <trkpt lat="-19.619030000000002" lon="-43.874680000000005">
    <ele>843.0200000000001</ele>
   </trkpt>
   <trkpt lat="-19.618750000000002" lon="-43.87462">
    <ele>848.7900000000001</ele>
   </trkpt>
   <trkpt lat="-19.618850000000002" lon="-43.87503">
    <ele>853.8500000000001</ele>
   </trkpt>
   <trkpt lat="-19.61878" lon="-43.8753">
    <ele>855.82</ele>
   </trkpt>
   <trkpt lat="-19.618640000000003" lon="-43.875600000000006">
    <ele>858.25</ele>
   </trkpt>
   <trkpt lat="-19.61842" lon="-43.875820000000004">
    <ele>859.8100000000001</ele>
   </trkpt>
   <trkpt lat="-19.61783000052817" lon="-43.876275001703334">
    <ele>858.0200000000001</ele>
   </trkpt>
   <trkpt lat="-19.617240000000002" lon="-43.87673">
    <ele>851.96</ele>
   </trkpt>
   <trkpt lat="-19.61692" lon="-43.87691">
    <ele>851.19</ele>
   </trkpt>
   <trkpt lat="-19.61645" lon="-43.8772">
    <ele>854.3600000000001</ele>
   </trkpt>
   <trkpt lat="-19.616025000298954" lon="-43.87754000091489">
    <ele>859.53</ele>
   </trkpt>
   <trkpt lat="-19.6156" lon="-43.877880000000005">
    <ele>868.5500000000001</ele>
   </trkpt>
   <trkpt lat="-19.61533" lon="-43.878130000000006">
    <ele>872.4600000000002</ele>
   </trkpt>
   <trkpt lat="-19.61484" lon="-43.8787">
    <ele>884.8000000000001</ele>
   </trkpt>
   <trkpt lat="-19.61476" lon="-43.878840000000004">
    <ele>885.94</ele>
   </trkpt>
   <trkpt lat="-19.61476" lon="-43.87942">
    <ele>891.51</ele>
   </trkpt>
   <trkpt lat="-19.614710000000002" lon="-43.87968">
    <ele>892.8600000000001</ele>
   </trkpt>
   <trkpt lat="-19.614600000000003" lon="-43.87988000000001">
    <ele>893.23</ele>
   </trkpt>
   <trkpt lat="-19.613860000000003" lon="-43.880140000000004">
    <ele>893.8300000000002</ele>
   </trkpt>
   <trkpt lat="-19.61334" lon="-43.88004">
    <ele>894.6600000000001</ele>
   </trkpt>
   <trkpt lat="-19.61307" lon="-43.879960000000004">
    <ele>893.97</ele>
   </trkpt>
   <trkpt lat="-19.61287" lon="-43.87986">
    <ele>890.23</ele>
   </trkpt>
   <trkpt lat="-19.61234000038473" lon="-43.87952999896475">
    <ele>879.36</ele>
   </trkpt>
   <trkpt lat="-19.611810000000002" lon="-43.879200000000004">
    <ele>867.3400000000001</ele>
   </trkpt>
   <trkpt lat="-19.611215000640243" lon="-43.878714998198305">
    <ele>856.84</ele>
   </trkpt>
   <trkpt lat="-19.61062" lon="-43.87823">
    <ele>845.5300000000001</ele>
   </trkpt>
   <trkpt lat="-19.61018000100935" lon="-43.87763999845138">
    <ele>838.3900000000001</ele>
   </trkpt>
   <trkpt lat="-19.609740000000002" lon="-43.877050000000004">
    <ele>832.6800000000001</ele>
   </trkpt>
   <trkpt lat="-19.60933" lon="-43.87657">
    <ele>827.22</ele>
   </trkpt>
   <trkpt lat="-19.609080000000002" lon="-43.87615">
    <ele>822.7700000000001</ele>
   </trkpt>
   <trkpt lat="-19.60902" lon="-43.87603">
    <ele>811.0400000000001</ele>
   </trkpt>
   <trkpt lat="-19.608680000000003" lon="-43.87619">
    <ele>819.18</ele>
   </trkpt>
   <trkpt lat="-19.608490000000003" lon="-43.87604">
    <ele>816.19</ele>
   </trkpt>
   <trkpt lat="-19.60816" lon="-43.876000000000005">
    <ele>814.95</ele>
   </trkpt>
   <trkpt lat="-19.608030000000003" lon="-43.87597">
    <ele>814.8000000000001</ele>
   </trkpt>
   <trkpt lat="-19.60782" lon="-43.875890000000005">
    <ele>810.74</ele>
   </trkpt>
   <trkpt lat="-19.60772" lon="-43.87583">
    <ele>808.76</ele>
   </trkpt>
   <trkpt lat="-19.607580000000002" lon="-43.875640000000004">
    <ele>803.91</ele>
   </trkpt>
   <trkpt lat="-19.607400000000002" lon="-43.87554">
    <ele>800.9200000000001</ele>
   </trkpt>
   <trkpt lat="-19.607180000000003" lon="-43.87554">
    <ele>798.4300000000001</ele>
   </trkpt>
   <trkpt lat="-19.606930000000002" lon="-43.8755">
    <ele>792.32</ele>
   </trkpt>
   <trkpt lat="-19.606830000000002" lon="-43.875460000000004">
    <ele>792.32</ele>
   </trkpt>
   <trkpt lat="-19.606630000000003" lon="-43.875350000000005">
    <ele>789.24</ele>
   </trkpt>
   <trkpt lat="-19.606520000000003" lon="-43.875310000000006">
    <ele>788.37</ele>
   </trkpt>
   <trkpt lat="-19.60642" lon="-43.875310000000006">
    <ele>787.87</ele>
   </trkpt>
   <trkpt lat="-19.606360000000002" lon="-43.875240000000005">
    <ele>787.87</ele>
   </trkpt>
   <trkpt lat="-19.60595" lon="-43.875020000000006">
    <ele>782.7700000000001</ele>
   </trkpt>
   <trkpt lat="-19.60544" lon="-43.874880000000005">
    <ele>779.5900000000001</ele>
   </trkpt>
   <trkpt lat="-19.60478" lon="-43.87463">
    <ele>767.1800000000001</ele>
   </trkpt>
   <trkpt lat="-19.604390000000002" lon="-43.874550000000006">
    <ele>762.09</ele>
   </trkpt>
   <trkpt lat="-19.60415" lon="-43.87456">
    <ele>755.9200000000001</ele>
   </trkpt>
   <trkpt lat="-19.603800000000003" lon="-43.87445">
    <ele>748.41</ele>
   </trkpt>
   <trkpt lat="-19.6037" lon="-43.874390000000005">
    <ele>745.94</ele>
   </trkpt>
   <trkpt lat="-19.603620000000003" lon="-43.874320000000004">
    <ele>744.71</ele>
   </trkpt>
   <trkpt lat="-19.603450000000002" lon="-43.874230000000004">
    <ele>741.0300000000001</ele>
   </trkpt>
   <trkpt lat="-19.603350000000002" lon="-43.874190000000006">
    <ele>739.63</ele>
   </trkpt>
   <trkpt lat="-19.60321" lon="-43.87417000000001">
    <ele>736.72</ele>
   </trkpt>
   <trkpt lat="-19.6031" lon="-43.87409">
    <ele>735.6800000000001</ele>
   </trkpt>
   <trkpt lat="-19.603070000000002" lon="-43.874010000000006">
    <ele>735.1899999999999</ele>
   </trkpt>
   <trkpt lat="-19.6031" lon="-43.87389">
    <ele>735.1700000000001</ele>
   </trkpt>
   <trkpt lat="-19.603060000000003" lon="-43.8738">
    <ele>735.5400000000001</ele>
   </trkpt>
   <trkpt lat="-19.602790000000002" lon="-43.87357">
    <ele>741.0500000000001</ele>
   </trkpt>
   <trkpt lat="-19.602700000000002" lon="-43.87351">
    <ele>743.41</ele>
   </trkpt>
   <trkpt lat="-19.60263" lon="-43.87332000000001">
    <ele>745.53</ele>
   </trkpt>
   <trkpt lat="-19.602510000000002" lon="-43.87317">
    <ele>745.1700000000001</ele>
   </trkpt>
   <trkpt lat="-19.60265" lon="-43.873310000000004">
    <ele>745.53</ele>
   </trkpt>
   <trkpt lat="-19.602690000000003" lon="-43.87341000000001">
    <ele>744.6600000000001</ele>
   </trkpt>
   <trkpt lat="-19.602400000000003" lon="-43.873430000000006">
    <ele>740.1200000000001</ele>
   </trkpt>
   <trkpt lat="-19.602220000000003" lon="-43.87355">
    <ele>735.4900000000001</ele>
   </trkpt>
   <trkpt lat="-19.602120000000003" lon="-43.873560000000005">
    <ele>733.99</ele>
   </trkpt>
   <trkpt lat="-19.601940000000003" lon="-43.87373">
    <ele>731.8800000000001</ele>
   </trkpt>
   <trkpt lat="-19.601860000000002" lon="-43.873830000000005">
    <ele>731.25</ele>
   </trkpt>
   <trkpt lat="-19.6018" lon="-43.873960000000004">
    <ele>732.75</ele>
   </trkpt>
   <trkpt lat="-19.601770000000002" lon="-43.87406">
    <ele>734.4900000000001</ele>
   </trkpt>
   <trkpt lat="-19.60163" lon="-43.874280000000006">
    <ele>740.89</ele>
   </trkpt>
   <trkpt lat="-19.60135" lon="-43.87411">
    <ele>745.92</ele>
   </trkpt>
   <trkpt lat="-19.60104" lon="-43.87386">
    <ele>747.83</ele>
   </trkpt>
   <trkpt lat="-19.60088" lon="-43.873780000000004">
    <ele>748.0100000000001</ele>
   </trkpt>
   <trkpt lat="-19.600640000000002" lon="-43.87391">
    <ele>747.57</ele>
   </trkpt>
   <trkpt lat="-19.6005" lon="-43.87413">
    <ele>746.23</ele>
   </trkpt>
   <trkpt lat="-19.60046" lon="-43.87413">
    <ele>746.14</ele>
   </trkpt>
   <trkpt lat="-19.60029" lon="-43.87398">
    <ele>746.26</ele>
   </trkpt>
   <trkpt lat="-19.6002" lon="-43.87393">
    <ele>746.9</ele>
   </trkpt>
   <trkpt lat="-19.59992" lon="-43.87391">
    <ele>746.97</ele>
   </trkpt>
   <trkpt lat="-19.59965" lon="-43.87395">
    <ele>745.83</ele>
   </trkpt>
   <trkpt lat="-19.59946" lon="-43.87389">
    <ele>745.3400000000001</ele>
   </trkpt>
   <trkpt lat="-19.5986" lon="-43.874">
    <ele>738.7</ele>
   </trkpt>
   <trkpt lat="-19.59851" lon="-43.87404">
    <ele>738.2</ele>
   </trkpt>
   <trkpt lat="-19.59832" lon="-43.87402">
    <ele>736.98</ele>
   </trkpt>
   <trkpt lat="-19.59815" lon="-43.87404">
    <ele>734.5</ele>
   </trkpt>
   <trkpt lat="-19.59804" lon="-43.874">
    <ele>733.5200000000001</ele>
   </trkpt>
   <trkpt lat="-19.59795" lon="-43.87391">
    <ele>733.2700000000001</ele>
   </trkpt>
   <trkpt lat="-19.597540000000002" lon="-43.87366">
    <ele>731.28</ele>
   </trkpt>
   <trkpt lat="-19.59748" lon="-43.8736">
    <ele>731.3000000000001</ele>
   </trkpt>
   <trkpt lat="-19.59727" lon="-43.873490000000004">
    <ele>731.48</ele>
   </trkpt>
   <trkpt lat="-19.59712" lon="-43.873400000000004">
    <ele>731.5500000000001</ele>
   </trkpt>
   <trkpt lat="-19.596950000000003" lon="-43.873360000000005">
    <ele>731.5</ele>
   </trkpt>
   <trkpt lat="-19.59663" lon="-43.87335">
    <ele>729.74</ele>
   </trkpt>
   <trkpt lat="-19.59656" lon="-43.87333">
    <ele>729.36</ele>
   </trkpt>
   <trkpt lat="-19.596500000000002" lon="-43.87326">
    <ele>729.1</ele>
   </trkpt>
   <trkpt lat="-19.596030000000003" lon="-43.87297">
    <ele>728.5</ele>
   </trkpt>
   <trkpt lat="-19.59598" lon="-43.872910000000005">
    <ele>728.5</ele>
   </trkpt>
   <trkpt lat="-19.595750000000002" lon="-43.87286">
    <ele>728.31</ele>
   </trkpt>
   <trkpt lat="-19.59563" lon="-43.87281">
    <ele>728.08</ele>
   </trkpt>
   <trkpt lat="-19.59559" lon="-43.87275">
    <ele>727.97</ele>
   </trkpt>
   <trkpt lat="-19.59561" lon="-43.87272">
    <ele>727.84</ele>
   </trkpt>
   <trkpt lat="-19.59561" lon="-43.87266">
    <ele>727.5400000000001</ele>
   </trkpt>
   <trkpt lat="-19.59552" lon="-43.87259">
    <ele>727.32</ele>
   </trkpt>
   <trkpt lat="-19.59541" lon="-43.87261">
    <ele>727.2700000000001</ele>
   </trkpt>
   <trkpt lat="-19.59534" lon="-43.872550000000004">
    <ele>727.22</ele>
   </trkpt>
   <trkpt lat="-19.59506" lon="-43.87248">
    <ele>726.7300000000001</ele>
   </trkpt>
   <trkpt lat="-19.59494" lon="-43.87239">
    <ele>725.37</ele>
   </trkpt>
   <trkpt lat="-19.59484" lon="-43.872370000000004">
    <ele>725.37</ele>
   </trkpt>
   <trkpt lat="-19.594630000000002" lon="-43.872370000000004">
    <ele>724.0000000000001</ele>
   </trkpt>
   <trkpt lat="-19.59438" lon="-43.87245">
    <ele>722.11</ele>
   </trkpt>
   <trkpt lat="-19.59412" lon="-43.87261">
    <ele>718.44</ele>
   </trkpt>
   <trkpt lat="-19.59392" lon="-43.87261">
    <ele>716.8100000000001</ele>
   </trkpt>
   <trkpt lat="-19.59375" lon="-43.87268">
    <ele>716.0300000000001</ele>
   </trkpt>
   <trkpt lat="-19.59345" lon="-43.87286">
    <ele>713.3600000000001</ele>
   </trkpt>
   <trkpt lat="-19.593320000000002" lon="-43.87292">
    <ele>710.9200000000001</ele>
   </trkpt>
   <trkpt lat="-19.59325" lon="-43.872930000000004">
    <ele>710.9200000000001</ele>
   </trkpt>
   <trkpt lat="-19.593030000000002" lon="-43.872910000000005">
    <ele>706.28</ele>
   </trkpt>
   <trkpt lat="-19.592940000000002" lon="-43.872930000000004">
    <ele>705.71</ele>
   </trkpt>
   <trkpt lat="-19.592930000000003" lon="-43.87299">
    <ele>704.8100000000001</ele>
   </trkpt>
   <trkpt lat="-19.5927" lon="-43.87313">
    <ele>704.52</ele>
   </trkpt>
   <trkpt lat="-19.592560000000002" lon="-43.87317">
    <ele>705.44</ele>
   </trkpt>
   <trkpt lat="-19.592470000000002" lon="-43.87317">
    <ele>705.6500000000001</ele>
   </trkpt>
   <trkpt lat="-19.59244" lon="-43.873160000000006">
    <ele>705.64</ele>
   </trkpt>
   <trkpt lat="-19.592470000000002" lon="-43.87317">
    <ele>705.64</ele>
   </trkpt>
   <trkpt lat="-19.59204" lon="-43.87286">
    <ele>702.57</ele>
   </trkpt>
   <trkpt lat="-19.592000000000002" lon="-43.872730000000004">
    <ele>702.74</ele>
   </trkpt>
   <trkpt lat="-19.59166" lon="-43.8725">
    <ele>704.96</ele>
   </trkpt>
   <trkpt lat="-19.59168" lon="-43.87239">
    <ele>704.99</ele>
   </trkpt>
   <trkpt lat="-19.59175" lon="-43.8723">
    <ele>704.91</ele>
   </trkpt>
   <trkpt lat="-19.591820000000002" lon="-43.87212">
    <ele>704.8100000000001</ele>
   </trkpt>
   <trkpt lat="-19.59185" lon="-43.871970000000005">
    <ele>704.46</ele>
   </trkpt>
   <trkpt lat="-19.59185" lon="-43.87178">
    <ele>704.37</ele>
   </trkpt>
   <trkpt lat="-19.59174" lon="-43.87138">
    <ele>704.2600000000001</ele>
   </trkpt>
   <trkpt lat="-19.59165" lon="-43.87125">
    <ele>704.1800000000001</ele>
   </trkpt>
   <trkpt lat="-19.59156" lon="-43.87116">
    <ele>703.99</ele>
   </trkpt>
   <trkpt lat="-19.591350000000002" lon="-43.87102">
    <ele>703.89</ele>
   </trkpt>
   <trkpt lat="-19.59111" lon="-43.87095">
    <ele>703.6</ele>
   </trkpt>
   <trkpt lat="-19.5908" lon="-43.871050000000004">
    <ele>702.98</ele>
   </trkpt>
   <trkpt lat="-19.59063" lon="-43.87104">
    <ele>703.1800000000001</ele>
   </trkpt>
   <trkpt lat="-19.59045" lon="-43.871">
    <ele>704.33</ele>
   </trkpt>
   <trkpt lat="-19.590320000000002" lon="-43.87091">
    <ele>707.34</ele>
   </trkpt>
   <trkpt lat="-19.59017" lon="-43.87089">
    <ele>707.34</ele>
   </trkpt>
   <trkpt lat="-19.58997" lon="-43.87093">
    <ele>708.2900000000001</ele>
   </trkpt>
   <trkpt lat="-19.58958" lon="-43.87089">
    <ele>710.23</ele>
   </trkpt>
   <trkpt lat="-19.58951" lon="-43.87093">
    <ele>711.71</ele>
   </trkpt>
   <trkpt lat="-19.589290000000002" lon="-43.87127">
    <ele>715.5600000000001</ele>
   </trkpt>
   <trkpt lat="-19.58902" lon="-43.87147">
    <ele>717.21</ele>
   </trkpt>
   <trkpt lat="-19.588810000000002" lon="-43.87171">
    <ele>722.53</ele>
   </trkpt>
   <trkpt lat="-19.588630000000002" lon="-43.87203">
    <ele>726.1700000000001</ele>
   </trkpt>
   <trkpt lat="-19.58837" lon="-43.87241">
    <ele>732.8500000000001</ele>
   </trkpt>
   <trkpt lat="-19.58819" lon="-43.8727">
    <ele>739.8100000000001</ele>
   </trkpt>
   <trkpt lat="-19.588160000000002" lon="-43.87272">
    <ele>740.3000000000001</ele>
   </trkpt>
   <trkpt lat="-19.58809" lon="-43.87272">
    <ele>740.69</ele>
   </trkpt>
   <trkpt lat="-19.58809" lon="-43.872710000000005">
    <ele>740.69</ele>
   </trkpt>
   <trkpt lat="-19.5881" lon="-43.87272">
    <ele>740.69</ele>
   </trkpt>
   <trkpt lat="-19.58809" lon="-43.87252">
    <ele>741.53</ele>
   </trkpt>
   <trkpt lat="-19.58799" lon="-43.87225">
    <ele>743.2800000000001</ele>
   </trkpt>
   <trkpt lat="-19.58793" lon="-43.87203">
    <ele>744.5500000000001</ele>
   </trkpt>
   <trkpt lat="-19.5878" lon="-43.871880000000004">
    <ele>746.0400000000001</ele>
   </trkpt>
   <trkpt lat="-19.58764" lon="-43.8718">
    <ele>747.4000000000001</ele>
   </trkpt>
   <trkpt lat="-19.587490000000003" lon="-43.8716">
    <ele>748.0000000000001</ele>
   </trkpt>
   <trkpt lat="-19.58734" lon="-43.871520000000004">
    <ele>748.44</ele>
   </trkpt>
   <trkpt lat="-19.58725" lon="-43.8716">
    <ele>749.72</ele>
   </trkpt>
   <trkpt lat="-19.58697" lon="-43.87133">
    <ele>750.69</ele>
   </trkpt>
   <trkpt lat="-19.58689" lon="-43.871140000000004">
    <ele>751.58</ele>
   </trkpt>
   <trkpt lat="-19.5869" lon="-43.8708">
    <ele>754.38</ele>
   </trkpt>
   <trkpt lat="-19.58696" lon="-43.870470000000005">
    <ele>758.32</ele>
   </trkpt>
   <trkpt lat="-19.58706" lon="-43.870200000000004">
    <ele>763.8100000000001</ele>
   </trkpt>
   <trkpt lat="-19.58726" lon="-43.869820000000004">
    <ele>772.0600000000001</ele>
   </trkpt>
   <trkpt lat="-19.587320000000002" lon="-43.86979">
    <ele>772.0600000000001</ele>
   </trkpt>
   <trkpt lat="-19.587410000000002" lon="-43.86948">
    <ele>778.48</ele>
   </trkpt>
   <trkpt lat="-19.587410000000002" lon="-43.86939">
    <ele>778.48</ele>
   </trkpt>
   <trkpt lat="-19.58737" lon="-43.86932">
    <ele>779.61</ele>
   </trkpt>
   <trkpt lat="-19.587380000000003" lon="-43.869330000000005">
    <ele>779.61</ele>
   </trkpt>
   <trkpt lat="-19.587300000000003" lon="-43.86928">
    <ele>780.95</ele>
   </trkpt>
   <trkpt lat="-19.587210000000002" lon="-43.8693">
    <ele>781.8600000000001</ele>
   </trkpt>
   <trkpt lat="-19.58699" lon="-43.86941">
    <ele>783.09</ele>
   </trkpt>
   <trkpt lat="-19.5867" lon="-43.86952">
    <ele>784.58</ele>
   </trkpt>
   <trkpt lat="-19.5864" lon="-43.86968">
    <ele>786.73</ele>
   </trkpt>
   <trkpt lat="-19.58622" lon="-43.869730000000004">
    <ele>788.76</ele>
   </trkpt>
   <trkpt lat="-19.58593" lon="-43.86999">
    <ele>789.82</ele>
   </trkpt>
   <trkpt lat="-19.585800000000003" lon="-43.87004">
    <ele>789.84</ele>
   </trkpt>
   <trkpt lat="-19.585620000000002" lon="-43.87017">
    <ele>789.5300000000001</ele>
   </trkpt>
   <trkpt lat="-19.58556" lon="-43.870160000000006">
    <ele>789.5300000000001</ele>
   </trkpt>
   <trkpt lat="-19.585820000000002" lon="-43.8706">
    <ele>785.95</ele>
   </trkpt>
   <trkpt lat="-19.585820000818625" lon="-43.87114500005881">
    <ele>784.8900000000001</ele>
   </trkpt>
   <trkpt lat="-19.585820000000002" lon="-43.87169">
    <ele>785.6400000000001</ele>
   </trkpt>
   <trkpt lat="-19.585800000000003" lon="-43.871790000000004">
    <ele>785.96</ele>
   </trkpt>
   <trkpt lat="-19.58593" lon="-43.87223">
    <ele>788.6</ele>
   </trkpt>
   <trkpt lat="-19.58594" lon="-43.87241">
    <ele>790.9200000000001</ele>
   </trkpt>
   <trkpt lat="-19.58593" lon="-43.87254">
    <ele>791.84</ele>
   </trkpt>
   <trkpt lat="-19.58614" lon="-43.87326">
    <ele>797.88</ele>
   </trkpt>
   <trkpt lat="-19.58631" lon="-43.873490000000004">
    <ele>799.3100000000001</ele>
   </trkpt>
   <trkpt lat="-19.5864" lon="-43.87355">
    <ele>799.45</ele>
   </trkpt>
   <trkpt lat="-19.5865" lon="-43.87355">
    <ele>799.4000000000001</ele>
   </trkpt>
   <trkpt lat="-19.58659" lon="-43.87359">
    <ele>799.49</ele>
   </trkpt>
   <trkpt lat="-19.586750000000002" lon="-43.87384">
    <ele>801.0500000000001</ele>
   </trkpt>
   <trkpt lat="-19.58678" lon="-43.874">
    <ele>803.58</ele>
   </trkpt>
   <trkpt lat="-19.586840000000002" lon="-43.87402">
    <ele>803.98</ele>
   </trkpt>
   <trkpt lat="-19.58687" lon="-43.87411">
    <ele>804.6800000000001</ele>
   </trkpt>
   <trkpt lat="-19.58714" lon="-43.87438">
    <ele>807.0400000000001</ele>
   </trkpt>
   <trkpt lat="-19.587210000000002" lon="-43.87438">
    <ele>808.0</ele>
   </trkpt>
   <trkpt lat="-19.587320000000002" lon="-43.87458">
    <ele>808.2600000000001</ele>
   </trkpt>
   <trkpt lat="-19.58751" lon="-43.87483">
    <ele>810.8700000000001</ele>
   </trkpt>
   <trkpt lat="-19.587680000000002" lon="-43.874950000000005">
    <ele>811.37</ele>
   </trkpt>
   <trkpt lat="-19.587670000000003" lon="-43.87494">
    <ele>811.37</ele>
   </trkpt>
   <trkpt lat="-19.58828" lon="-43.87512">
    <ele>811.03</ele>
   </trkpt>
   <trkpt lat="-19.58839" lon="-43.87514">
    <ele>810.7200000000001</ele>
   </trkpt>
   <trkpt lat="-19.58868" lon="-43.87509">
    <ele>809.15</ele>
   </trkpt>
   <trkpt lat="-19.58884" lon="-43.87512">
    <ele>808.6200000000001</ele>
   </trkpt>
   <trkpt lat="-19.5895" lon="-43.875370000000004">
    <ele>808.25</ele>
   </trkpt>
   <trkpt lat="-19.58952" lon="-43.87547000000001">
    <ele>808.5300000000001</ele>
   </trkpt>
   <trkpt lat="-19.589930000000003" lon="-43.87561">
    <ele>801.63</ele>
   </trkpt>
   <trkpt lat="-19.59054" lon="-43.87566">
    <ele>790.1400000000001</ele>
   </trkpt>
   <trkpt lat="-19.590700000000002" lon="-43.87565">
    <ele>787.97</ele>
   </trkpt>
   <trkpt lat="-19.590670000000003" lon="-43.87539">
    <ele>789.09</ele>
   </trkpt>
   <trkpt lat="-19.590680000000003" lon="-43.87529000000001">
    <ele>788.0500000000001</ele>
   </trkpt>
   <trkpt lat="-19.590780000000002" lon="-43.87500000000001">
    <ele>778.0600000000001</ele>
   </trkpt>
   <trkpt lat="-19.59084" lon="-43.87492">
    <ele>774.75</ele>
   </trkpt>
   <trkpt lat="-19.590880000000002" lon="-43.87472">
    <ele>769.2500000000001</ele>
   </trkpt>
   <trkpt lat="-19.590950000000003" lon="-43.87462">
    <ele>767.8000000000001</ele>
   </trkpt>
   <trkpt lat="-19.59111" lon="-43.874500000000005">
    <ele>764.33</ele>
   </trkpt>
   <trkpt lat="-19.591230000000003" lon="-43.87447">
    <ele>763.59</ele>
   </trkpt>
   <trkpt lat="-19.591540000000002" lon="-43.874460000000006">
    <ele>756.1800000000001</ele>
   </trkpt>
   <trkpt lat="-19.59175" lon="-43.87438">
    <ele>750.34</ele>
   </trkpt>
   <trkpt lat="-19.591880000000003" lon="-43.874370000000006">
    <ele>748.45</ele>
   </trkpt>
   <trkpt lat="-19.59211" lon="-43.874370000000006">
    <ele>751.5400000000001</ele>
   </trkpt>
   <trkpt lat="-19.592450000000003" lon="-43.874390000000005">
    <ele>755.6100000000001</ele>
   </trkpt>
   <trkpt lat="-19.592750000000002" lon="-43.87436">
    <ele>752.69</ele>
   </trkpt>
   <trkpt lat="-19.59287" lon="-43.87438">
    <ele>752.63</ele>
   </trkpt>
   <trkpt lat="-19.59316" lon="-43.874500000000005">
    <ele>753.7</ele>
   </trkpt>
   <trkpt lat="-19.593290000000003" lon="-43.874590000000005">
    <ele>752.82</ele>
   </trkpt>
   <trkpt lat="-19.59347" lon="-43.874880000000005">
    <ele>753.1300000000001</ele>
   </trkpt>
   <trkpt lat="-19.593790000000002" lon="-43.87514">
    <ele>752.2800000000001</ele>
   </trkpt>
   <trkpt lat="-19.593890000000002" lon="-43.875150000000005">
    <ele>752.6100000000001</ele>
   </trkpt>
   <trkpt lat="-19.59391" lon="-43.875060000000005">
    <ele>751.26</ele>
   </trkpt>
   <trkpt lat="-19.594040000000003" lon="-43.874860000000005">
    <ele>752.44</ele>
   </trkpt>
   <trkpt lat="-19.594040000000003" lon="-43.87476">
    <ele>754.26</ele>
   </trkpt>
   <trkpt lat="-19.593950000000003" lon="-43.87454">
    <ele>752.3000000000001</ele>
   </trkpt>
   <trkpt lat="-19.59392" lon="-43.8744">
    <ele>752.2800000000001</ele>
   </trkpt>
   <trkpt lat="-19.59394" lon="-43.87418">
    <ele>754.14</ele>
   </trkpt>
   <trkpt lat="-19.59403" lon="-43.87388000000001">
    <ele>752.19</ele>
   </trkpt>
   <trkpt lat="-19.594070000000002" lon="-43.87379000000001">
    <ele>752.3700000000001</ele>
   </trkpt>
   <trkpt lat="-19.594150000000003" lon="-43.87371">
    <ele>752.2500000000001</ele>
   </trkpt>
   <trkpt lat="-19.594420000000003" lon="-43.873560000000005">
    <ele>752.0500000000001</ele>
   </trkpt>
   <trkpt lat="-19.594530000000002" lon="-43.873540000000006">
    <ele>753.4300000000001</ele>
   </trkpt>
   <trkpt lat="-19.59476" lon="-43.873560000000005">
    <ele>754.69</ele>
   </trkpt>
   <trkpt lat="-19.595010000000002" lon="-43.873540000000006">
    <ele>750.62</ele>
   </trkpt>
   <trkpt lat="-19.595110000000002" lon="-43.87351">
    <ele>748.4300000000001</ele>
   </trkpt>
   <trkpt lat="-19.5954" lon="-43.873490000000004">
    <ele>745.5200000000001</ele>
   </trkpt>
   <trkpt lat="-19.59561" lon="-43.873540000000006">
    <ele>746.21</ele>
   </trkpt>
   <trkpt lat="-19.595730000000003" lon="-43.87355">
    <ele>745.92</ele>
   </trkpt>
   <trkpt lat="-19.595830000000003" lon="-43.8736">
    <ele>746.2</ele>
   </trkpt>
   <trkpt lat="-19.59589" lon="-43.873670000000004">
    <ele>748.0100000000001</ele>
   </trkpt>
   <trkpt lat="-19.59598" lon="-43.87370000000001">
    <ele>748.38</ele>
   </trkpt>
   <trkpt lat="-19.596210000000003" lon="-43.87371">
    <ele>745.33</ele>
   </trkpt>
   <trkpt lat="-19.596510000000002" lon="-43.87379000000001">
    <ele>744.2800000000001</ele>
   </trkpt>
   <trkpt lat="-19.59673" lon="-43.873780000000004">
    <ele>742.96</ele>
   </trkpt>
   <trkpt lat="-19.59693" lon="-43.87379000000001">
    <ele>741.46</ele>
   </trkpt>
   <trkpt lat="-19.59703" lon="-43.87373">
    <ele>738.48</ele>
   </trkpt>
   <trkpt lat="-19.59713" lon="-43.87373">
    <ele>736.2700000000001</ele>
   </trkpt>
   <trkpt lat="-19.59722" lon="-43.873830000000005">
    <ele>737.98</ele>
   </trkpt>
   <trkpt lat="-19.59746" lon="-43.873990000000006">
    <ele>736.59</ele>
   </trkpt>
   <trkpt lat="-19.597550000000002" lon="-43.87407">
    <ele>737.7800000000001</ele>
   </trkpt>
   <trkpt lat="-19.59759" lon="-43.87417000000001">
    <ele>740.23</ele>
   </trkpt>
   <trkpt lat="-19.597550000000002" lon="-43.874370000000006">
    <ele>744.7300000000001</ele>
   </trkpt>
   <trkpt lat="-19.597440000000002" lon="-43.87433">
    <ele>746.1700000000001</ele>
   </trkpt>
   <trkpt lat="-19.59718" lon="-43.87418">
    <ele>747.85</ele>
   </trkpt>
   <trkpt lat="-19.596890000000002" lon="-43.87407">
    <ele>747.11</ele>
   </trkpt>
   <trkpt lat="-19.596580000000003" lon="-43.87407">
    <ele>747.99</ele>
   </trkpt>
   <trkpt lat="-19.596390000000003" lon="-43.874120000000005">
    <ele>753.0000000000001</ele>
   </trkpt>
   <trkpt lat="-19.59618" lon="-43.87413">
    <ele>759.44</ele>
   </trkpt>
   <trkpt lat="-19.596200000000003" lon="-43.874230000000004">
    <ele>761.0</ele>
   </trkpt>
   <trkpt lat="-19.59665" lon="-43.87458">
    <ele>767.7</ele>
   </trkpt>
   <trkpt lat="-19.597040000000003" lon="-43.87478">
    <ele>770.05</ele>
   </trkpt>
   <trkpt lat="-19.597230000000003" lon="-43.874860000000005">
    <ele>769.02</ele>
   </trkpt>
   <trkpt lat="-19.5973" lon="-43.874930000000006">
    <ele>768.5900000000001</ele>
   </trkpt>
   <trkpt lat="-19.597350000000002" lon="-43.875020000000006">
    <ele>770.2500000000001</ele>
   </trkpt>
   <trkpt lat="-19.59737" lon="-43.87512">
    <ele>772.78</ele>
   </trkpt>
   <trkpt lat="-19.597450000000002" lon="-43.87516">
    <ele>773.39</ele>
   </trkpt>
   <trkpt lat="-19.597540000000002" lon="-43.875330000000005">
    <ele>777.46</ele>
   </trkpt>
   <trkpt lat="-19.597550000000002" lon="-43.87543">
    <ele>779.11</ele>
   </trkpt>
   <trkpt lat="-19.597530000000003" lon="-43.87554">
    <ele>781.14</ele>
   </trkpt>
   <trkpt lat="-19.59747" lon="-43.875620000000005">
    <ele>781.5600000000001</ele>
   </trkpt>
   <trkpt lat="-19.597440000000002" lon="-43.875820000000004">
    <ele>785.19</ele>
   </trkpt>
   <trkpt lat="-19.59741" lon="-43.875910000000005">
    <ele>786.0300000000001</ele>
   </trkpt>
   <trkpt lat="-19.59732" lon="-43.87614000000001">
    <ele>786.11</ele>
   </trkpt>
   <trkpt lat="-19.597050000000003" lon="-43.8766">
    <ele>792.44</ele>
   </trkpt>
   <trkpt lat="-19.59701" lon="-43.87673">
    <ele>794.8000000000001</ele>
   </trkpt>
   <trkpt lat="-19.597" lon="-43.87695">
    <ele>798.94</ele>
   </trkpt>
   <trkpt lat="-19.59701" lon="-43.87707">
    <ele>801.08</ele>
   </trkpt>
   <trkpt lat="-19.5971" lon="-43.877280000000006">
    <ele>804.1700000000001</ele>
   </trkpt>
   <trkpt lat="-19.59719" lon="-43.87731">
    <ele>804.91</ele>
   </trkpt>
   <trkpt lat="-19.597260000000002" lon="-43.87736">
    <ele>805.61</ele>
   </trkpt>
   <trkpt lat="-19.59728" lon="-43.87726000000001">
    <ele>804.44</ele>
   </trkpt>
   <trkpt lat="-19.597350000000002" lon="-43.87716">
    <ele>802.61</ele>
   </trkpt>
   <trkpt lat="-19.597430000000003" lon="-43.877100000000006">
    <ele>802.48</ele>
   </trkpt>
   <trkpt lat="-19.597420000000003" lon="-43.87697000000001">
    <ele>799.54</ele>
   </trkpt>
   <trkpt lat="-19.59739" lon="-43.876850000000005">
    <ele>796.09</ele>
   </trkpt>
   <trkpt lat="-19.597420000000003" lon="-43.87673">
    <ele>793.54</ele>
   </trkpt>
   <trkpt lat="-19.5975" lon="-43.87666">
    <ele>793.1300000000001</ele>
   </trkpt>
   <trkpt lat="-19.597530000000003" lon="-43.87633">
    <ele>787.2900000000001</ele>
   </trkpt>
   <trkpt lat="-19.597610000000003" lon="-43.87624">
    <ele>787.1700000000001</ele>
   </trkpt>
   <trkpt lat="-19.59776" lon="-43.876110000000004">
    <ele>785.57</ele>
   </trkpt>
   <trkpt lat="-19.597800000000003" lon="-43.876020000000004">
    <ele>785.0</ele>
   </trkpt>
   <trkpt lat="-19.597900000000003" lon="-43.875690000000006">
    <ele>782.85</ele>
   </trkpt>
   <trkpt lat="-19.59795" lon="-43.87561">
    <ele>782.1600000000001</ele>
   </trkpt>
   <trkpt lat="-19.59804" lon="-43.87552">
    <ele>781.2</ele>
   </trkpt>
   <trkpt lat="-19.59821" lon="-43.87541">
    <ele>781.1600000000001</ele>
   </trkpt>
   <trkpt lat="-19.598370000000003" lon="-43.87529000000001">
    <ele>782.0</ele>
   </trkpt>
   <trkpt lat="-19.598660000000002" lon="-43.874990000000004">
    <ele>782.93</ele>
   </trkpt>
   <trkpt lat="-19.598740000000003" lon="-43.87494">
    <ele>782.88</ele>
   </trkpt>
   <trkpt lat="-19.598840000000003" lon="-43.874930000000006">
    <ele>781.75</ele>
   </trkpt>
   <trkpt lat="-19.599120000000003" lon="-43.87494">
    <ele>780.78</ele>
   </trkpt>
   <trkpt lat="-19.59917" lon="-43.875170000000004">
    <ele>783.94</ele>
   </trkpt>
   <trkpt lat="-19.599040000000002" lon="-43.87536">
    <ele>788.3000000000001</ele>
   </trkpt>
   <trkpt lat="-19.598860000000002" lon="-43.87547000000001">
    <ele>793.15</ele>
   </trkpt>
   <trkpt lat="-19.5988" lon="-43.87554">
    <ele>794.47</ele>
   </trkpt>
   <trkpt lat="-19.598750000000003" lon="-43.87563">
    <ele>794.9900000000001</ele>
   </trkpt>
   <trkpt lat="-19.598760000000002" lon="-43.875750000000004">
    <ele>795.3000000000001</ele>
   </trkpt>
   <trkpt lat="-19.59872" lon="-43.875840000000004">
    <ele>795.07</ele>
   </trkpt>
   <trkpt lat="-19.598740000000003" lon="-43.87594000000001">
    <ele>795.5600000000001</ele>
   </trkpt>
   <trkpt lat="-19.59881" lon="-43.876000000000005">
    <ele>795.81</ele>
   </trkpt>
   <trkpt lat="-19.598840000000003" lon="-43.876110000000004">
    <ele>797.64</ele>
   </trkpt>
   <trkpt lat="-19.59889" lon="-43.876200000000004">
    <ele>797.64</ele>
   </trkpt>
   <trkpt lat="-19.59898" lon="-43.87623000000001">
    <ele>797.42</ele>
   </trkpt>
   <trkpt lat="-19.59896" lon="-43.87659">
    <ele>802.9200000000001</ele>
   </trkpt>
   <trkpt lat="-19.598940000000002" lon="-43.87670000000001">
    <ele>804.33</ele>
   </trkpt>
   <trkpt lat="-19.59888" lon="-43.87679000000001">
    <ele>805.9000000000001</ele>
   </trkpt>
   <trkpt lat="-19.59891" lon="-43.87689">
    <ele>807.07</ele>
   </trkpt>
   <trkpt lat="-19.59899" lon="-43.876920000000005">
    <ele>806.5600000000001</ele>
   </trkpt>
   <trkpt lat="-19.59929" lon="-43.87677">
    <ele>800.91</ele>
   </trkpt>
   <trkpt lat="-19.599400000000003" lon="-43.87682">
    <ele>800.5200000000001</ele>
   </trkpt>
   <trkpt lat="-19.599490000000003" lon="-43.87706">
    <ele>801.1</ele>
   </trkpt>
   <trkpt lat="-19.599510000000002" lon="-43.87716">
    <ele>801.36</ele>
   </trkpt>
   <trkpt lat="-19.59947" lon="-43.87749">
    <ele>805.6</ele>
   </trkpt>
   <trkpt lat="-19.599510000000002" lon="-43.877610000000004">
    <ele>803.52</ele>
   </trkpt>
   <trkpt lat="-19.599600000000002" lon="-43.877660000000006">
    <ele>801.09</ele>
   </trkpt>
   <trkpt lat="-19.599690000000002" lon="-43.87767">
    <ele>799.94</ele>
   </trkpt>
   <trkpt lat="-19.59985" lon="-43.87774">
    <ele>797.54</ele>
   </trkpt>
   <trkpt lat="-19.5999" lon="-43.87762">
    <ele>793.09</ele>
   </trkpt>
   <trkpt lat="-19.60011" lon="-43.87749">
    <ele>790.5000000000001</ele>
   </trkpt>
   <trkpt lat="-19.600260000000002" lon="-43.87745">
    <ele>788.78</ele>
   </trkpt>
   <trkpt lat="-19.600350000000002" lon="-43.87738">
    <ele>787.8900000000001</ele>
   </trkpt>
   <trkpt lat="-19.60058" lon="-43.876850000000005">
    <ele>782.19</ele>
   </trkpt>
   <trkpt lat="-19.60057" lon="-43.87637">
    <ele>775.4700000000001</ele>
   </trkpt>
   <trkpt lat="-19.600610000662268" lon="-43.875880000120354">
    <ele>771.46</ele>
   </trkpt>
   <trkpt lat="-19.60065" lon="-43.87539">
    <ele>767.7900000000001</ele>
   </trkpt>
   <trkpt lat="-19.600740000000002" lon="-43.87525">
    <ele>766.0</ele>
   </trkpt>
   <trkpt lat="-19.60084" lon="-43.87521">
    <ele>763.97</ele>
   </trkpt>
   <trkpt lat="-19.601010000000002" lon="-43.875260000000004">
    <ele>761.11</ele>
   </trkpt>
   <trkpt lat="-19.60113" lon="-43.87539">
    <ele>756.5500000000001</ele>
   </trkpt>
   <trkpt lat="-19.601210000000002" lon="-43.875550000000004">
    <ele>756.5500000000001</ele>
   </trkpt>
   <trkpt lat="-19.60131" lon="-43.87563">
    <ele>752.14</ele>
   </trkpt>
   <trkpt lat="-19.601390000000002" lon="-43.87563">
    <ele>752.14</ele>
   </trkpt>
   <trkpt lat="-19.60142" lon="-43.87561">
    <ele>750.5600000000001</ele>
   </trkpt>
   <trkpt lat="-19.60172" lon="-43.87525">
    <ele>742.5400000000001</ele>
   </trkpt>
   <trkpt lat="-19.60189" lon="-43.87514">
    <ele>739.5</ele>
   </trkpt>
   <trkpt lat="-19.601950000000002" lon="-43.87501">
    <ele>737.97</ele>
   </trkpt>
   <trkpt lat="-19.60198" lon="-43.875080000000004">
    <ele>738.14</ele>
   </trkpt>
   <trkpt lat="-19.60206" lon="-43.87512">
    <ele>738.2</ele>
   </trkpt>
   <trkpt lat="-19.60215" lon="-43.87514">
    <ele>738.2900000000001</ele>
   </trkpt>
   <trkpt lat="-19.60234" lon="-43.8753">
    <ele>739.5100000000001</ele>
   </trkpt>
   <trkpt lat="-19.60255" lon="-43.875330000000005">
    <ele>742.2200000000001</ele>
   </trkpt>
   <trkpt lat="-19.60254" lon="-43.87532">
    <ele>742.2200000000001</ele>
   </trkpt>
   <trkpt lat="-19.60255" lon="-43.875370000000004">
    <ele>743.08</ele>
   </trkpt>
   <trkpt lat="-19.602510000000002" lon="-43.87541">
    <ele>743.08</ele>
   </trkpt>
   <trkpt lat="-19.60215" lon="-43.87552">
    <ele>748.63</ele>
   </trkpt>
   <trkpt lat="-19.60215" lon="-43.875550000000004">
    <ele>749.36</ele>
   </trkpt>
   <trkpt lat="-19.6022" lon="-43.87561">
    <ele>751.07</ele>
   </trkpt>
   <trkpt lat="-19.60254" lon="-43.87572">
    <ele>759.14</ele>
   </trkpt>
   <trkpt lat="-19.60273" lon="-43.875930000000004">
    <ele>763.59</ele>
   </trkpt>
   <trkpt lat="-19.603360000000002" lon="-43.876400000000004">
    <ele>778.45</ele>
   </trkpt>
   <trkpt lat="-19.60356" lon="-43.876850000000005">
    <ele>785.5500000000001</ele>
   </trkpt>
   <trkpt lat="-19.603640000000002" lon="-43.87718">
    <ele>790.61</ele>
   </trkpt>
   <trkpt lat="-19.60377" lon="-43.877250000000004">
    <ele>794.32</ele>
   </trkpt>
   <trkpt lat="-19.60376" lon="-43.87749">
    <ele>796.9600000000002</ele>
   </trkpt>
   <trkpt lat="-19.60386" lon="-43.87767">
    <ele>798.9600000000002</ele>
   </trkpt>
   <trkpt lat="-19.603920000000002" lon="-43.877990000000004">
    <ele>802.71</ele>
   </trkpt>
   <trkpt lat="-19.60407" lon="-43.87812">
    <ele>805.69</ele>
   </trkpt>
   <trkpt lat="-19.60424" lon="-43.87832">
    <ele>809.0200000000001</ele>
   </trkpt>
   <trkpt lat="-19.60433" lon="-43.87872">
    <ele>814.9300000000001</ele>
   </trkpt>
   <trkpt lat="-19.60452" lon="-43.87939">
    <ele>827.3800000000001</ele>
   </trkpt>
   <trkpt lat="-19.60461" lon="-43.8796">
    <ele>830.5</ele>
   </trkpt>
   <trkpt lat="-19.604870000000002" lon="-43.87984">
    <ele>836.35</ele>
   </trkpt>
   <trkpt lat="-19.60482" lon="-43.88002">
    <ele>840.4800000000001</ele>
   </trkpt>
   <trkpt lat="-19.60499" lon="-43.88022">
    <ele>844.94</ele>
   </trkpt>
   <trkpt lat="-19.605150000000002" lon="-43.88074">
    <ele>852.4200000000001</ele>
   </trkpt>
   <trkpt lat="-19.605230000000002" lon="-43.88114">
    <ele>854.5500000000001</ele>
   </trkpt>
   <trkpt lat="-19.60536" lon="-43.88125">
    <ele>854.96</ele>
   </trkpt>
   <trkpt lat="-19.60556" lon="-43.88132">
    <ele>855.4</ele>
   </trkpt>
   <trkpt lat="-19.60553" lon="-43.88154">
    <ele>855.5400000000001</ele>
   </trkpt>
   <trkpt lat="-19.60585" lon="-43.88152">
    <ele>856.57</ele>
   </trkpt>
   <trkpt lat="-19.606309999812854" lon="-43.88142000033266">
    <ele>858.33</ele>
   </trkpt>
   <trkpt lat="-19.60677" lon="-43.88132">
    <ele>858.87</ele>
   </trkpt>
   <trkpt lat="-19.60733" lon="-43.88123">
    <ele>860.6700000000001</ele>
   </trkpt>
   <trkpt lat="-19.607580000000002" lon="-43.88121">
    <ele>861.7800000000001</ele>
   </trkpt>
   <trkpt lat="-19.60844" lon="-43.88139">
    <ele>867.5600000000001</ele>
   </trkpt>
   <trkpt lat="-19.60902499999322" lon="-43.881419999890404">
    <ele>873.82</ele>
   </trkpt>
   <trkpt lat="-19.60961" lon="-43.88145">
    <ele>879.45</ele>
   </trkpt>
   <trkpt lat="-19.61033" lon="-43.881550000000004">
    <ele>881.86</ele>
   </trkpt>
   <trkpt lat="-19.61071" lon="-43.8815">
    <ele>883.1600000000001</ele>
   </trkpt>
   <trkpt lat="-19.610950000000003" lon="-43.88143">
    <ele>883.8900000000001</ele>
   </trkpt>
   <trkpt lat="-19.611450000246723" lon="-43.88114000089321">
    <ele>886.4000000000001</ele>
   </trkpt>
   <trkpt lat="-19.61195" lon="-43.88085">
    <ele>889.2200000000001</ele>
   </trkpt>
   <trkpt lat="-19.6122" lon="-43.88065">
    <ele>890.46</ele>
   </trkpt>
   <trkpt lat="-19.612629999976892" lon="-43.88050500041511">
    <ele>891.94</ele>
   </trkpt>
   <trkpt lat="-19.61306" lon="-43.88036">
    <ele>892.8600000000001</ele>
   </trkpt>
   <trkpt lat="-19.613860000000003" lon="-43.880140000000004">
    <ele>893.8300000000002</ele>
   </trkpt>
   <trkpt lat="-19.614600000000003" lon="-43.87988000000001">
    <ele>893.23</ele>
   </trkpt>
   <trkpt lat="-19.614710000000002" lon="-43.87968">
    <ele>892.53</ele>
   </trkpt>
   <trkpt lat="-19.61476" lon="-43.87942">
    <ele>890.82</ele>
   </trkpt>
   <trkpt lat="-19.61476" lon="-43.878840000000004">
    <ele>885.94</ele>
   </trkpt>
   <trkpt lat="-19.61484" lon="-43.8787">
    <ele>883.5200000000001</ele>
   </trkpt>
   <trkpt lat="-19.61533" lon="-43.878130000000006">
    <ele>872.4600000000002</ele>
   </trkpt>
   <trkpt lat="-19.61561" lon="-43.87812">
    <ele>869.33</ele>
   </trkpt>
   <trkpt lat="-19.6157" lon="-43.87805">
    <ele>868.1800000000001</ele>
   </trkpt>
   <trkpt lat="-19.61579" lon="-43.87805">
    <ele>867.0200000000001</ele>
   </trkpt>
   <trkpt lat="-19.615840000000002" lon="-43.87809">
    <ele>867.0200000000001</ele>
   </trkpt>
   <trkpt lat="-19.61579" lon="-43.87818">
    <ele>864.8500000000001</ele>
   </trkpt>
   <trkpt lat="-19.615740000000002" lon="-43.87827">
    <ele>863.23</ele>
   </trkpt>
   <trkpt lat="-19.61562" lon="-43.878350000000005">
    <ele>862.07</ele>
   </trkpt>
   <trkpt lat="-19.61558" lon="-43.878460000000004">
    <ele>861.44</ele>
   </trkpt>
   <trkpt lat="-19.615550000000002" lon="-43.87861">
    <ele>860.6300000000001</ele>
   </trkpt>
   <trkpt lat="-19.615550000000002" lon="-43.87868">
    <ele>860.6</ele>
   </trkpt>
   <trkpt lat="-19.61558" lon="-43.878750000000004">
    <ele>860.7800000000001</ele>
   </trkpt>
   <trkpt lat="-19.61551" lon="-43.87888">
    <ele>861.69</ele>
   </trkpt>
   <trkpt lat="-19.61549" lon="-43.87908">
    <ele>862.3700000000001</ele>
   </trkpt>
   <trkpt lat="-19.61541" lon="-43.879220000000004">
    <ele>862.5600000000001</ele>
   </trkpt>
   <trkpt lat="-19.6154" lon="-43.879670000000004">
    <ele>863.9300000000001</ele>
   </trkpt>
   <trkpt lat="-19.61549" lon="-43.87993">
    <ele>864.6700000000001</ele>
   </trkpt>
   <trkpt lat="-19.615550000000002" lon="-43.880230000000005">
    <ele>866.09</ele>
   </trkpt>
   <trkpt lat="-19.61559" lon="-43.88036">
    <ele>866.09</ele>
   </trkpt>
   <trkpt lat="-19.61578" lon="-43.880630000000004">
    <ele>868.6400000000001</ele>
   </trkpt>
   <trkpt lat="-19.61586" lon="-43.88067">
    <ele>868.96</ele>
   </trkpt>
   <trkpt lat="-19.615930000000002" lon="-43.88076">
    <ele>869.6</ele>
   </trkpt>
   <trkpt lat="-19.616020000000002" lon="-43.8808">
    <ele>869.6400000000001</ele>
   </trkpt>
   <trkpt lat="-19.616030000000002" lon="-43.880880000000005">
    <ele>869.57</ele>
   </trkpt>
   <trkpt lat="-19.616120000000002" lon="-43.88087">
    <ele>864.2800000000001</ele>
   </trkpt>
   <trkpt lat="-19.616300000000003" lon="-43.880770000000005">
    <ele>856.69</ele>
   </trkpt>
   <trkpt lat="-19.616390000000003" lon="-43.880790000000005">
    <ele>855.8800000000001</ele>
   </trkpt>
   <trkpt lat="-19.616490000000002" lon="-43.880770000000005">
    <ele>852.8000000000001</ele>
   </trkpt>
   <trkpt lat="-19.616580000000003" lon="-43.88074">
    <ele>849.37</ele>
   </trkpt>
   <trkpt lat="-19.61674" lon="-43.88064000000001">
    <ele>842.9300000000001</ele>
   </trkpt>
   <trkpt lat="-19.616880000000002" lon="-43.880480000000006">
    <ele>839.08</ele>
   </trkpt>
   <trkpt lat="-19.61702" lon="-43.88036">
    <ele>835.9300000000001</ele>
   </trkpt>
   <trkpt lat="-19.6171" lon="-43.880320000000005">
    <ele>835.0500000000001</ele>
   </trkpt>
   <trkpt lat="-19.61717" lon="-43.880230000000005">
    <ele>833.91</ele>
   </trkpt>
   <trkpt lat="-19.61736" lon="-43.88018">
    <ele>831.83</ele>
   </trkpt>
   <trkpt lat="-19.61746" lon="-43.880190000000006">
    <ele>829.35</ele>
   </trkpt>
   <trkpt lat="-19.61765" lon="-43.88031">
    <ele>824.5000000000001</ele>
   </trkpt>
   <trkpt lat="-19.617710000000002" lon="-43.880390000000006">
    <ele>824.5000000000001</ele>
   </trkpt>
   <trkpt lat="-19.617810000000002" lon="-43.88046000000001">
    <ele>818.6500000000001</ele>
   </trkpt>
   <trkpt lat="-19.61802" lon="-43.880570000000006">
    <ele>809.6200000000001</ele>
   </trkpt>
   <trkpt lat="-19.618250000000003" lon="-43.880770000000005">
    <ele>804.1100000000001</ele>
   </trkpt>
   <trkpt lat="-19.61871" lon="-43.88111000000001">
    <ele>793.5500000000001</ele>
   </trkpt>
   <trkpt lat="-19.61924" lon="-43.88065">
    <ele>778.21</ele>
   </trkpt>
   <trkpt lat="-19.61937" lon="-43.880810000000004">
    <ele>778.32</ele>
   </trkpt>
   <trkpt lat="-19.61982" lon="-43.88123">
    <ele>777.0</ele>
   </trkpt>
   <trkpt lat="-19.62028" lon="-43.881840000000004">
    <ele>772.5400000000001</ele>
   </trkpt>
   <trkpt lat="-19.62102" lon="-43.882130000000004">
    <ele>770.82</ele>
   </trkpt>
  </trkseg>
 </trk>
</gpx>
