<?xml version="1.0" encoding="UTF-8"?>
<gpx creator="StravaGPX" version="1.1" xmlns="http://www.topografix.com/GPX/1/1" xmlns:xsi="http://www.w3.org/2001/XMLSchema-instance" xsi:schemaLocation="http://www.topografix.com/GPX/1/1 http://www.topografix.com/GPX/1/1/gpx.xsd">
 <metadata>
  <name>Versalhes x Topo do Mundo</name>
  <author>
   <name>Felipe Desiderio</name>
  </author>
  <copyright author="OpenStreetMap contributors">
   <year>2020</year>
   <license>https://www.openstreetmap.org/copyright</license>
  </copyright>
 </metadata>
 <trk>
  <name>Versalhes x Topo do Mundo</name>
  <link href=""/>
  <type>trail_running</type>
  <trkseg>
   <trkpt lat="-19.59355" lon="-43.864430000000006">
    <ele>693.5</ele>
   </trkpt>
   <trkpt lat="-19.59361" lon="-43.86446">
    <ele>693.5</ele>
   </trkpt>
   <trkpt lat="-19.59364" lon="-43.86446">
    <ele>693.19</ele>
   </trkpt>
   <trkpt lat="-19.593680000000003" lon="-43.864430000000006">
    <ele>693.19</ele>
   </trkpt>
   <trkpt lat="-19.593690000000002" lon="-43.86450000000001">
    <ele>692.3600000000001</ele>
   </trkpt>
   <trkpt lat="-19.593850000000003" lon="-43.86446">
    <ele>690.2</ele>
   </trkpt>
   <trkpt lat="-19.5938" lon="-43.864180000000005">
    <ele>695.35</ele>
   </trkpt>
   <trkpt lat="-19.59381" lon="-43.864000000000004">
    <ele>697.89</ele>
   </trkpt>
   <trkpt lat="-19.59399" lon="-43.863670000000006">
    <ele>702.03</ele>
   </trkpt>
   <trkpt lat="-19.59403" lon="-43.863550000000004">
    <ele>702.3600000000001</ele>
   </trkpt>
   <trkpt lat="-19.594060000000002" lon="-43.86345">
    <ele>702.73</ele>
   </trkpt>
   <trkpt lat="-19.59392000092699" lon="-43.86286999949354">
    <ele>703.6500000000001</ele>
   </trkpt>
   <trkpt lat="-19.593780000000002" lon="-43.86229">
    <ele>704.62</ele>
   </trkpt>
   <trkpt lat="-19.59375" lon="-43.86173">
    <ele>701.01</ele>
   </trkpt>
   <trkpt lat="-19.59382" lon="-43.861580000000004">
    <ele>697.9300000000001</ele>
   </trkpt>
   <trkpt lat="-19.59419" lon="-43.86121000000001">
    <ele>695.6500000000001</ele>
   </trkpt>
   <trkpt lat="-19.5942" lon="-43.86121000000001">
    <ele>695.6500000000001</ele>
   </trkpt>
   <trkpt lat="-19.59462000018532" lon="-43.86137999959915">
    <ele>700.88</ele>
   </trkpt>
   <trkpt lat="-19.59504" lon="-43.86155">
    <ele>708.9100000000001</ele>
   </trkpt>
   <trkpt lat="-19.595474999995087" lon="-43.861699999571506">
    <ele>713.98</ele>
   </trkpt>
   <trkpt lat="-19.59591" lon="-43.861850000000004">
    <ele>717.37</ele>
   </trkpt>
   <trkpt lat="-19.59635" lon="-43.86202">
    <ele>725.3900000000001</ele>
   </trkpt>
   <trkpt lat="-19.59700999987548" lon="-43.86206499980658">
    <ele>732.1</ele>
   </trkpt>
   <trkpt lat="-19.59767" lon="-43.86211">
    <ele>742.1500000000001</ele>
   </trkpt>
   <trkpt lat="-19.598165000208912" lon="-43.862379999173776">
    <ele>746.63</ele>
   </trkpt>
   <trkpt lat="-19.598660000000002" lon="-43.86265">
    <ele>753.69</ele>
   </trkpt>
   <trkpt lat="-19.59935" lon="-43.86280000000001">
    <ele>757.08</ele>
   </trkpt>
   <trkpt lat="-19.60022" lon="-43.86292">
    <ele>764.57</ele>
   </trkpt>
   <trkpt lat="-19.60105" lon="-43.86301">
    <ele>778.23</ele>
   </trkpt>
   <trkpt lat="-19.60123" lon="-43.86296">
    <ele>781.5200000000001</ele>
   </trkpt>
   <trkpt lat="-19.601390000000002" lon="-43.86287">
    <ele>783.24</ele>
   </trkpt>
   <trkpt lat="-19.60151" lon="-43.86276">
    <ele>784.66</ele>
   </trkpt>
   <trkpt lat="-19.6018" lon="-43.862230000000004">
    <ele>792.2600000000001</ele>
   </trkpt>
   <trkpt lat="-19.601940000000003" lon="-43.86186">
    <ele>795.1700000000001</ele>
   </trkpt>
   <trkpt lat="-19.602130000000002" lon="-43.86115">
    <ele>796.1800000000001</ele>
   </trkpt>
   <trkpt lat="-19.60227" lon="-43.86081">
    <ele>796.5200000000001</ele>
   </trkpt>
   <trkpt lat="-19.602510000000002" lon="-43.86055">
    <ele>796.24</ele>
   </trkpt>
   <trkpt lat="-19.60276" lon="-43.86041">
    <ele>795.81</ele>
   </trkpt>
   <trkpt lat="-19.603160000000003" lon="-43.86014">
    <ele>796.0</ele>
   </trkpt>
   <trkpt lat="-19.60342" lon="-43.859790000000004">
    <ele>797.46</ele>
   </trkpt>
   <trkpt lat="-19.60378" lon="-43.85943">
    <ele>798.1400000000001</ele>
   </trkpt>
   <trkpt lat="-19.604210000000002" lon="-43.85922">
    <ele>793.0100000000001</ele>
   </trkpt>
   <trkpt lat="-19.60443" lon="-43.85916">
    <ele>791.75</ele>
   </trkpt>
   <trkpt lat="-19.60506" lon="-43.859120000000004">
    <ele>791.1800000000001</ele>
   </trkpt>
   <trkpt lat="-19.60527" lon="-43.859">
    <ele>791.4300000000001</ele>
   </trkpt>
   <trkpt lat="-19.60544" lon="-43.858830000000005">
    <ele>792.4300000000001</ele>
   </trkpt>
   <trkpt lat="-19.60572" lon="-43.85871">
    <ele>793.09</ele>
   </trkpt>
   <trkpt lat="-19.60629" lon="-43.858740000000004">
    <ele>791.94</ele>
   </trkpt>
   <trkpt lat="-19.606900000000003" lon="-43.858880000000006">
    <ele>793.2</ele>
   </trkpt>
   <trkpt lat="-19.60704" lon="-43.858940000000004">
    <ele>791.76</ele>
   </trkpt>
   <trkpt lat="-19.60752" lon="-43.85952">
    <ele>783.2500000000001</ele>
   </trkpt>
   <trkpt lat="-19.60781" lon="-43.85981">
    <ele>781.9800000000001</ele>
   </trkpt>
   <trkpt lat="-19.60822000012915" lon="-43.8600649993187">
    <ele>781.34</ele>
   </trkpt>
   <trkpt lat="-19.60863" lon="-43.86032">
    <ele>781.6</ele>
   </trkpt>
   <trkpt lat="-19.60911" lon="-43.86068">
    <ele>784.54</ele>
   </trkpt>
   <trkpt lat="-19.60921" lon="-43.8607">
    <ele>785.21</ele>
   </trkpt>
   <trkpt lat="-19.60941" lon="-43.860620000000004">
    <ele>784.3100000000001</ele>
   </trkpt>
   <trkpt lat="-19.60968" lon="-43.86048">
    <ele>780.5900000000001</ele>
   </trkpt>
   <trkpt lat="-19.60987" lon="-43.86052">
    <ele>776.6500000000001</ele>
   </trkpt>
   <trkpt lat="-19.61015" lon="-43.86061">
    <ele>774.08</ele>
   </trkpt>
   <trkpt lat="-19.610670000000002" lon="-43.86097">
    <ele>776.09</ele>
   </trkpt>
   <trkpt lat="-19.61109" lon="-43.86151">
    <ele>774.8900000000001</ele>
   </trkpt>
   <trkpt lat="-19.61146" lon="-43.861700000000006">
    <ele>774.96</ele>
   </trkpt>
   <trkpt lat="-19.61109" lon="-43.86151">
    <ele>774.8900000000001</ele>
   </trkpt>
   <trkpt lat="-19.610670000000002" lon="-43.86097">
    <ele>775.9800000000001</ele>
   </trkpt>
   <trkpt lat="-19.61015" lon="-43.86061">
    <ele>774.22</ele>
   </trkpt>
   <trkpt lat="-19.60987" lon="-43.86052">
    <ele>776.6500000000001</ele>
   </trkpt>
   <trkpt lat="-19.60968" lon="-43.86048">
    <ele>780.5900000000001</ele>
   </trkpt>
   <trkpt lat="-19.60941" lon="-43.860620000000004">
    <ele>784.3100000000001</ele>
   </trkpt>
   <trkpt lat="-19.60921" lon="-43.8607">
    <ele>785.11</ele>
   </trkpt>
   <trkpt lat="-19.60911" lon="-43.86068">
    <ele>784.54</ele>
   </trkpt>
   <trkpt lat="-19.60863" lon="-43.86032">
    <ele>781.6</ele>
   </trkpt>
   <trkpt lat="-19.60822000022962" lon="-43.8600649993812">
    <ele>781.34</ele>
   </trkpt>
   <trkpt lat="-19.60781" lon="-43.85981">
    <ele>781.9800000000001</ele>
   </trkpt>
   <trkpt lat="-19.60752" lon="-43.85952">
    <ele>783.5000000000001</ele>
   </trkpt>
   <trkpt lat="-19.60704" lon="-43.858940000000004">
    <ele>792.22</ele>
   </trkpt>
   <trkpt lat="-19.606900000000003" lon="-43.858880000000006">
    <ele>793.2</ele>
   </trkpt>
   <trkpt lat="-19.60705" lon="-43.85887">
    <ele>793.3100000000001</ele>
   </trkpt>
   <trkpt lat="-19.607210000000002" lon="-43.858830000000005">
    <ele>792.5600000000001</ele>
   </trkpt>
   <trkpt lat="-19.60725" lon="-43.85884">
    <ele>792.22</ele>
   </trkpt>
   <trkpt lat="-19.60734" lon="-43.85889">
    <ele>791.12</ele>
   </trkpt>
   <trkpt lat="-19.60743" lon="-43.85898">
    <ele>790.49</ele>
   </trkpt>
   <trkpt lat="-19.607480000000002" lon="-43.859">
    <ele>790.24</ele>
   </trkpt>
   <trkpt lat="-19.60761" lon="-43.859120000000004">
    <ele>789.6500000000001</ele>
   </trkpt>
   <trkpt lat="-19.60771" lon="-43.85916">
    <ele>789.6200000000001</ele>
   </trkpt>
   <trkpt lat="-19.60781" lon="-43.85916">
    <ele>789.6700000000001</ele>
   </trkpt>
   <trkpt lat="-19.607960000000002" lon="-43.85925">
    <ele>789.87</ele>
   </trkpt>
   <trkpt lat="-19.60808" lon="-43.85922">
    <ele>790.0800000000002</ele>
   </trkpt>
   <trkpt lat="-19.60818" lon="-43.85927">
    <ele>790.3800000000001</ele>
   </trkpt>
   <trkpt lat="-19.60826" lon="-43.85936">
    <ele>790.42</ele>
   </trkpt>
   <trkpt lat="-19.60836" lon="-43.8594">
    <ele>790.2900000000001</ele>
   </trkpt>
   <trkpt lat="-19.60846" lon="-43.85954">
    <ele>789.82</ele>
   </trkpt>
   <trkpt lat="-19.60857" lon="-43.85954">
    <ele>789.69</ele>
   </trkpt>
   <trkpt lat="-19.608710000000002" lon="-43.8596">
    <ele>789.7400000000001</ele>
   </trkpt>
   <trkpt lat="-19.60885" lon="-43.85981">
    <ele>790.59</ele>
   </trkpt>
   <trkpt lat="-19.609" lon="-43.85992">
    <ele>791.8900000000001</ele>
   </trkpt>
   <trkpt lat="-19.60911" lon="-43.85999">
    <ele>793.1600000000001</ele>
   </trkpt>
   <trkpt lat="-19.60913" lon="-43.86005">
    <ele>793.71</ele>
   </trkpt>
   <trkpt lat="-19.60923" lon="-43.860040000000005">
    <ele>795.0400000000001</ele>
   </trkpt>
   <trkpt lat="-19.609180000000002" lon="-43.85978">
    <ele>799.1400000000001</ele>
   </trkpt>
   <trkpt lat="-19.6092" lon="-43.85969">
    <ele>801.9300000000001</ele>
   </trkpt>
   <trkpt lat="-19.609170000000002" lon="-43.85947">
    <ele>803.86</ele>
   </trkpt>
   <trkpt lat="-19.609180000000002" lon="-43.85938">
    <ele>804.85</ele>
   </trkpt>
   <trkpt lat="-19.60911" lon="-43.85918">
    <ele>806.96</ele>
   </trkpt>
   <trkpt lat="-19.60912" lon="-43.85911">
    <ele>807.35</ele>
   </trkpt>
   <trkpt lat="-19.6092" lon="-43.85905">
    <ele>807.69</ele>
   </trkpt>
   <trkpt lat="-19.60949" lon="-43.85869">
    <ele>811.21</ele>
   </trkpt>
   <trkpt lat="-19.60961" lon="-43.85862">
    <ele>811.82</ele>
   </trkpt>
   <trkpt lat="-19.60978" lon="-43.85848">
    <ele>813.39</ele>
   </trkpt>
   <trkpt lat="-19.61008" lon="-43.85819">
    <ele>817.34</ele>
   </trkpt>
   <trkpt lat="-19.61034" lon="-43.85781">
    <ele>817.8900000000001</ele>
   </trkpt>
   <trkpt lat="-19.610500000000002" lon="-43.85712">
    <ele>824.1400000000001</ele>
   </trkpt>
   <trkpt lat="-19.61051" lon="-43.85692">
    <ele>827.1500000000001</ele>
   </trkpt>
   <trkpt lat="-19.61042" lon="-43.8564">
    <ele>834.67</ele>
   </trkpt>
   <trkpt lat="-19.61032" lon="-43.85611">
    <ele>837.8700000000001</ele>
   </trkpt>
   <trkpt lat="-19.60996" lon="-43.85562">
    <ele>841.74</ele>
   </trkpt>
   <trkpt lat="-19.60978" lon="-43.85517">
    <ele>848.32</ele>
   </trkpt>
   <trkpt lat="-19.60961" lon="-43.85497">
    <ele>852.5600000000001</ele>
   </trkpt>
   <trkpt lat="-19.60967" lon="-43.85475">
    <ele>854.59</ele>
   </trkpt>
   <trkpt lat="-19.61025" lon="-43.85407">
    <ele>853.3600000000001</ele>
   </trkpt>
   <trkpt lat="-19.61052" lon="-43.85385">
    <ele>853.23</ele>
   </trkpt>
   <trkpt lat="-19.61083" lon="-43.853640000000006">
    <ele>853.49</ele>
   </trkpt>
   <trkpt lat="-19.61118" lon="-43.85343">
    <ele>852.74</ele>
   </trkpt>
   <trkpt lat="-19.61164" lon="-43.85329">
    <ele>851.37</ele>
   </trkpt>
   <trkpt lat="-19.61184" lon="-43.85327">
    <ele>850.6400000000001</ele>
   </trkpt>
   <trkpt lat="-19.61248" lon="-43.85327">
    <ele>848.1200000000001</ele>
   </trkpt>
   <trkpt lat="-19.61277" lon="-43.8532">
    <ele>846.0500000000001</ele>
   </trkpt>
   <trkpt lat="-19.61325" lon="-43.853030000000004">
    <ele>841.6800000000001</ele>
   </trkpt>
   <trkpt lat="-19.61334" lon="-43.85291">
    <ele>838.46</ele>
   </trkpt>
   <trkpt lat="-19.61336" lon="-43.85244">
    <ele>833.82</ele>
   </trkpt>
   <trkpt lat="-19.61344" lon="-43.85193">
    <ele>826.5400000000001</ele>
   </trkpt>
   <trkpt lat="-19.61344" lon="-43.8517">
    <ele>822.9000000000001</ele>
   </trkpt>
   <trkpt lat="-19.61362" lon="-43.851330000000004">
    <ele>817.98</ele>
   </trkpt>
   <trkpt lat="-19.61371" lon="-43.85123">
    <ele>815.45</ele>
   </trkpt>
   <trkpt lat="-19.61383" lon="-43.85112">
    <ele>812.5500000000001</ele>
   </trkpt>
   <trkpt lat="-19.61437" lon="-43.850860000000004">
    <ele>801.42</ele>
   </trkpt>
   <trkpt lat="-19.61438" lon="-43.85085">
    <ele>801.42</ele>
   </trkpt>
   <trkpt lat="-19.614720000000002" lon="-43.85081">
    <ele>794.71</ele>
   </trkpt>
   <trkpt lat="-19.614890000000003" lon="-43.85087">
    <ele>791.9100000000001</ele>
   </trkpt>
   <trkpt lat="-19.61493" lon="-43.85087">
    <ele>791.37</ele>
   </trkpt>
   <trkpt lat="-19.61502" lon="-43.85079">
    <ele>790.0</ele>
   </trkpt>
   <trkpt lat="-19.615270000000002" lon="-43.8509">
    <ele>788.95</ele>
   </trkpt>
   <trkpt lat="-19.6155" lon="-43.851060000000004">
    <ele>788.02</ele>
   </trkpt>
   <trkpt lat="-19.61586" lon="-43.85119">
    <ele>788.3000000000001</ele>
   </trkpt>
   <trkpt lat="-19.61635" lon="-43.8513">
    <ele>790.34</ele>
   </trkpt>
   <trkpt lat="-19.61653" lon="-43.85128">
    <ele>792.5200000000001</ele>
   </trkpt>
   <trkpt lat="-19.61673" lon="-43.85116">
    <ele>793.71</ele>
   </trkpt>
   <trkpt lat="-19.61722000024829" lon="-43.850795001201504">
    <ele>800.6800000000001</ele>
   </trkpt>
   <trkpt lat="-19.617710000000002" lon="-43.85043">
    <ele>802.37</ele>
   </trkpt>
   <trkpt lat="-19.618090000000002" lon="-43.85029">
    <ele>802.1</ele>
   </trkpt>
   <trkpt lat="-19.61842" lon="-43.85032">
    <ele>802.1400000000001</ele>
   </trkpt>
   <trkpt lat="-19.6186" lon="-43.85038">
    <ele>802.3800000000001</ele>
   </trkpt>
   <trkpt lat="-19.618850000000002" lon="-43.85052">
    <ele>802.94</ele>
   </trkpt>
   <trkpt lat="-19.61923" lon="-43.85063">
    <ele>804.15</ele>
   </trkpt>
   <trkpt lat="-19.61961" lon="-43.85069">
    <ele>806.4100000000001</ele>
   </trkpt>
   <trkpt lat="-19.619950000000003" lon="-43.85069">
    <ele>808.33</ele>
   </trkpt>
   <trkpt lat="-19.62028" lon="-43.85063">
    <ele>810.69</ele>
   </trkpt>
   <trkpt lat="-19.62064" lon="-43.85054">
    <ele>811.73</ele>
   </trkpt>
   <trkpt lat="-19.620990000000003" lon="-43.85034">
    <ele>810.47</ele>
   </trkpt>
   <trkpt lat="-19.62133" lon="-43.85">
    <ele>810.39</ele>
   </trkpt>
   <trkpt lat="-19.62153" lon="-43.84978">
    <ele>810.74</ele>
   </trkpt>
   <trkpt lat="-19.621660000000002" lon="-43.8496">
    <ele>811.45</ele>
   </trkpt>
   <trkpt lat="-19.62179" lon="-43.84944">
    <ele>811.76</ele>
   </trkpt>
   <trkpt lat="-19.62197" lon="-43.84937">
    <ele>812.9000000000001</ele>
   </trkpt>
   <trkpt lat="-19.62225" lon="-43.8494">
    <ele>813.8700000000001</ele>
   </trkpt>
   <trkpt lat="-19.622680000000003" lon="-43.8496">
    <ele>816.61</ele>
   </trkpt>
   <trkpt lat="-19.62281" lon="-43.84978">
    <ele>818.0500000000001</ele>
   </trkpt>
   <trkpt lat="-19.623060000000002" lon="-43.85027">
    <ele>824.7200000000001</ele>
   </trkpt>
   <trkpt lat="-19.6231" lon="-43.85061">
    <ele>827.45</ele>
   </trkpt>
   <trkpt lat="-19.623260000000002" lon="-43.85085">
    <ele>831.5400000000001</ele>
   </trkpt>
   <trkpt lat="-19.62367" lon="-43.85112">
    <ele>839.4</ele>
   </trkpt>
   <trkpt lat="-19.62413" lon="-43.8513">
    <ele>835.83</ele>
   </trkpt>
   <trkpt lat="-19.6244" lon="-43.851440000000004">
    <ele>831.2</ele>
   </trkpt>
   <trkpt lat="-19.624980000876302" lon="-43.8519949980215">
    <ele>827.88</ele>
   </trkpt>
   <trkpt lat="-19.62556" lon="-43.85255">
    <ele>830.5600000000001</ele>
   </trkpt>
   <trkpt lat="-19.625870000000003" lon="-43.852740000000004">
    <ele>833.0200000000001</ele>
   </trkpt>
   <trkpt lat="-19.6262" lon="-43.85291">
    <ele>834.79</ele>
   </trkpt>
   <trkpt lat="-19.62676" lon="-43.85304000000001">
    <ele>837.7500000000001</ele>
   </trkpt>
   <trkpt lat="-19.62706" lon="-43.853">
    <ele>838.9100000000001</ele>
   </trkpt>
   <trkpt lat="-19.627580000000002" lon="-43.85273">
    <ele>838.0200000000001</ele>
   </trkpt>
   <trkpt lat="-19.62772" lon="-43.85271">
    <ele>838.7500000000001</ele>
   </trkpt>
   <trkpt lat="-19.628230000000002" lon="-43.85284">
    <ele>843.64</ele>
   </trkpt>
   <trkpt lat="-19.62838" lon="-43.85282">
    <ele>844.47</ele>
   </trkpt>
   <trkpt lat="-19.62892" lon="-43.85244">
    <ele>840.4100000000001</ele>
   </trkpt>
   <trkpt lat="-19.629170000000002" lon="-43.85222">
    <ele>838.1800000000001</ele>
   </trkpt>
   <trkpt lat="-19.6292" lon="-43.852000000000004">
    <ele>836.9700000000001</ele>
   </trkpt>
   <trkpt lat="-19.62913" lon="-43.85179">
    <ele>833.5400000000001</ele>
   </trkpt>
   <trkpt lat="-19.62911" lon="-43.85155">
    <ele>831.79</ele>
   </trkpt>
   <trkpt lat="-19.629360000000002" lon="-43.85148">
    <ele>830.44</ele>
   </trkpt>
   <trkpt lat="-19.62996" lon="-43.851510000000005">
    <ele>834.8000000000001</ele>
   </trkpt>
   <trkpt lat="-19.63042" lon="-43.85148">
    <ele>834.6300000000001</ele>
   </trkpt>
   <trkpt lat="-19.630990000055892" lon="-43.851534999809424">
    <ele>836.64</ele>
   </trkpt>
   <trkpt lat="-19.63156" lon="-43.85159">
    <ele>842.01</ele>
   </trkpt>
   <trkpt lat="-19.63202" lon="-43.851510000000005">
    <ele>846.28</ele>
   </trkpt>
   <trkpt lat="-19.632350000000002" lon="-43.851330000000004">
    <ele>851.89</ele>
   </trkpt>
   <trkpt lat="-19.632700000501917" lon="-43.85095000071608">
    <ele>853.34</ele>
   </trkpt>
   <trkpt lat="-19.63305" lon="-43.850570000000005">
    <ele>853.98</ele>
   </trkpt>
   <trkpt lat="-19.63315" lon="-43.85049">
    <ele>854.71</ele>
   </trkpt>
   <trkpt lat="-19.63353" lon="-43.85038">
    <ele>858.6400000000001</ele>
   </trkpt>
   <trkpt lat="-19.634320000000002" lon="-43.85047">
    <ele>867.3700000000001</ele>
   </trkpt>
   <trkpt lat="-19.634510000000002" lon="-43.850590000000004">
    <ele>868.2800000000001</ele>
   </trkpt>
   <trkpt lat="-19.63481" lon="-43.85074">
    <ele>868.53</ele>
   </trkpt>
   <trkpt lat="-19.635450000000002" lon="-43.850880000000004">
    <ele>872.1300000000001</ele>
   </trkpt>
   <trkpt lat="-19.63586" lon="-43.850860000000004">
    <ele>876.9100000000001</ele>
   </trkpt>
   <trkpt lat="-19.63596" lon="-43.850880000000004">
    <ele>878.1200000000001</ele>
   </trkpt>
   <trkpt lat="-19.63597" lon="-43.850880000000004">
    <ele>878.1800000000001</ele>
   </trkpt>
   <trkpt lat="-19.63595" lon="-43.85072">
    <ele>878.82</ele>
   </trkpt>
   <trkpt lat="-19.636120000000002" lon="-43.85034">
    <ele>882.1000000000001</ele>
   </trkpt>
   <trkpt lat="-19.636480000000002" lon="-43.85005">
    <ele>886.72</ele>
   </trkpt>
   <trkpt lat="-19.636850000000003" lon="-43.84982">
    <ele>889.65</ele>
   </trkpt>
   <trkpt lat="-19.63716000036475" lon="-43.84945500070846">
    <ele>888.9800000000001</ele>
   </trkpt>
   <trkpt lat="-19.63747" lon="-43.849090000000004">
    <ele>889.34</ele>
   </trkpt>
   <trkpt lat="-19.637320000000003" lon="-43.84859">
    <ele>894.99</ele>
   </trkpt>
   <trkpt lat="-19.637330000000002" lon="-43.84821">
    <ele>900.0300000000001</ele>
   </trkpt>
   <trkpt lat="-19.63744" lon="-43.84772">
    <ele>903.8800000000001</ele>
   </trkpt>
   <trkpt lat="-19.63739" lon="-43.84752">
    <ele>905.7400000000001</ele>
   </trkpt>
   <trkpt lat="-19.63727" lon="-43.84729">
    <ele>908.8000000000001</ele>
   </trkpt>
   <trkpt lat="-19.63727" lon="-43.84716">
    <ele>910.14</ele>
   </trkpt>
   <trkpt lat="-19.637330000000002" lon="-43.84711">
    <ele>910.87</ele>
   </trkpt>
   <trkpt lat="-19.63735" lon="-43.847100000000005">
    <ele>910.87</ele>
   </trkpt>
   <trkpt lat="-19.63746" lon="-43.84711">
    <ele>912.3100000000001</ele>
   </trkpt>
   <trkpt lat="-19.637610000000002" lon="-43.84727">
    <ele>913.95</ele>
   </trkpt>
   <trkpt lat="-19.63791" lon="-43.8477">
    <ele>919.5300000000001</ele>
   </trkpt>
   <trkpt lat="-19.638080000000002" lon="-43.847860000000004">
    <ele>923.4100000000001</ele>
   </trkpt>
   <trkpt lat="-19.638740000000002" lon="-43.8481">
    <ele>931.8000000000001</ele>
   </trkpt>
   <trkpt lat="-19.63905" lon="-43.84808">
    <ele>934.6200000000001</ele>
   </trkpt>
   <trkpt lat="-19.639390000000002" lon="-43.84796">
    <ele>936.7400000000001</ele>
   </trkpt>
   <trkpt lat="-19.6398" lon="-43.84785">
    <ele>939.64</ele>
   </trkpt>
   <trkpt lat="-19.64007" lon="-43.847640000000006">
    <ele>940.6200000000001</ele>
   </trkpt>
   <trkpt lat="-19.64027" lon="-43.847570000000005">
    <ele>942.5000000000001</ele>
   </trkpt>
   <trkpt lat="-19.640430000000002" lon="-43.84763">
    <ele>945.69</ele>
   </trkpt>
   <trkpt lat="-19.640510000000003" lon="-43.84774">
    <ele>946.86</ele>
   </trkpt>
   <trkpt lat="-19.640610000000002" lon="-43.84799">
    <ele>949.27</ele>
   </trkpt>
   <trkpt lat="-19.64074" lon="-43.848150000000004">
    <ele>950.0600000000001</ele>
   </trkpt>
   <trkpt lat="-19.64082" lon="-43.84832">
    <ele>950.5500000000001</ele>
   </trkpt>
   <trkpt lat="-19.640790000000003" lon="-43.84834">
    <ele>950.5500000000001</ele>
   </trkpt>
   <trkpt lat="-19.640810000000002" lon="-43.848330000000004">
    <ele>950.5500000000001</ele>
   </trkpt>
   <trkpt lat="-19.64055" lon="-43.84855">
    <ele>951.5400000000001</ele>
   </trkpt>
   <trkpt lat="-19.64054" lon="-43.8487">
    <ele>951.88</ele>
   </trkpt>
   <trkpt lat="-19.6403" lon="-43.849070000000005">
    <ele>952.4</ele>
   </trkpt>
   <trkpt lat="-19.64016" lon="-43.84908">
    <ele>944.7200000000001</ele>
   </trkpt>
   <trkpt lat="-19.64007" lon="-43.84913">
    <ele>946.5000000000001</ele>
   </trkpt>
   <trkpt lat="-19.6399" lon="-43.849180000000004">
    <ele>949.46</ele>
   </trkpt>
   <trkpt lat="-19.6395" lon="-43.84929">
    <ele>949.0100000000001</ele>
   </trkpt>
   <trkpt lat="-19.639370000000003" lon="-43.84930000000001">
    <ele>949.4100000000001</ele>
   </trkpt>
   <trkpt lat="-19.63914" lon="-43.84942">
    <ele>945.69</ele>
   </trkpt>
   <trkpt lat="-19.63905" lon="-43.849450000000004">
    <ele>943.7500000000001</ele>
   </trkpt>
   <trkpt lat="-19.638900000000003" lon="-43.84948000000001">
    <ele>943.88</ele>
   </trkpt>
   <trkpt lat="-19.638540000000003" lon="-43.84949">
    <ele>943.32</ele>
   </trkpt>
   <trkpt lat="-19.638430000000003" lon="-43.849540000000005">
    <ele>939.42</ele>
   </trkpt>
   <trkpt lat="-19.638170000000002" lon="-43.84977000000001">
    <ele>934.7700000000001</ele>
   </trkpt>
   <trkpt lat="-19.637960000000003" lon="-43.849900000000005">
    <ele>926.7700000000001</ele>
   </trkpt>
   <trkpt lat="-19.637890000000002" lon="-43.849990000000005">
    <ele>923.0300000000001</ele>
   </trkpt>
   <trkpt lat="-19.637580000000003" lon="-43.850190000000005">
    <ele>915.71</ele>
   </trkpt>
   <trkpt lat="-19.637500000000003" lon="-43.850280000000005">
    <ele>913.5400000000001</ele>
   </trkpt>
   <trkpt lat="-19.637420000000002" lon="-43.85033000000001">
    <ele>912.72</ele>
   </trkpt>
   <trkpt lat="-19.63727" lon="-43.85036">
    <ele>912.66</ele>
   </trkpt>
   <trkpt lat="-19.637030000000003" lon="-43.850480000000005">
    <ele>906.7100000000002</ele>
   </trkpt>
   <trkpt lat="-19.636840000000003" lon="-43.85054">
    <ele>904.99</ele>
   </trkpt>
   <trkpt lat="-19.63664" lon="-43.85049">
    <ele>903.5300000000001</ele>
   </trkpt>
   <trkpt lat="-19.63635" lon="-43.850460000000005">
    <ele>894.6700000000001</ele>
   </trkpt>
   <trkpt lat="-19.636280000000003" lon="-43.85054">
    <ele>892.7100000000002</ele>
   </trkpt>
   <trkpt lat="-19.63624" lon="-43.85063">
    <ele>891.5</ele>
   </trkpt>
   <trkpt lat="-19.63614" lon="-43.85069">
    <ele>889.8000000000001</ele>
   </trkpt>
   <trkpt lat="-19.63607" lon="-43.85078">
    <ele>885.9300000000001</ele>
   </trkpt>
   <trkpt lat="-19.63597" lon="-43.850880000000004">
    <ele>882.38</ele>
   </trkpt>
   <trkpt lat="-19.63586" lon="-43.850860000000004">
    <ele>876.9100000000001</ele>
   </trkpt>
   <trkpt lat="-19.635450000000002" lon="-43.850880000000004">
    <ele>872.1300000000001</ele>
   </trkpt>
   <trkpt lat="-19.63481" lon="-43.85074">
    <ele>868.4300000000001</ele>
   </trkpt>
   <trkpt lat="-19.634510000000002" lon="-43.850590000000004">
    <ele>868.21</ele>
   </trkpt>
   <trkpt lat="-19.634320000000002" lon="-43.85047">
    <ele>867.0300000000001</ele>
   </trkpt>
   <trkpt lat="-19.63353" lon="-43.85038">
    <ele>857.69</ele>
   </trkpt>
   <trkpt lat="-19.63315" lon="-43.85049">
    <ele>854.71</ele>
   </trkpt>
   <trkpt lat="-19.63305" lon="-43.850570000000005">
    <ele>853.98</ele>
   </trkpt>
   <trkpt lat="-19.632700000295635" lon="-43.85095000094005">
    <ele>853.34</ele>
   </trkpt>
   <trkpt lat="-19.632350000000002" lon="-43.851330000000004">
    <ele>851.37</ele>
   </trkpt>
   <trkpt lat="-19.63202" lon="-43.851510000000005">
    <ele>846.28</ele>
   </trkpt>
   <trkpt lat="-19.63156" lon="-43.85159">
    <ele>842.01</ele>
   </trkpt>
   <trkpt lat="-19.630989999960814" lon="-43.85153499980025">
    <ele>836.64</ele>
   </trkpt>
   <trkpt lat="-19.63042" lon="-43.85148">
    <ele>834.6500000000001</ele>
   </trkpt>
   <trkpt lat="-19.62996" lon="-43.851510000000005">
    <ele>834.8000000000001</ele>
   </trkpt>
   <trkpt lat="-19.629360000000002" lon="-43.85148">
    <ele>830.4800000000001</ele>
   </trkpt>
   <trkpt lat="-19.62911" lon="-43.85155">
    <ele>831.79</ele>
   </trkpt>
   <trkpt lat="-19.62913" lon="-43.85179">
    <ele>833.5400000000001</ele>
   </trkpt>
   <trkpt lat="-19.6292" lon="-43.852000000000004">
    <ele>836.9700000000001</ele>
   </trkpt>
   <trkpt lat="-19.629170000000002" lon="-43.85222">
    <ele>838.49</ele>
   </trkpt>
   <trkpt lat="-19.62892" lon="-43.85244">
    <ele>840.4100000000001</ele>
   </trkpt>
   <trkpt lat="-19.62838" lon="-43.85282">
    <ele>844.22</ele>
   </trkpt>
   <trkpt lat="-19.628230000000002" lon="-43.85284">
    <ele>843.64</ele>
   </trkpt>
   <trkpt lat="-19.62772" lon="-43.85271">
    <ele>838.44</ele>
   </trkpt>
   <trkpt lat="-19.627580000000002" lon="-43.85273">
    <ele>837.9100000000001</ele>
   </trkpt>
   <trkpt lat="-19.62706" lon="-43.853">
    <ele>838.86</ele>
   </trkpt>
   <trkpt lat="-19.62676" lon="-43.85304000000001">
    <ele>837.7500000000001</ele>
   </trkpt>
   <trkpt lat="-19.6262" lon="-43.85291">
    <ele>834.79</ele>
   </trkpt>
   <trkpt lat="-19.625870000000003" lon="-43.852740000000004">
    <ele>833.0200000000001</ele>
   </trkpt>
   <trkpt lat="-19.62556" lon="-43.85255">
    <ele>830.5600000000001</ele>
   </trkpt>
   <trkpt lat="-19.62498000082443" lon="-43.85199499797187">
    <ele>827.86</ele>
   </trkpt>
   <trkpt lat="-19.6244" lon="-43.851440000000004">
    <ele>831.71</ele>
   </trkpt>
   <trkpt lat="-19.62413" lon="-43.8513">
    <ele>835.83</ele>
   </trkpt>
   <trkpt lat="-19.62367" lon="-43.85112">
    <ele>839.4</ele>
   </trkpt>
   <trkpt lat="-19.623260000000002" lon="-43.85085">
    <ele>831.5400000000001</ele>
   </trkpt>
   <trkpt lat="-19.6231" lon="-43.85061">
    <ele>827.45</ele>
   </trkpt>
   <trkpt lat="-19.623060000000002" lon="-43.85027">
    <ele>824.7200000000001</ele>
   </trkpt>
   <trkpt lat="-19.62281" lon="-43.84978">
    <ele>818.0500000000001</ele>
   </trkpt>
   <trkpt lat="-19.622680000000003" lon="-43.8496">
    <ele>816.61</ele>
   </trkpt>
   <trkpt lat="-19.62225" lon="-43.8494">
    <ele>813.8700000000001</ele>
   </trkpt>
   <trkpt lat="-19.62197" lon="-43.84937">
    <ele>812.9000000000001</ele>
   </trkpt>
   <trkpt lat="-19.62179" lon="-43.84944">
    <ele>811.76</ele>
   </trkpt>
   <trkpt lat="-19.621660000000002" lon="-43.8496">
    <ele>811.45</ele>
   </trkpt>
   <trkpt lat="-19.62153" lon="-43.84978">
    <ele>810.74</ele>
   </trkpt>
   <trkpt lat="-19.62133" lon="-43.85">
    <ele>810.39</ele>
   </trkpt>
   <trkpt lat="-19.620990000000003" lon="-43.85034">
    <ele>810.47</ele>
   </trkpt>
   <trkpt lat="-19.62064" lon="-43.85054">
    <ele>811.8100000000001</ele>
   </trkpt>
   <trkpt lat="-19.62028" lon="-43.85063">
    <ele>810.69</ele>
   </trkpt>
   <trkpt lat="-19.619950000000003" lon="-43.85069">
    <ele>808.33</ele>
   </trkpt>
   <trkpt lat="-19.61961" lon="-43.85069">
    <ele>806.4100000000001</ele>
   </trkpt>
   <trkpt lat="-19.61923" lon="-43.85063">
    <ele>804.15</ele>
   </trkpt>
   <trkpt lat="-19.618850000000002" lon="-43.85052">
    <ele>802.94</ele>
   </trkpt>
   <trkpt lat="-19.6186" lon="-43.85038">
    <ele>802.3800000000001</ele>
   </trkpt>
   <trkpt lat="-19.61842" lon="-43.85032">
    <ele>802.1400000000001</ele>
   </trkpt>
   <trkpt lat="-19.618090000000002" lon="-43.85029">
    <ele>802.1</ele>
   </trkpt>
   <trkpt lat="-19.617710000000002" lon="-43.85043">
    <ele>802.37</ele>
   </trkpt>
   <trkpt lat="-19.61722000048705" lon="-43.85079500102366">
    <ele>800.6800000000001</ele>
   </trkpt>
   <trkpt lat="-19.61673" lon="-43.85116">
    <ele>793.71</ele>
   </trkpt>
   <trkpt lat="-19.61653" lon="-43.85128">
    <ele>792.5200000000001</ele>
   </trkpt>
   <trkpt lat="-19.61635" lon="-43.8513">
    <ele>790.34</ele>
   </trkpt>
   <trkpt lat="-19.61586" lon="-43.85119">
    <ele>788.3000000000001</ele>
   </trkpt>
   <trkpt lat="-19.6155" lon="-43.851060000000004">
    <ele>788.02</ele>
   </trkpt>
   <trkpt lat="-19.615270000000002" lon="-43.8509">
    <ele>788.95</ele>
   </trkpt>
   <trkpt lat="-19.61502" lon="-43.85079">
    <ele>790.0</ele>
   </trkpt>
   <trkpt lat="-19.61493" lon="-43.85087">
    <ele>791.37</ele>
   </trkpt>
   <trkpt lat="-19.614890000000003" lon="-43.85087">
    <ele>791.9100000000001</ele>
   </trkpt>
   <trkpt lat="-19.614720000000002" lon="-43.85081">
    <ele>794.71</ele>
   </trkpt>
   <trkpt lat="-19.61438" lon="-43.85085">
    <ele>801.39</ele>
   </trkpt>
   <trkpt lat="-19.61437" lon="-43.850860000000004">
    <ele>801.39</ele>
   </trkpt>
   <trkpt lat="-19.61383" lon="-43.85112">
    <ele>812.5500000000001</ele>
   </trkpt>
   <trkpt lat="-19.61371" lon="-43.85123">
    <ele>815.45</ele>
   </trkpt>
   <trkpt lat="-19.61362" lon="-43.851330000000004">
    <ele>817.98</ele>
   </trkpt>
   <trkpt lat="-19.61344" lon="-43.8517">
    <ele>822.9000000000001</ele>
   </trkpt>
   <trkpt lat="-19.61344" lon="-43.85193">
    <ele>826.5400000000001</ele>
   </trkpt>
   <trkpt lat="-19.61336" lon="-43.85244">
    <ele>833.82</ele>
   </trkpt>
   <trkpt lat="-19.61334" lon="-43.85291">
    <ele>838.46</ele>
   </trkpt>
   <trkpt lat="-19.61325" lon="-43.853030000000004">
    <ele>841.6800000000001</ele>
   </trkpt>
   <trkpt lat="-19.61277" lon="-43.8532">
    <ele>846.0500000000001</ele>
   </trkpt>
   <trkpt lat="-19.61248" lon="-43.85327">
    <ele>848.1200000000001</ele>
   </trkpt>
   <trkpt lat="-19.61184" lon="-43.85327">
    <ele>850.6400000000001</ele>
   </trkpt>
   <trkpt lat="-19.61164" lon="-43.85329">
    <ele>851.37</ele>
   </trkpt>
   <trkpt lat="-19.61118" lon="-43.85343">
    <ele>852.74</ele>
   </trkpt>
   <trkpt lat="-19.61083" lon="-43.853640000000006">
    <ele>853.49</ele>
   </trkpt>
   <trkpt lat="-19.61052" lon="-43.85385">
    <ele>853.23</ele>
   </trkpt>
   <trkpt lat="-19.61025" lon="-43.85407">
    <ele>853.3600000000001</ele>
   </trkpt>
   <trkpt lat="-19.60967" lon="-43.85475">
    <ele>854.59</ele>
   </trkpt>
   <trkpt lat="-19.60961" lon="-43.85497">
    <ele>852.5600000000001</ele>
   </trkpt>
   <trkpt lat="-19.60978" lon="-43.85517">
    <ele>848.32</ele>
   </trkpt>
   <trkpt lat="-19.60996" lon="-43.85562">
    <ele>841.74</ele>
   </trkpt>
   <trkpt lat="-19.61032" lon="-43.85611">
    <ele>837.8700000000001</ele>
   </trkpt>
   <trkpt lat="-19.61042" lon="-43.8564">
    <ele>834.67</ele>
   </trkpt>
   <trkpt lat="-19.61051" lon="-43.85692">
    <ele>827.1500000000001</ele>
   </trkpt>
   <trkpt lat="-19.610500000000002" lon="-43.85712">
    <ele>824.1400000000001</ele>
   </trkpt>
   <trkpt lat="-19.61034" lon="-43.85781">
    <ele>817.8900000000001</ele>
   </trkpt>
   <trkpt lat="-19.61008" lon="-43.85819">
    <ele>817.34</ele>
   </trkpt>
   <trkpt lat="-19.60978" lon="-43.85848">
    <ele>813.39</ele>
   </trkpt>
   <trkpt lat="-19.60961" lon="-43.85862">
    <ele>811.82</ele>
   </trkpt>
   <trkpt lat="-19.60949" lon="-43.85869">
    <ele>811.21</ele>
   </trkpt>
   <trkpt lat="-19.6092" lon="-43.85905">
    <ele>807.69</ele>
   </trkpt>
   <trkpt lat="-19.60912" lon="-43.85911">
    <ele>807.35</ele>
   </trkpt>
   <trkpt lat="-19.60912" lon="-43.859140000000004">
    <ele>807.09</ele>
   </trkpt>
   <trkpt lat="-19.60912" lon="-43.85916">
    <ele>807.1800000000001</ele>
   </trkpt>
   <trkpt lat="-19.60902" lon="-43.859140000000004">
    <ele>806.91</ele>
   </trkpt>
   <trkpt lat="-19.60893" lon="-43.859100000000005">
    <ele>808.39</ele>
   </trkpt>
   <trkpt lat="-19.608770000000003" lon="-43.859080000000006">
    <ele>805.95</ele>
   </trkpt>
   <trkpt lat="-19.60865" lon="-43.85902">
    <ele>804.73</ele>
   </trkpt>
   <trkpt lat="-19.608530000000002" lon="-43.859010000000005">
    <ele>804.73</ele>
   </trkpt>
   <trkpt lat="-19.608430000000002" lon="-43.85897000000001">
    <ele>802.24</ele>
   </trkpt>
   <trkpt lat="-19.60836" lon="-43.85891">
    <ele>804.64</ele>
   </trkpt>
   <trkpt lat="-19.608230000000002" lon="-43.858720000000005">
    <ele>807.7800000000001</ele>
   </trkpt>
   <trkpt lat="-19.608220000000003" lon="-43.85862">
    <ele>811.52</ele>
   </trkpt>
   <trkpt lat="-19.608240000000002" lon="-43.85850000000001">
    <ele>814.71</ele>
   </trkpt>
   <trkpt lat="-19.60817" lon="-43.858430000000006">
    <ele>815.7800000000001</ele>
   </trkpt>
   <trkpt lat="-19.60807" lon="-43.85848">
    <ele>812.8000000000001</ele>
   </trkpt>
   <trkpt lat="-19.60797" lon="-43.85846">
    <ele>811.3100000000001</ele>
   </trkpt>
   <trkpt lat="-19.607770000000002" lon="-43.85824">
    <ele>810.0600000000001</ele>
   </trkpt>
   <trkpt lat="-19.607670000000002" lon="-43.858180000000004">
    <ele>804.9300000000001</ele>
   </trkpt>
   <trkpt lat="-19.607570000000003" lon="-43.85819">
    <ele>801.0600000000001</ele>
   </trkpt>
   <trkpt lat="-19.607460000000003" lon="-43.858250000000005">
    <ele>795.2800000000001</ele>
   </trkpt>
   <trkpt lat="-19.607370000000003" lon="-43.85822">
    <ele>792.8600000000001</ele>
   </trkpt>
   <trkpt lat="-19.607300000000002" lon="-43.857960000000006">
    <ele>791.85</ele>
   </trkpt>
   <trkpt lat="-19.607210000000002" lon="-43.85795">
    <ele>788.1400000000001</ele>
   </trkpt>
   <trkpt lat="-19.60716" lon="-43.85802">
    <ele>787.39</ele>
   </trkpt>
   <trkpt lat="-19.606990000000003" lon="-43.85801">
    <ele>784.63</ele>
   </trkpt>
   <trkpt lat="-19.606820000000003" lon="-43.85783000000001">
    <ele>779.24</ele>
   </trkpt>
   <trkpt lat="-19.60677" lon="-43.85774000000001">
    <ele>777.7600000000001</ele>
   </trkpt>
   <trkpt lat="-19.60657" lon="-43.857620000000004">
    <ele>775.2800000000001</ele>
   </trkpt>
   <trkpt lat="-19.60649" lon="-43.85752">
    <ele>773.69</ele>
   </trkpt>
   <trkpt lat="-19.60648" lon="-43.857420000000005">
    <ele>770.94</ele>
   </trkpt>
   <trkpt lat="-19.60638" lon="-43.85734">
    <ele>769.1600000000001</ele>
   </trkpt>
   <trkpt lat="-19.606350000000003" lon="-43.85723">
    <ele>767.73</ele>
   </trkpt>
   <trkpt lat="-19.606270000000002" lon="-43.85717">
    <ele>766.7700000000001</ele>
   </trkpt>
   <trkpt lat="-19.606170000000002" lon="-43.85716">
    <ele>767.7900000000001</ele>
   </trkpt>
   <trkpt lat="-19.606070000000003" lon="-43.857060000000004">
    <ele>768.24</ele>
   </trkpt>
   <trkpt lat="-19.605970000000003" lon="-43.857020000000006">
    <ele>768.09</ele>
   </trkpt>
   <trkpt lat="-19.60564" lon="-43.857020000000006">
    <ele>762.6500000000001</ele>
   </trkpt>
   <trkpt lat="-19.60525" lon="-43.85712">
    <ele>757.0300000000001</ele>
   </trkpt>
   <trkpt lat="-19.605040000000002" lon="-43.857350000000004">
    <ele>756.3700000000001</ele>
   </trkpt>
   <trkpt lat="-19.604840000000003" lon="-43.85737">
    <ele>751.58</ele>
   </trkpt>
   <trkpt lat="-19.604660000000003" lon="-43.857490000000006">
    <ele>748.0000000000001</ele>
   </trkpt>
   <trkpt lat="-19.60454" lon="-43.85752">
    <ele>748.0000000000001</ele>
   </trkpt>
   <trkpt lat="-19.60443" lon="-43.85759">
    <ele>748.89</ele>
   </trkpt>
   <trkpt lat="-19.604380000000003" lon="-43.85779">
    <ele>752.7800000000001</ele>
   </trkpt>
   <trkpt lat="-19.60433" lon="-43.85788">
    <ele>755.33</ele>
   </trkpt>
   <trkpt lat="-19.60426" lon="-43.857940000000006">
    <ele>757.58</ele>
   </trkpt>
   <trkpt lat="-19.60417" lon="-43.85804">
    <ele>761.83</ele>
   </trkpt>
   <trkpt lat="-19.60424" lon="-43.858270000000005">
    <ele>767.7400000000001</ele>
   </trkpt>
   <trkpt lat="-19.60414" lon="-43.858320000000006">
    <ele>767.51</ele>
   </trkpt>
   <trkpt lat="-19.60405" lon="-43.85835">
    <ele>767.96</ele>
   </trkpt>
   <trkpt lat="-19.603930000000002" lon="-43.85831">
    <ele>767.2500000000001</ele>
   </trkpt>
   <trkpt lat="-19.603810000000003" lon="-43.85835">
    <ele>767.87</ele>
   </trkpt>
   <trkpt lat="-19.60377" lon="-43.85848">
    <ele>770.33</ele>
   </trkpt>
   <trkpt lat="-19.60367" lon="-43.85855">
    <ele>771.39</ele>
   </trkpt>
   <trkpt lat="-19.603640000000002" lon="-43.85877000000001">
    <ele>776.39</ele>
   </trkpt>
   <trkpt lat="-19.60377" lon="-43.8588">
    <ele>778.02</ele>
   </trkpt>
   <trkpt lat="-19.60407" lon="-43.8588">
    <ele>779.0400000000001</ele>
   </trkpt>
   <trkpt lat="-19.60453" lon="-43.85869">
    <ele>779.57</ele>
   </trkpt>
   <trkpt lat="-19.60488" lon="-43.85857">
    <ele>781.88</ele>
   </trkpt>
   <trkpt lat="-19.60563" lon="-43.85864">
    <ele>791.98</ele>
   </trkpt>
   <trkpt lat="-19.60572" lon="-43.85871">
    <ele>793.09</ele>
   </trkpt>
   <trkpt lat="-19.60611" lon="-43.858740000000004">
    <ele>792.09</ele>
   </trkpt>
   <trkpt lat="-19.60612" lon="-43.858630000000005">
    <ele>792.8900000000001</ele>
   </trkpt>
   <trkpt lat="-19.6062" lon="-43.858430000000006">
    <ele>788.6800000000001</ele>
   </trkpt>
   <trkpt lat="-19.60629" lon="-43.8584">
    <ele>788.4300000000001</ele>
   </trkpt>
   <trkpt lat="-19.60649" lon="-43.85839000000001">
    <ele>790.37</ele>
   </trkpt>
   <trkpt lat="-19.606640000000002" lon="-43.858360000000005">
    <ele>789.6400000000001</ele>
   </trkpt>
   <trkpt lat="-19.606710000000003" lon="-43.858230000000006">
    <ele>787.1400000000001</ele>
   </trkpt>
   <trkpt lat="-19.606740000000002" lon="-43.85813">
    <ele>785.63</ele>
   </trkpt>
   <trkpt lat="-19.606840000000002" lon="-43.8581">
    <ele>784.96</ele>
   </trkpt>
   <trkpt lat="-19.60697" lon="-43.85817">
    <ele>786.83</ele>
   </trkpt>
   <trkpt lat="-19.60688" lon="-43.8581">
    <ele>785.1</ele>
   </trkpt>
   <trkpt lat="-19.60678" lon="-43.8581">
    <ele>784.63</ele>
   </trkpt>
   <trkpt lat="-19.60666" lon="-43.85833">
    <ele>788.61</ele>
   </trkpt>
   <trkpt lat="-19.606550000000002" lon="-43.85833">
    <ele>789.72</ele>
   </trkpt>
   <trkpt lat="-19.606440000000003" lon="-43.858380000000004">
    <ele>790.1400000000001</ele>
   </trkpt>
   <trkpt lat="-19.60631" lon="-43.858380000000004">
    <ele>788.78</ele>
   </trkpt>
   <trkpt lat="-19.60622" lon="-43.85842">
    <ele>788.93</ele>
   </trkpt>
   <trkpt lat="-19.606170000000002" lon="-43.85850000000001">
    <ele>789.93</ele>
   </trkpt>
   <trkpt lat="-19.60614" lon="-43.8586">
    <ele>791.75</ele>
   </trkpt>
   <trkpt lat="-19.606050000000003" lon="-43.85862">
    <ele>792.7</ele>
   </trkpt>
   <trkpt lat="-19.60604" lon="-43.85873">
    <ele>795.1600000000001</ele>
   </trkpt>
   <trkpt lat="-19.60572" lon="-43.85871">
    <ele>793.09</ele>
   </trkpt>
   <trkpt lat="-19.60544" lon="-43.858830000000005">
    <ele>792.4300000000001</ele>
   </trkpt>
   <trkpt lat="-19.60527" lon="-43.859">
    <ele>791.4300000000001</ele>
   </trkpt>
   <trkpt lat="-19.60506" lon="-43.859120000000004">
    <ele>791.1800000000001</ele>
   </trkpt>
   <trkpt lat="-19.60443" lon="-43.85916">
    <ele>791.75</ele>
   </trkpt>
   <trkpt lat="-19.604210000000002" lon="-43.85922">
    <ele>793.0100000000001</ele>
   </trkpt>
   <trkpt lat="-19.60378" lon="-43.85943">
    <ele>798.1400000000001</ele>
   </trkpt>
   <trkpt lat="-19.60342" lon="-43.859790000000004">
    <ele>797.46</ele>
   </trkpt>
   <trkpt lat="-19.603160000000003" lon="-43.86014">
    <ele>796.0</ele>
   </trkpt>
   <trkpt lat="-19.60276" lon="-43.86041">
    <ele>795.81</ele>
   </trkpt>
   <trkpt lat="-19.602510000000002" lon="-43.86055">
    <ele>796.24</ele>
   </trkpt>
   <trkpt lat="-19.60227" lon="-43.86081">
    <ele>796.5200000000001</ele>
   </trkpt>
   <trkpt lat="-19.602130000000002" lon="-43.86115">
    <ele>795.6</ele>
   </trkpt>
   <trkpt lat="-19.601940000000003" lon="-43.86186">
    <ele>795.1700000000001</ele>
   </trkpt>
   <trkpt lat="-19.6018" lon="-43.862230000000004">
    <ele>792.2600000000001</ele>
   </trkpt>
   <trkpt lat="-19.60151" lon="-43.86276">
    <ele>784.66</ele>
   </trkpt>
   <trkpt lat="-19.601390000000002" lon="-43.86287">
    <ele>783.24</ele>
   </trkpt>
   <trkpt lat="-19.60122" lon="-43.862970000000004">
    <ele>780.84</ele>
   </trkpt>
   <trkpt lat="-19.60104" lon="-43.86301">
    <ele>778.24</ele>
   </trkpt>
   <trkpt lat="-19.60022" lon="-43.86292">
    <ele>764.57</ele>
   </trkpt>
   <trkpt lat="-19.59935" lon="-43.86280000000001">
    <ele>757.08</ele>
   </trkpt>
   <trkpt lat="-19.598660000000002" lon="-43.86265">
    <ele>753.69</ele>
   </trkpt>
   <trkpt lat="-19.598165000193145" lon="-43.86237999916517">
    <ele>746.63</ele>
   </trkpt>
   <trkpt lat="-19.59767" lon="-43.86211">
    <ele>742.1500000000001</ele>
   </trkpt>
   <trkpt lat="-19.597010000135697" lon="-43.86206499982433">
    <ele>732.1</ele>
   </trkpt>
   <trkpt lat="-19.59635" lon="-43.86202">
    <ele>725.3900000000001</ele>
   </trkpt>
   <trkpt lat="-19.59591" lon="-43.861850000000004">
    <ele>717.37</ele>
   </trkpt>
   <trkpt lat="-19.59547500012899" lon="-43.86169999961767">
    <ele>713.98</ele>
   </trkpt>
   <trkpt lat="-19.59504" lon="-43.86155">
    <ele>708.9100000000001</ele>
   </trkpt>
   <trkpt lat="-19.594820000000002" lon="-43.86146">
    <ele>704.16</ele>
   </trkpt>
  </trkseg>
 </trk>
</gpx>
