<?xml version="1.0" encoding="UTF-8"?>
<gpx creator="StravaGPX" version="1.1" xmlns="http://www.topografix.com/GPX/1/1" xmlns:xsi="http://www.w3.org/2001/XMLSchema-instance" xsi:schemaLocation="http://www.topografix.com/GPX/1/1 http://www.topografix.com/GPX/1/1/gpx.xsd">
 <metadata>
  <name>Trail intervalado - Quintal de casa</name>
  <author>
   <name>Felipe Desiderio</name>
  </author>
  <copyright author="OpenStreetMap contributors">
   <year>2020</year>
   <license>https://www.openstreetmap.org/copyright</license>
  </copyright>
 </metadata>
 <trk>
  <name>Trail intervalado - Quintal de casa</name>
  <link href=""/>
  <type>trail_running</type>
  <trkseg>
   <trkpt lat="-19.630270000000003" lon="-43.89161000000001">
    <ele>742.01</ele>
   </trkpt>
   <trkpt lat="-19.630000000000003" lon="-43.89074">
    <ele>741.82</ele>
   </trkpt>
   <trkpt lat="-19.629920000000002" lon="-43.89061">
    <ele>741.82</ele>
   </trkpt>
   <trkpt lat="-19.6293700008857" lon="-43.8900599981674">
    <ele>741.7900000000001</ele>
   </trkpt>
   <trkpt lat="-19.62882" lon="-43.88951">
    <ele>741.3400000000001</ele>
   </trkpt>
   <trkpt lat="-19.62873" lon="-43.88938">
    <ele>741.3400000000001</ele>
   </trkpt>
   <trkpt lat="-19.62866" lon="-43.889250000000004">
    <ele>741.24</ele>
   </trkpt>
   <trkpt lat="-19.62863" lon="-43.88889">
    <ele>741.1800000000001</ele>
   </trkpt>
   <trkpt lat="-19.628780000000003" lon="-43.88855">
    <ele>740.89</ele>
   </trkpt>
   <trkpt lat="-19.628890000000002" lon="-43.88846">
    <ele>740.9300000000001</ele>
   </trkpt>
   <trkpt lat="-19.628960000000003" lon="-43.88834000000001">
    <ele>740.5</ele>
   </trkpt>
   <trkpt lat="-19.628980000000002" lon="-43.88815">
    <ele>740.2800000000001</ele>
   </trkpt>
   <trkpt lat="-19.62892" lon="-43.888040000000004">
    <ele>740.2800000000001</ele>
   </trkpt>
   <trkpt lat="-19.628670000000003" lon="-43.88774">
    <ele>740.36</ele>
   </trkpt>
   <trkpt lat="-19.628040000000002" lon="-43.88712">
    <ele>740.74</ele>
   </trkpt>
   <trkpt lat="-19.62732" lon="-43.88665">
    <ele>741.68</ele>
   </trkpt>
   <trkpt lat="-19.626870000415753" lon="-43.88632499917938">
    <ele>743.44</ele>
   </trkpt>
   <trkpt lat="-19.626420000000003" lon="-43.886">
    <ele>747.2800000000001</ele>
   </trkpt>
   <trkpt lat="-19.626710000000003" lon="-43.8858">
    <ele>745.63</ele>
   </trkpt>
   <trkpt lat="-19.62665" lon="-43.885600000000004">
    <ele>746.01</ele>
   </trkpt>
   <trkpt lat="-19.626050001292764" lon="-43.88491499743896">
    <ele>749.07</ele>
   </trkpt>
   <trkpt lat="-19.62545" lon="-43.88423">
    <ele>753.3700000000001</ele>
   </trkpt>
   <trkpt lat="-19.62496" lon="-43.883700000000005">
    <ele>755.69</ele>
   </trkpt>
   <trkpt lat="-19.624450000072116" lon="-43.883449999157314">
    <ele>757.8600000000001</ele>
   </trkpt>
   <trkpt lat="-19.62394" lon="-43.8832">
    <ele>760.23</ele>
   </trkpt>
   <trkpt lat="-19.623420000142076" lon="-43.88297499927293">
    <ele>762.87</ele>
   </trkpt>
   <trkpt lat="-19.6229" lon="-43.88275">
    <ele>766.08</ele>
   </trkpt>
   <trkpt lat="-19.62274" lon="-43.882870000000004">
    <ele>766.6700000000001</ele>
   </trkpt>
   <trkpt lat="-19.62253" lon="-43.882870000000004">
    <ele>766.8900000000001</ele>
   </trkpt>
   <trkpt lat="-19.62225" lon="-43.882540000000006">
    <ele>767.51</ele>
   </trkpt>
   <trkpt lat="-19.62199" lon="-43.88237">
    <ele>767.9800000000001</ele>
   </trkpt>
   <trkpt lat="-19.621370000000002" lon="-43.88215">
    <ele>769.27</ele>
   </trkpt>
   <trkpt lat="-19.621190000000002" lon="-43.882200000000005">
    <ele>770.78</ele>
   </trkpt>
   <trkpt lat="-19.62073500027134" lon="-43.882019999562395">
    <ele>771.0</ele>
   </trkpt>
   <trkpt lat="-19.62028" lon="-43.881840000000004">
    <ele>772.5400000000001</ele>
   </trkpt>
   <trkpt lat="-19.61982" lon="-43.88123">
    <ele>777.0</ele>
   </trkpt>
   <trkpt lat="-19.61937" lon="-43.880810000000004">
    <ele>778.32</ele>
   </trkpt>
   <trkpt lat="-19.61881" lon="-43.88011">
    <ele>781.0</ele>
   </trkpt>
   <trkpt lat="-19.61867" lon="-43.87997">
    <ele>786.21</ele>
   </trkpt>
   <trkpt lat="-19.61852" lon="-43.879960000000004">
    <ele>789.72</ele>
   </trkpt>
   <trkpt lat="-19.618450000000003" lon="-43.87989">
    <ele>792.1</ele>
   </trkpt>
   <trkpt lat="-19.61843" lon="-43.87979000000001">
    <ele>792.5500000000001</ele>
   </trkpt>
   <trkpt lat="-19.61841" lon="-43.879560000000005">
    <ele>794.19</ele>
   </trkpt>
   <trkpt lat="-19.6183" lon="-43.879380000000005">
    <ele>796.9200000000001</ele>
   </trkpt>
   <trkpt lat="-19.618280000000002" lon="-43.87928">
    <ele>796.7700000000001</ele>
   </trkpt>
   <trkpt lat="-19.61821" lon="-43.87921">
    <ele>797.2300000000001</ele>
   </trkpt>
   <trkpt lat="-19.61811" lon="-43.879180000000005">
    <ele>797.09</ele>
   </trkpt>
   <trkpt lat="-19.61783" lon="-43.87903">
    <ele>800.1700000000001</ele>
   </trkpt>
   <trkpt lat="-19.617720000000002" lon="-43.87901">
    <ele>800.1700000000001</ele>
   </trkpt>
   <trkpt lat="-19.617240000000002" lon="-43.879090000000005">
    <ele>814.1400000000001</ele>
   </trkpt>
   <trkpt lat="-19.617050000000003" lon="-43.8791">
    <ele>818.79</ele>
   </trkpt>
   <trkpt lat="-19.616960000000002" lon="-43.87913">
    <ele>821.9000000000001</ele>
   </trkpt>
   <trkpt lat="-19.616880000000002" lon="-43.879090000000005">
    <ele>824.3900000000001</ele>
   </trkpt>
   <trkpt lat="-19.617430000000002" lon="-43.87908">
    <ele>809.46</ele>
   </trkpt>
   <trkpt lat="-19.617630000000002" lon="-43.879020000000004">
    <ele>804.5500000000001</ele>
   </trkpt>
   <trkpt lat="-19.617720000000002" lon="-43.87903">
    <ele>802.5500000000001</ele>
   </trkpt>
   <trkpt lat="-19.6182" lon="-43.879200000000004">
    <ele>797.2300000000001</ele>
   </trkpt>
   <trkpt lat="-19.618290000000002" lon="-43.87928">
    <ele>796.7700000000001</ele>
   </trkpt>
   <trkpt lat="-19.61832" lon="-43.879380000000005">
    <ele>796.03</ele>
   </trkpt>
   <trkpt lat="-19.618370000000002" lon="-43.879470000000005">
    <ele>795.0</ele>
   </trkpt>
   <trkpt lat="-19.61841" lon="-43.879580000000004">
    <ele>794.44</ele>
   </trkpt>
   <trkpt lat="-19.618450000000003" lon="-43.87979000000001">
    <ele>792.5500000000001</ele>
   </trkpt>
   <trkpt lat="-19.6185" lon="-43.87989">
    <ele>790.96</ele>
   </trkpt>
   <trkpt lat="-19.618660000000002" lon="-43.879940000000005">
    <ele>786.21</ele>
   </trkpt>
   <trkpt lat="-19.61916" lon="-43.87935">
    <ele>780.6700000000001</ele>
   </trkpt>
   <trkpt lat="-19.61972" lon="-43.8789">
    <ele>780.0400000000001</ele>
   </trkpt>
   <trkpt lat="-19.619960000000003" lon="-43.87857">
    <ele>780.3100000000001</ele>
   </trkpt>
   <trkpt lat="-19.620350000000002" lon="-43.87848">
    <ele>780.76</ele>
   </trkpt>
   <trkpt lat="-19.62056" lon="-43.87783">
    <ele>788.33</ele>
   </trkpt>
   <trkpt lat="-19.62059" lon="-43.87762">
    <ele>793.21</ele>
   </trkpt>
   <trkpt lat="-19.62103" lon="-43.877460000000006">
    <ele>802.32</ele>
   </trkpt>
   <trkpt lat="-19.62105" lon="-43.87745">
    <ele>802.32</ele>
   </trkpt>
   <trkpt lat="-19.62149" lon="-43.878280000000004">
    <ele>802.22</ele>
   </trkpt>
   <trkpt lat="-19.622060000393752" lon="-43.87868999849529">
    <ele>799.48</ele>
   </trkpt>
   <trkpt lat="-19.62263" lon="-43.8791">
    <ele>797.63</ele>
   </trkpt>
   <trkpt lat="-19.62299" lon="-43.87919">
    <ele>800.72</ele>
   </trkpt>
   <trkpt lat="-19.622980000000002" lon="-43.87919">
    <ele>800.72</ele>
   </trkpt>
   <trkpt lat="-19.62339" lon="-43.87904">
    <ele>803.7</ele>
   </trkpt>
   <trkpt lat="-19.62386" lon="-43.8783">
    <ele>811.8900000000001</ele>
   </trkpt>
   <trkpt lat="-19.624385000038096" lon="-43.878230000225436">
    <ele>815.3800000000001</ele>
   </trkpt>
   <trkpt lat="-19.62491" lon="-43.87816">
    <ele>815.4</ele>
   </trkpt>
   <trkpt lat="-19.62526" lon="-43.87787">
    <ele>816.44</ele>
   </trkpt>
   <trkpt lat="-19.62563" lon="-43.87774">
    <ele>817.96</ele>
   </trkpt>
   <trkpt lat="-19.62574" lon="-43.87742">
    <ele>820.5100000000001</ele>
   </trkpt>
   <trkpt lat="-19.62601" lon="-43.87704">
    <ele>823.7</ele>
   </trkpt>
   <trkpt lat="-19.626" lon="-43.877050000000004">
    <ele>823.7</ele>
   </trkpt>
   <trkpt lat="-19.6261" lon="-43.87702">
    <ele>823.84</ele>
   </trkpt>
   <trkpt lat="-19.62613" lon="-43.87716">
    <ele>823.0400000000001</ele>
   </trkpt>
   <trkpt lat="-19.626350000000002" lon="-43.87749">
    <ele>819.61</ele>
   </trkpt>
   <trkpt lat="-19.62629" lon="-43.87713">
    <ele>820.9200000000001</ele>
   </trkpt>
   <trkpt lat="-19.62641" lon="-43.87693">
    <ele>821.69</ele>
   </trkpt>
   <trkpt lat="-19.626910000000002" lon="-43.8772">
    <ele>815.4100000000001</ele>
   </trkpt>
   <trkpt lat="-19.627380000000002" lon="-43.87735000000001">
    <ele>810.33</ele>
   </trkpt>
   <trkpt lat="-19.627730000000003" lon="-43.87764000000001">
    <ele>806.6300000000001</ele>
   </trkpt>
   <trkpt lat="-19.62769" lon="-43.8776">
    <ele>806.6300000000001</ele>
   </trkpt>
   <trkpt lat="-19.62798" lon="-43.877900000000004">
    <ele>802.7700000000001</ele>
   </trkpt>
   <trkpt lat="-19.62816" lon="-43.87832">
    <ele>798.83</ele>
   </trkpt>
   <trkpt lat="-19.628140000000002" lon="-43.87877">
    <ele>796.6</ele>
   </trkpt>
   <trkpt lat="-19.62824" lon="-43.879220000000004">
    <ele>793.63</ele>
   </trkpt>
   <trkpt lat="-19.62835" lon="-43.87944">
    <ele>792.5300000000001</ele>
   </trkpt>
   <trkpt lat="-19.62847" lon="-43.87955">
    <ele>792.07</ele>
   </trkpt>
   <trkpt lat="-19.628800000000002" lon="-43.8796">
    <ele>790.71</ele>
   </trkpt>
   <trkpt lat="-19.629" lon="-43.87959">
    <ele>788.58</ele>
   </trkpt>
   <trkpt lat="-19.6292" lon="-43.87982">
    <ele>786.96</ele>
   </trkpt>
   <trkpt lat="-19.62959" lon="-43.88065">
    <ele>782.21</ele>
   </trkpt>
   <trkpt lat="-19.62993" lon="-43.880630000000004">
    <ele>779.8100000000001</ele>
   </trkpt>
   <trkpt lat="-19.63006" lon="-43.880790000000005">
    <ele>776.6200000000001</ele>
   </trkpt>
   <trkpt lat="-19.6305" lon="-43.881080000000004">
    <ele>773.6500000000001</ele>
   </trkpt>
   <trkpt lat="-19.63051" lon="-43.88114">
    <ele>773.6500000000001</ele>
   </trkpt>
   <trkpt lat="-19.63049" lon="-43.881080000000004">
    <ele>773.6500000000001</ele>
   </trkpt>
   <trkpt lat="-19.630580000000002" lon="-43.88139">
    <ele>772.1</ele>
   </trkpt>
   <trkpt lat="-19.63034" lon="-43.88197">
    <ele>769.23</ele>
   </trkpt>
   <trkpt lat="-19.630280000000003" lon="-43.8821">
    <ele>768.6</ele>
   </trkpt>
   <trkpt lat="-19.630280000000003" lon="-43.882180000000005">
    <ele>769.0300000000001</ele>
   </trkpt>
   <trkpt lat="-19.630280000000003" lon="-43.8821">
    <ele>769.23</ele>
   </trkpt>
   <trkpt lat="-19.63034" lon="-43.88197">
    <ele>769.7100000000002</ele>
   </trkpt>
   <trkpt lat="-19.63054" lon="-43.88148">
    <ele>770.97</ele>
   </trkpt>
   <trkpt lat="-19.63034" lon="-43.88197">
    <ele>768.7900000000001</ele>
   </trkpt>
   <trkpt lat="-19.630280000000003" lon="-43.8821">
    <ele>767.8000000000001</ele>
   </trkpt>
   <trkpt lat="-19.63032" lon="-43.88253">
    <ele>764.97</ele>
   </trkpt>
   <trkpt lat="-19.630280000000003" lon="-43.88257">
    <ele>764.97</ele>
   </trkpt>
   <trkpt lat="-19.63032" lon="-43.882540000000006">
    <ele>764.97</ele>
   </trkpt>
   <trkpt lat="-19.63015" lon="-43.88266">
    <ele>763.3700000000001</ele>
   </trkpt>
   <trkpt lat="-19.62957" lon="-43.88291">
    <ele>762.8100000000001</ele>
   </trkpt>
   <trkpt lat="-19.629250000000003" lon="-43.88318">
    <ele>763.4200000000001</ele>
   </trkpt>
   <trkpt lat="-19.6292" lon="-43.8832">
    <ele>763.4200000000001</ele>
   </trkpt>
   <trkpt lat="-19.629240000000003" lon="-43.883190000000006">
    <ele>763.4200000000001</ele>
   </trkpt>
   <trkpt lat="-19.6291" lon="-43.88322">
    <ele>763.6600000000001</ele>
   </trkpt>
   <trkpt lat="-19.62892" lon="-43.883050000000004">
    <ele>764.83</ele>
   </trkpt>
   <trkpt lat="-19.62855" lon="-43.88288">
    <ele>768.66</ele>
   </trkpt>
   <trkpt lat="-19.62778" lon="-43.88318">
    <ele>772.0600000000001</ele>
   </trkpt>
   <trkpt lat="-19.62734" lon="-43.883140000000004">
    <ele>771.1500000000001</ele>
   </trkpt>
   <trkpt lat="-19.62732" lon="-43.883030000000005">
    <ele>771.0300000000001</ele>
   </trkpt>
   <trkpt lat="-19.62694500068243" lon="-43.88254499891067">
    <ele>771.49</ele>
   </trkpt>
   <trkpt lat="-19.62657" lon="-43.88206">
    <ele>772.4200000000001</ele>
   </trkpt>
   <trkpt lat="-19.62618" lon="-43.88168">
    <ele>772.9100000000001</ele>
   </trkpt>
   <trkpt lat="-19.625850000000003" lon="-43.881170000000004">
    <ele>773.72</ele>
   </trkpt>
   <trkpt lat="-19.625790000000002" lon="-43.881150000000005">
    <ele>773.72</ele>
   </trkpt>
   <trkpt lat="-19.625780000000002" lon="-43.881150000000005">
    <ele>773.72</ele>
   </trkpt>
   <trkpt lat="-19.625480000000003" lon="-43.881260000000005">
    <ele>773.61</ele>
   </trkpt>
   <trkpt lat="-19.62494500043203" lon="-43.88163500121787">
    <ele>771.87</ele>
   </trkpt>
   <trkpt lat="-19.62441" lon="-43.88201">
    <ele>770.72</ele>
   </trkpt>
   <trkpt lat="-19.623639999930855" lon="-43.88196499978001">
    <ele>771.11</ele>
   </trkpt>
   <trkpt lat="-19.622870000000002" lon="-43.88192">
    <ele>768.4200000000001</ele>
   </trkpt>
   <trkpt lat="-19.62253" lon="-43.88195">
    <ele>767.05</ele>
   </trkpt>
   <trkpt lat="-19.62225" lon="-43.88253">
    <ele>767.48</ele>
   </trkpt>
   <trkpt lat="-19.62225" lon="-43.882540000000006">
    <ele>767.48</ele>
   </trkpt>
   <trkpt lat="-19.62199" lon="-43.88237">
    <ele>767.9800000000001</ele>
   </trkpt>
   <trkpt lat="-19.621370000000002" lon="-43.88215">
    <ele>769.27</ele>
   </trkpt>
   <trkpt lat="-19.621190000000002" lon="-43.882200000000005">
    <ele>770.78</ele>
   </trkpt>
   <trkpt lat="-19.62073500027134" lon="-43.882019999562395">
    <ele>771.0</ele>
   </trkpt>
   <trkpt lat="-19.62028" lon="-43.881840000000004">
    <ele>772.5400000000001</ele>
   </trkpt>
   <trkpt lat="-19.61982" lon="-43.88123">
    <ele>777.0</ele>
   </trkpt>
   <trkpt lat="-19.61937" lon="-43.880810000000004">
    <ele>778.32</ele>
   </trkpt>
   <trkpt lat="-19.61881" lon="-43.88011">
    <ele>781.0</ele>
   </trkpt>
   <trkpt lat="-19.61868" lon="-43.87998">
    <ele>781.7700000000001</ele>
   </trkpt>
   <trkpt lat="-19.618660000000002" lon="-43.879960000000004">
    <ele>781.7700000000001</ele>
   </trkpt>
   <trkpt lat="-19.61916" lon="-43.87935">
    <ele>780.6700000000001</ele>
   </trkpt>
   <trkpt lat="-19.61972" lon="-43.8789">
    <ele>780.0400000000001</ele>
   </trkpt>
   <trkpt lat="-19.619960000000003" lon="-43.87857">
    <ele>780.3100000000001</ele>
   </trkpt>
   <trkpt lat="-19.620350000000002" lon="-43.87848">
    <ele>780.76</ele>
   </trkpt>
   <trkpt lat="-19.62056" lon="-43.87783">
    <ele>788.33</ele>
   </trkpt>
   <trkpt lat="-19.62059" lon="-43.87762">
    <ele>793.21</ele>
   </trkpt>
   <trkpt lat="-19.62103" lon="-43.877460000000006">
    <ele>802.32</ele>
   </trkpt>
   <trkpt lat="-19.62105" lon="-43.87745">
    <ele>802.32</ele>
   </trkpt>
   <trkpt lat="-19.62149" lon="-43.878280000000004">
    <ele>802.22</ele>
   </trkpt>
   <trkpt lat="-19.622060000393752" lon="-43.87868999849529">
    <ele>799.48</ele>
   </trkpt>
   <trkpt lat="-19.62263" lon="-43.8791">
    <ele>797.63</ele>
   </trkpt>
   <trkpt lat="-19.62299" lon="-43.87919">
    <ele>800.72</ele>
   </trkpt>
   <trkpt lat="-19.622980000000002" lon="-43.87919">
    <ele>800.72</ele>
   </trkpt>
   <trkpt lat="-19.62339" lon="-43.87904">
    <ele>803.7</ele>
   </trkpt>
   <trkpt lat="-19.62386" lon="-43.8783">
    <ele>811.8900000000001</ele>
   </trkpt>
   <trkpt lat="-19.624385000038096" lon="-43.878230000225436">
    <ele>815.3800000000001</ele>
   </trkpt>
   <trkpt lat="-19.62491" lon="-43.87816">
    <ele>815.4</ele>
   </trkpt>
   <trkpt lat="-19.62526" lon="-43.87787">
    <ele>816.44</ele>
   </trkpt>
   <trkpt lat="-19.62563" lon="-43.87774">
    <ele>817.96</ele>
   </trkpt>
   <trkpt lat="-19.62574" lon="-43.87742">
    <ele>820.5100000000001</ele>
   </trkpt>
   <trkpt lat="-19.62601" lon="-43.87704">
    <ele>823.7</ele>
   </trkpt>
   <trkpt lat="-19.626" lon="-43.877050000000004">
    <ele>823.7</ele>
   </trkpt>
   <trkpt lat="-19.6261" lon="-43.87702">
    <ele>823.84</ele>
   </trkpt>
   <trkpt lat="-19.62613" lon="-43.87716">
    <ele>823.0400000000001</ele>
   </trkpt>
   <trkpt lat="-19.626350000000002" lon="-43.87749">
    <ele>819.61</ele>
   </trkpt>
   <trkpt lat="-19.62629" lon="-43.87713">
    <ele>820.9200000000001</ele>
   </trkpt>
   <trkpt lat="-19.62641" lon="-43.87693">
    <ele>821.69</ele>
   </trkpt>
   <trkpt lat="-19.626910000000002" lon="-43.8772">
    <ele>815.4100000000001</ele>
   </trkpt>
   <trkpt lat="-19.627380000000002" lon="-43.87735000000001">
    <ele>810.33</ele>
   </trkpt>
   <trkpt lat="-19.627730000000003" lon="-43.87764000000001">
    <ele>806.6300000000001</ele>
   </trkpt>
   <trkpt lat="-19.62769" lon="-43.8776">
    <ele>806.6300000000001</ele>
   </trkpt>
   <trkpt lat="-19.62798" lon="-43.877900000000004">
    <ele>802.7700000000001</ele>
   </trkpt>
   <trkpt lat="-19.62816" lon="-43.87832">
    <ele>798.83</ele>
   </trkpt>
   <trkpt lat="-19.628140000000002" lon="-43.87877">
    <ele>796.6</ele>
   </trkpt>
   <trkpt lat="-19.62824" lon="-43.879220000000004">
    <ele>793.63</ele>
   </trkpt>
   <trkpt lat="-19.62835" lon="-43.87944">
    <ele>792.5300000000001</ele>
   </trkpt>
   <trkpt lat="-19.62847" lon="-43.87955">
    <ele>792.07</ele>
   </trkpt>
   <trkpt lat="-19.628800000000002" lon="-43.8796">
    <ele>790.71</ele>
   </trkpt>
   <trkpt lat="-19.629" lon="-43.87959">
    <ele>788.58</ele>
   </trkpt>
   <trkpt lat="-19.6292" lon="-43.87982">
    <ele>786.96</ele>
   </trkpt>
   <trkpt lat="-19.62959" lon="-43.88065">
    <ele>782.21</ele>
   </trkpt>
   <trkpt lat="-19.62993" lon="-43.880630000000004">
    <ele>779.8100000000001</ele>
   </trkpt>
   <trkpt lat="-19.63006" lon="-43.880790000000005">
    <ele>776.6200000000001</ele>
   </trkpt>
   <trkpt lat="-19.6305" lon="-43.881080000000004">
    <ele>773.4000000000001</ele>
   </trkpt>
   <trkpt lat="-19.630580000000002" lon="-43.88139">
    <ele>772.1</ele>
   </trkpt>
   <trkpt lat="-19.63034" lon="-43.88197">
    <ele>769.23</ele>
   </trkpt>
   <trkpt lat="-19.630280000000003" lon="-43.8821">
    <ele>768.7900000000001</ele>
   </trkpt>
   <trkpt lat="-19.63032" lon="-43.88253">
    <ele>764.97</ele>
   </trkpt>
   <trkpt lat="-19.630280000000003" lon="-43.88257">
    <ele>764.97</ele>
   </trkpt>
   <trkpt lat="-19.63032" lon="-43.88253">
    <ele>764.97</ele>
   </trkpt>
   <trkpt lat="-19.63015" lon="-43.88266">
    <ele>763.3700000000001</ele>
   </trkpt>
   <trkpt lat="-19.62957" lon="-43.88291">
    <ele>762.8100000000001</ele>
   </trkpt>
   <trkpt lat="-19.629250000000003" lon="-43.88318">
    <ele>763.5</ele>
   </trkpt>
   <trkpt lat="-19.6291" lon="-43.88322">
    <ele>763.6600000000001</ele>
   </trkpt>
   <trkpt lat="-19.62892" lon="-43.883050000000004">
    <ele>764.83</ele>
   </trkpt>
   <trkpt lat="-19.62855" lon="-43.88288">
    <ele>768.66</ele>
   </trkpt>
   <trkpt lat="-19.62778" lon="-43.88318">
    <ele>772.0600000000001</ele>
   </trkpt>
   <trkpt lat="-19.62734" lon="-43.883140000000004">
    <ele>771.1500000000001</ele>
   </trkpt>
   <trkpt lat="-19.62732" lon="-43.883030000000005">
    <ele>771.17</ele>
   </trkpt>
   <trkpt lat="-19.62694500068243" lon="-43.88254499891067">
    <ele>771.49</ele>
   </trkpt>
   <trkpt lat="-19.62657" lon="-43.88206">
    <ele>772.4200000000001</ele>
   </trkpt>
   <trkpt lat="-19.62618" lon="-43.88168">
    <ele>772.9100000000001</ele>
   </trkpt>
   <trkpt lat="-19.625850000000003" lon="-43.881170000000004">
    <ele>773.7700000000001</ele>
   </trkpt>
   <trkpt lat="-19.625790000000002" lon="-43.881150000000005">
    <ele>773.72</ele>
   </trkpt>
   <trkpt lat="-19.625780000000002" lon="-43.881150000000005">
    <ele>773.72</ele>
   </trkpt>
   <trkpt lat="-19.625480000000003" lon="-43.881260000000005">
    <ele>773.61</ele>
   </trkpt>
   <trkpt lat="-19.62494500043203" lon="-43.88163500121787">
    <ele>771.87</ele>
   </trkpt>
   <trkpt lat="-19.62441" lon="-43.88201">
    <ele>770.72</ele>
   </trkpt>
   <trkpt lat="-19.623639999930855" lon="-43.88196499978001">
    <ele>771.11</ele>
   </trkpt>
   <trkpt lat="-19.622870000000002" lon="-43.88192">
    <ele>768.4200000000001</ele>
   </trkpt>
   <trkpt lat="-19.62253" lon="-43.88195">
    <ele>767.05</ele>
   </trkpt>
   <trkpt lat="-19.62225" lon="-43.88253">
    <ele>767.48</ele>
   </trkpt>
   <trkpt lat="-19.62225" lon="-43.882540000000006">
    <ele>767.48</ele>
   </trkpt>
   <trkpt lat="-19.62253" lon="-43.882870000000004">
    <ele>766.8900000000001</ele>
   </trkpt>
   <trkpt lat="-19.62274" lon="-43.882870000000004">
    <ele>766.6700000000001</ele>
   </trkpt>
   <trkpt lat="-19.6229" lon="-43.88275">
    <ele>766.08</ele>
   </trkpt>
   <trkpt lat="-19.623420000137433" lon="-43.88297499927092">
    <ele>762.87</ele>
   </trkpt>
   <trkpt lat="-19.62394" lon="-43.8832">
    <ele>760.23</ele>
   </trkpt>
   <trkpt lat="-19.624450000206615" lon="-43.88344499924206">
    <ele>757.8600000000001</ele>
   </trkpt>
   <trkpt lat="-19.62496" lon="-43.88369">
    <ele>755.84</ele>
   </trkpt>
   <trkpt lat="-19.62545" lon="-43.88423">
    <ele>752.77</ele>
   </trkpt>
   <trkpt lat="-19.626050001298132" lon="-43.88491499744509">
    <ele>749.07</ele>
   </trkpt>
   <trkpt lat="-19.62665" lon="-43.885600000000004">
    <ele>746.01</ele>
   </trkpt>
   <trkpt lat="-19.62676" lon="-43.885960000000004">
    <ele>745.26</ele>
   </trkpt>
   <trkpt lat="-19.62715" lon="-43.88606">
    <ele>745.0500000000001</ele>
   </trkpt>
   <trkpt lat="-19.62742" lon="-43.88624">
    <ele>746.0300000000001</ele>
   </trkpt>
   <trkpt lat="-19.62741" lon="-43.88624">
    <ele>746.0300000000001</ele>
   </trkpt>
   <trkpt lat="-19.6276" lon="-43.88595">
    <ele>749.2500000000001</ele>
   </trkpt>
   <trkpt lat="-19.62761" lon="-43.88564">
    <ele>749.77</ele>
   </trkpt>
   <trkpt lat="-19.627350002084967" lon="-43.88502666469981">
    <ele>753.1000000000001</ele>
   </trkpt>
   <trkpt lat="-19.627090002092693" lon="-43.88441333138473">
    <ele>755.5200000000001</ele>
   </trkpt>
   <trkpt lat="-19.62683" lon="-43.8838">
    <ele>758.9100000000001</ele>
   </trkpt>
   <trkpt lat="-19.62674" lon="-43.88347">
    <ele>760.99</ele>
   </trkpt>
   <trkpt lat="-19.62655" lon="-43.8832">
    <ele>762.22</ele>
   </trkpt>
   <trkpt lat="-19.62648" lon="-43.88304">
    <ele>763.59</ele>
   </trkpt>
   <trkpt lat="-19.626360000000002" lon="-43.882870000000004">
    <ele>763.59</ele>
   </trkpt>
   <trkpt lat="-19.626050001048757" lon="-43.88225499882243">
    <ele>766.5600000000001</ele>
   </trkpt>
   <trkpt lat="-19.62574" lon="-43.881640000000004">
    <ele>769.1800000000001</ele>
   </trkpt>
   <trkpt lat="-19.62574" lon="-43.88141">
    <ele>770.7</ele>
   </trkpt>
   <trkpt lat="-19.62574" lon="-43.881420000000006">
    <ele>770.7</ele>
   </trkpt>
   <trkpt lat="-19.625480000000003" lon="-43.881260000000005">
    <ele>773.6200000000001</ele>
   </trkpt>
   <trkpt lat="-19.62494500043203" lon="-43.88163500121787">
    <ele>771.87</ele>
   </trkpt>
   <trkpt lat="-19.62441" lon="-43.88201">
    <ele>770.72</ele>
   </trkpt>
   <trkpt lat="-19.623639999930855" lon="-43.88196499978001">
    <ele>771.11</ele>
   </trkpt>
   <trkpt lat="-19.622870000000002" lon="-43.88192">
    <ele>768.4200000000001</ele>
   </trkpt>
   <trkpt lat="-19.62253" lon="-43.88195">
    <ele>767.05</ele>
   </trkpt>
   <trkpt lat="-19.62225" lon="-43.88253">
    <ele>767.48</ele>
   </trkpt>
   <trkpt lat="-19.62225" lon="-43.882540000000006">
    <ele>767.48</ele>
   </trkpt>
   <trkpt lat="-19.62199" lon="-43.88237">
    <ele>767.9800000000001</ele>
   </trkpt>
   <trkpt lat="-19.621370000000002" lon="-43.88215">
    <ele>769.27</ele>
   </trkpt>
   <trkpt lat="-19.621190000000002" lon="-43.882200000000005">
    <ele>770.78</ele>
   </trkpt>
   <trkpt lat="-19.62073500027134" lon="-43.882019999562395">
    <ele>771.0</ele>
   </trkpt>
   <trkpt lat="-19.62028" lon="-43.881840000000004">
    <ele>772.5400000000001</ele>
   </trkpt>
   <trkpt lat="-19.61982" lon="-43.88123">
    <ele>777.0</ele>
   </trkpt>
   <trkpt lat="-19.61937" lon="-43.880810000000004">
    <ele>778.32</ele>
   </trkpt>
   <trkpt lat="-19.61881" lon="-43.88011">
    <ele>781.0</ele>
   </trkpt>
   <trkpt lat="-19.61868" lon="-43.87998">
    <ele>781.7700000000001</ele>
   </trkpt>
   <trkpt lat="-19.618660000000002" lon="-43.879960000000004">
    <ele>781.7700000000001</ele>
   </trkpt>
   <trkpt lat="-19.61916" lon="-43.87935">
    <ele>780.6700000000001</ele>
   </trkpt>
   <trkpt lat="-19.61972" lon="-43.8789">
    <ele>780.0400000000001</ele>
   </trkpt>
   <trkpt lat="-19.619960000000003" lon="-43.87857">
    <ele>780.3100000000001</ele>
   </trkpt>
   <trkpt lat="-19.620350000000002" lon="-43.87848">
    <ele>780.76</ele>
   </trkpt>
   <trkpt lat="-19.62056" lon="-43.87783">
    <ele>788.33</ele>
   </trkpt>
   <trkpt lat="-19.62059" lon="-43.87762">
    <ele>793.21</ele>
   </trkpt>
   <trkpt lat="-19.62103" lon="-43.877460000000006">
    <ele>802.32</ele>
   </trkpt>
   <trkpt lat="-19.62105" lon="-43.87745">
    <ele>802.32</ele>
   </trkpt>
   <trkpt lat="-19.62149" lon="-43.878280000000004">
    <ele>802.22</ele>
   </trkpt>
   <trkpt lat="-19.622060000393752" lon="-43.87868999849529">
    <ele>799.48</ele>
   </trkpt>
   <trkpt lat="-19.62263" lon="-43.8791">
    <ele>797.63</ele>
   </trkpt>
   <trkpt lat="-19.622760000000003" lon="-43.87914000000001">
    <ele>798.8000000000001</ele>
   </trkpt>
   <trkpt lat="-19.62272" lon="-43.87933">
    <ele>803.21</ele>
   </trkpt>
   <trkpt lat="-19.62274" lon="-43.87944">
    <ele>801.2300000000001</ele>
   </trkpt>
   <trkpt lat="-19.622780000000002" lon="-43.87953">
    <ele>798.7400000000001</ele>
   </trkpt>
   <trkpt lat="-19.62322" lon="-43.880120000000005">
    <ele>790.88</ele>
   </trkpt>
   <trkpt lat="-19.6233" lon="-43.880190000000006">
    <ele>791.3100000000001</ele>
   </trkpt>
   <trkpt lat="-19.62339" lon="-43.88024">
    <ele>792.3000000000001</ele>
   </trkpt>
   <trkpt lat="-19.623980000000003" lon="-43.88033">
    <ele>793.15</ele>
   </trkpt>
   <trkpt lat="-19.62425" lon="-43.88042">
    <ele>791.85</ele>
   </trkpt>
   <trkpt lat="-19.62443" lon="-43.88051">
    <ele>791.2</ele>
   </trkpt>
   <trkpt lat="-19.624570000000002" lon="-43.88065">
    <ele>788.2</ele>
   </trkpt>
   <trkpt lat="-19.6247" lon="-43.8808">
    <ele>786.0100000000001</ele>
   </trkpt>
   <trkpt lat="-19.62487" lon="-43.88089">
    <ele>783.73</ele>
   </trkpt>
   <trkpt lat="-19.62506" lon="-43.88094">
    <ele>781.9200000000001</ele>
   </trkpt>
   <trkpt lat="-19.62535" lon="-43.88107">
    <ele>777.0</ele>
   </trkpt>
   <trkpt lat="-19.62545" lon="-43.881080000000004">
    <ele>776.4000000000001</ele>
   </trkpt>
   <trkpt lat="-19.62553" lon="-43.88114">
    <ele>775.71</ele>
   </trkpt>
   <trkpt lat="-19.62556" lon="-43.88123">
    <ele>773.63</ele>
   </trkpt>
   <trkpt lat="-19.625780000000002" lon="-43.88114">
    <ele>773.6800000000001</ele>
   </trkpt>
   <trkpt lat="-19.625850000000003" lon="-43.881170000000004">
    <ele>773.7700000000001</ele>
   </trkpt>
   <trkpt lat="-19.62618" lon="-43.88168">
    <ele>772.9100000000001</ele>
   </trkpt>
   <trkpt lat="-19.62657" lon="-43.88206">
    <ele>772.4200000000001</ele>
   </trkpt>
   <trkpt lat="-19.62694500061645" lon="-43.88254499882533">
    <ele>771.49</ele>
   </trkpt>
   <trkpt lat="-19.62732" lon="-43.883030000000005">
    <ele>771.17</ele>
   </trkpt>
   <trkpt lat="-19.62742" lon="-43.883370000000006">
    <ele>767.19</ele>
   </trkpt>
   <trkpt lat="-19.62734" lon="-43.883140000000004">
    <ele>771.1500000000001</ele>
   </trkpt>
   <trkpt lat="-19.627190001277842" lon="-43.8824549992798">
    <ele>775.3800000000001</ele>
   </trkpt>
   <trkpt lat="-19.62704" lon="-43.88177">
    <ele>781.0300000000001</ele>
   </trkpt>
   <trkpt lat="-19.62704" lon="-43.88163">
    <ele>782.1</ele>
   </trkpt>
   <trkpt lat="-19.62704" lon="-43.881620000000005">
    <ele>782.1</ele>
   </trkpt>
   <trkpt lat="-19.62675" lon="-43.881620000000005">
    <ele>779.4100000000001</ele>
   </trkpt>
   <trkpt lat="-19.626520000000003" lon="-43.88138">
    <ele>781.11</ele>
   </trkpt>
   <trkpt lat="-19.626440000000002" lon="-43.88147">
    <ele>778.82</ele>
   </trkpt>
   <trkpt lat="-19.625780000000002" lon="-43.88114">
    <ele>773.6800000000001</ele>
   </trkpt>
   <trkpt lat="-19.625480000000003" lon="-43.881260000000005">
    <ele>773.61</ele>
   </trkpt>
   <trkpt lat="-19.62494500043203" lon="-43.88163500121787">
    <ele>771.87</ele>
   </trkpt>
   <trkpt lat="-19.62441" lon="-43.88201">
    <ele>770.72</ele>
   </trkpt>
   <trkpt lat="-19.623639999930855" lon="-43.88196499978001">
    <ele>771.11</ele>
   </trkpt>
   <trkpt lat="-19.622870000000002" lon="-43.88192">
    <ele>768.4200000000001</ele>
   </trkpt>
   <trkpt lat="-19.62253" lon="-43.88195">
    <ele>767.05</ele>
   </trkpt>
   <trkpt lat="-19.62225" lon="-43.88253">
    <ele>767.48</ele>
   </trkpt>
   <trkpt lat="-19.62225" lon="-43.882540000000006">
    <ele>767.48</ele>
   </trkpt>
   <trkpt lat="-19.62253" lon="-43.882870000000004">
    <ele>766.8900000000001</ele>
   </trkpt>
   <trkpt lat="-19.62274" lon="-43.882870000000004">
    <ele>766.6700000000001</ele>
   </trkpt>
   <trkpt lat="-19.6229" lon="-43.88275">
    <ele>766.08</ele>
   </trkpt>
   <trkpt lat="-19.623420000137433" lon="-43.88297499927092">
    <ele>762.87</ele>
   </trkpt>
   <trkpt lat="-19.62394" lon="-43.8832">
    <ele>760.23</ele>
   </trkpt>
   <trkpt lat="-19.624450000206615" lon="-43.88344499924206">
    <ele>757.8600000000001</ele>
   </trkpt>
   <trkpt lat="-19.62496" lon="-43.88369">
    <ele>755.84</ele>
   </trkpt>
   <trkpt lat="-19.62545" lon="-43.88423">
    <ele>752.77</ele>
   </trkpt>
   <trkpt lat="-19.626050001298132" lon="-43.88491499744509">
    <ele>749.07</ele>
   </trkpt>
   <trkpt lat="-19.62665" lon="-43.885600000000004">
    <ele>746.01</ele>
   </trkpt>
   <trkpt lat="-19.62676" lon="-43.885960000000004">
    <ele>745.26</ele>
   </trkpt>
   <trkpt lat="-19.62715" lon="-43.88606">
    <ele>745.0500000000001</ele>
   </trkpt>
   <trkpt lat="-19.62742" lon="-43.88624">
    <ele>746.02</ele>
   </trkpt>
   <trkpt lat="-19.62752" lon="-43.88645">
    <ele>746.3900000000001</ele>
   </trkpt>
   <trkpt lat="-19.627450000000003" lon="-43.886540000000004">
    <ele>746.02</ele>
   </trkpt>
   <trkpt lat="-19.627370000000003" lon="-43.88649">
    <ele>746.68</ele>
   </trkpt>
   <trkpt lat="-19.6273" lon="-43.886410000000005">
    <ele>747.0400000000001</ele>
   </trkpt>
   <trkpt lat="-19.627200000000002" lon="-43.886570000000006">
    <ele>742.01</ele>
   </trkpt>
   <trkpt lat="-19.62761999998311" lon="-43.88684499913332">
    <ele>741.2500000000001</ele>
   </trkpt>
   <trkpt lat="-19.628040000000002" lon="-43.88712">
    <ele>740.74</ele>
   </trkpt>
   <trkpt lat="-19.628670000000003" lon="-43.88774">
    <ele>740.36</ele>
   </trkpt>
   <trkpt lat="-19.62892" lon="-43.888040000000004">
    <ele>740.2800000000001</ele>
   </trkpt>
   <trkpt lat="-19.628980000000002" lon="-43.88815">
    <ele>740.3900000000001</ele>
   </trkpt>
   <trkpt lat="-19.628960000000003" lon="-43.88834000000001">
    <ele>740.5</ele>
   </trkpt>
   <trkpt lat="-19.628890000000002" lon="-43.88846">
    <ele>740.9300000000001</ele>
   </trkpt>
   <trkpt lat="-19.628780000000003" lon="-43.88855">
    <ele>740.89</ele>
   </trkpt>
   <trkpt lat="-19.62863" lon="-43.88889">
    <ele>741.1800000000001</ele>
   </trkpt>
   <trkpt lat="-19.62866" lon="-43.889250000000004">
    <ele>741.24</ele>
   </trkpt>
   <trkpt lat="-19.62873" lon="-43.88938">
    <ele>741.3400000000001</ele>
   </trkpt>
   <trkpt lat="-19.62882" lon="-43.88951">
    <ele>741.3400000000001</ele>
   </trkpt>
   <trkpt lat="-19.62937000078483" lon="-43.890059998066526">
    <ele>741.7900000000001</ele>
   </trkpt>
   <trkpt lat="-19.629920000000002" lon="-43.89061">
    <ele>741.82</ele>
   </trkpt>
   <trkpt lat="-19.630000000000003" lon="-43.89074">
    <ele>741.82</ele>
   </trkpt>
   <trkpt lat="-19.63015000064818" lon="-43.8912199995901">
    <ele>741.97</ele>
   </trkpt>
   <trkpt lat="-19.630300000000002" lon="-43.8917">
    <ele>742.0300000000001</ele>
   </trkpt>
  </trkseg>
 </trk>
</gpx>
