<?xml version="1.0" encoding="UTF-8"?>
<gpx creator="StravaGPX" version="1.1" xmlns="http://www.topografix.com/GPX/1/1" xmlns:xsi="http://www.w3.org/2001/XMLSchema-instance" xsi:schemaLocation="http://www.topografix.com/GPX/1/1 http://www.topografix.com/GPX/1/1/gpx.xsd">
 <metadata>
  <name>25KM COM 800</name>
  <author>
   <name>Felipe Desiderio</name>
  </author>
  <copyright author="OpenStreetMap contributors">
   <year>2020</year>
   <license>https://www.openstreetmap.org/copyright</license>
  </copyright>
 </metadata>
 <trk>
  <name>25KM COM 800</name>
  <link href=""/>
  <type>trail_running</type>
  <trkseg>
   <trkpt lat="-19.6291" lon="-43.88814000000001">
    <ele>741.3900000000001</ele>
   </trkpt>
   <trkpt lat="-19.62901" lon="-43.888110000000005">
    <ele>741.08</ele>
   </trkpt>
   <trkpt lat="-19.62892" lon="-43.888040000000004">
    <ele>740.35</ele>
   </trkpt>
   <trkpt lat="-19.628670000000003" lon="-43.88774">
    <ele>740.4900000000001</ele>
   </trkpt>
   <trkpt lat="-19.628040000000002" lon="-43.88712">
    <ele>740.94</ele>
   </trkpt>
   <trkpt lat="-19.62732" lon="-43.88665">
    <ele>741.87</ele>
   </trkpt>
   <trkpt lat="-19.626875000194893" lon="-43.8863249990292">
    <ele>743.89</ele>
   </trkpt>
   <trkpt lat="-19.626430000000003" lon="-43.886">
    <ele>746.77</ele>
   </trkpt>
   <trkpt lat="-19.626710000000003" lon="-43.88579">
    <ele>748.2</ele>
   </trkpt>
   <trkpt lat="-19.62665" lon="-43.885600000000004">
    <ele>746.5600000000001</ele>
   </trkpt>
   <trkpt lat="-19.626050001292764" lon="-43.88491499743896">
    <ele>750.19</ele>
   </trkpt>
   <trkpt lat="-19.62545" lon="-43.88423">
    <ele>752.96</ele>
   </trkpt>
   <trkpt lat="-19.62496" lon="-43.88369">
    <ele>756.07</ele>
   </trkpt>
   <trkpt lat="-19.624450000124806" lon="-43.883444999202766">
    <ele>757.9</ele>
   </trkpt>
   <trkpt lat="-19.62394" lon="-43.8832">
    <ele>760.36</ele>
   </trkpt>
   <trkpt lat="-19.623420000142076" lon="-43.88297499927293">
    <ele>762.6</ele>
   </trkpt>
   <trkpt lat="-19.6229" lon="-43.88275">
    <ele>765.7600000000001</ele>
   </trkpt>
   <trkpt lat="-19.62274" lon="-43.882870000000004">
    <ele>766.2800000000001</ele>
   </trkpt>
   <trkpt lat="-19.62253" lon="-43.882870000000004">
    <ele>766.61</ele>
   </trkpt>
   <trkpt lat="-19.62225" lon="-43.882540000000006">
    <ele>767.02</ele>
   </trkpt>
   <trkpt lat="-19.62199" lon="-43.88237">
    <ele>767.4300000000001</ele>
   </trkpt>
   <trkpt lat="-19.621370000000002" lon="-43.88215">
    <ele>768.73</ele>
   </trkpt>
   <trkpt lat="-19.621190000000002" lon="-43.882200000000005">
    <ele>770.29</ele>
   </trkpt>
   <trkpt lat="-19.62073500027134" lon="-43.882019999562395">
    <ele>771.38</ele>
   </trkpt>
   <trkpt lat="-19.62028" lon="-43.881840000000004">
    <ele>772.1</ele>
   </trkpt>
   <trkpt lat="-19.61982" lon="-43.88123">
    <ele>777.1300000000001</ele>
   </trkpt>
   <trkpt lat="-19.61937" lon="-43.880810000000004">
    <ele>778.11</ele>
   </trkpt>
   <trkpt lat="-19.61881" lon="-43.88011">
    <ele>781.0600000000001</ele>
   </trkpt>
   <trkpt lat="-19.61868" lon="-43.87998">
    <ele>781.93</ele>
   </trkpt>
   <trkpt lat="-19.618660000000002" lon="-43.879960000000004">
    <ele>781.93</ele>
   </trkpt>
   <trkpt lat="-19.61916" lon="-43.87935">
    <ele>780.66</ele>
   </trkpt>
   <trkpt lat="-19.61972" lon="-43.8789">
    <ele>780.19</ele>
   </trkpt>
   <trkpt lat="-19.619960000000003" lon="-43.87857">
    <ele>780.27</ele>
   </trkpt>
   <trkpt lat="-19.620350000000002" lon="-43.87848">
    <ele>780.76</ele>
   </trkpt>
   <trkpt lat="-19.62056" lon="-43.87783">
    <ele>790.1</ele>
   </trkpt>
   <trkpt lat="-19.62059" lon="-43.87762">
    <ele>793.4000000000001</ele>
   </trkpt>
   <trkpt lat="-19.62105" lon="-43.87745">
    <ele>802.98</ele>
   </trkpt>
   <trkpt lat="-19.62076000082051" lon="-43.87691999912622">
    <ele>809.03</ele>
   </trkpt>
   <trkpt lat="-19.62047" lon="-43.87639">
    <ele>814.9300000000001</ele>
   </trkpt>
   <trkpt lat="-19.62019" lon="-43.87577">
    <ele>821.47</ele>
   </trkpt>
   <trkpt lat="-19.61981" lon="-43.87534">
    <ele>829.28</ele>
   </trkpt>
   <trkpt lat="-19.61933" lon="-43.87501">
    <ele>838.2700000000001</ele>
   </trkpt>
   <trkpt lat="-19.619030000000002" lon="-43.874680000000005">
    <ele>843.4</ele>
   </trkpt>
   <trkpt lat="-19.618750000000002" lon="-43.87462">
    <ele>848.69</ele>
   </trkpt>
   <trkpt lat="-19.618850000000002" lon="-43.87503">
    <ele>853.9100000000001</ele>
   </trkpt>
   <trkpt lat="-19.61878" lon="-43.8753">
    <ele>855.87</ele>
   </trkpt>
   <trkpt lat="-19.618640000000003" lon="-43.875600000000006">
    <ele>858.11</ele>
   </trkpt>
   <trkpt lat="-19.61842" lon="-43.875820000000004">
    <ele>859.6600000000001</ele>
   </trkpt>
   <trkpt lat="-19.61783000052817" lon="-43.876275001703334">
    <ele>857.26</ele>
   </trkpt>
   <trkpt lat="-19.617240000000002" lon="-43.87673">
    <ele>852.25</ele>
   </trkpt>
   <trkpt lat="-19.61692" lon="-43.87691">
    <ele>851.44</ele>
   </trkpt>
   <trkpt lat="-19.61645" lon="-43.8772">
    <ele>855.5100000000001</ele>
   </trkpt>
   <trkpt lat="-19.616025000298954" lon="-43.87754000091489">
    <ele>859.9000000000001</ele>
   </trkpt>
   <trkpt lat="-19.6156" lon="-43.877880000000005">
    <ele>869.8500000000001</ele>
   </trkpt>
   <trkpt lat="-19.61533" lon="-43.878130000000006">
    <ele>873.11</ele>
   </trkpt>
   <trkpt lat="-19.61484" lon="-43.8787">
    <ele>884.6100000000001</ele>
   </trkpt>
   <trkpt lat="-19.61476" lon="-43.878840000000004">
    <ele>886.35</ele>
   </trkpt>
   <trkpt lat="-19.61476" lon="-43.87942">
    <ele>891.6700000000001</ele>
   </trkpt>
   <trkpt lat="-19.614710000000002" lon="-43.87968">
    <ele>892.96</ele>
   </trkpt>
   <trkpt lat="-19.614600000000003" lon="-43.87988000000001">
    <ele>893.26</ele>
   </trkpt>
   <trkpt lat="-19.613860000000003" lon="-43.880140000000004">
    <ele>893.9200000000001</ele>
   </trkpt>
   <trkpt lat="-19.61306" lon="-43.88036">
    <ele>892.84</ele>
   </trkpt>
   <trkpt lat="-19.612630000139134" lon="-43.880505000360415">
    <ele>892.07</ele>
   </trkpt>
   <trkpt lat="-19.6122" lon="-43.88065">
    <ele>890.51</ele>
   </trkpt>
   <trkpt lat="-19.61195" lon="-43.88085">
    <ele>889.0300000000001</ele>
   </trkpt>
   <trkpt lat="-19.611450000217364" lon="-43.88114000091024">
    <ele>886.5600000000001</ele>
   </trkpt>
   <trkpt lat="-19.610950000000003" lon="-43.88143">
    <ele>884.08</ele>
   </trkpt>
   <trkpt lat="-19.61071" lon="-43.8815">
    <ele>883.1300000000001</ele>
   </trkpt>
   <trkpt lat="-19.61033" lon="-43.881550000000004">
    <ele>881.94</ele>
   </trkpt>
   <trkpt lat="-19.60961" lon="-43.88145">
    <ele>879.14</ele>
   </trkpt>
   <trkpt lat="-19.60902500001174" lon="-43.88141999989135">
    <ele>874.89</ele>
   </trkpt>
   <trkpt lat="-19.60844" lon="-43.88139">
    <ele>867.4100000000001</ele>
   </trkpt>
   <trkpt lat="-19.607580000000002" lon="-43.88121">
    <ele>861.7</ele>
   </trkpt>
   <trkpt lat="-19.60733" lon="-43.88123">
    <ele>860.6300000000001</ele>
   </trkpt>
   <trkpt lat="-19.60677" lon="-43.88132">
    <ele>858.9700000000001</ele>
   </trkpt>
   <trkpt lat="-19.606310000242313" lon="-43.88142000023931">
    <ele>858.21</ele>
   </trkpt>
   <trkpt lat="-19.60585" lon="-43.88152">
    <ele>857.22</ele>
   </trkpt>
   <trkpt lat="-19.605430000000002" lon="-43.881550000000004">
    <ele>855.1400000000001</ele>
   </trkpt>
   <trkpt lat="-19.6046" lon="-43.88154">
    <ele>851.13</ele>
   </trkpt>
   <trkpt lat="-19.604069999902556" lon="-43.881509999895506">
    <ele>848.55</ele>
   </trkpt>
   <trkpt lat="-19.603540000000002" lon="-43.88148">
    <ele>846.1</ele>
   </trkpt>
   <trkpt lat="-19.603170000000002" lon="-43.88141">
    <ele>844.13</ele>
   </trkpt>
   <trkpt lat="-19.60282" lon="-43.8813">
    <ele>841.4800000000001</ele>
   </trkpt>
   <trkpt lat="-19.60283" lon="-43.881310000000006">
    <ele>841.4800000000001</ele>
   </trkpt>
   <trkpt lat="-19.60264" lon="-43.88118">
    <ele>839.6000000000001</ele>
   </trkpt>
   <trkpt lat="-19.602430000000002" lon="-43.88089">
    <ele>837.7500000000001</ele>
   </trkpt>
   <trkpt lat="-19.60228" lon="-43.88065">
    <ele>836.1400000000001</ele>
   </trkpt>
   <trkpt lat="-19.60217" lon="-43.88015">
    <ele>832.64</ele>
   </trkpt>
   <trkpt lat="-19.601940000000003" lon="-43.87984">
    <ele>829.9300000000001</ele>
   </trkpt>
   <trkpt lat="-19.60161" lon="-43.87953">
    <ele>826.71</ele>
   </trkpt>
   <trkpt lat="-19.60133" lon="-43.87935">
    <ele>825.1700000000001</ele>
   </trkpt>
   <trkpt lat="-19.60104" lon="-43.87924">
    <ele>823.2700000000001</ele>
   </trkpt>
   <trkpt lat="-19.60021" lon="-43.87888">
    <ele>808.6600000000001</ele>
   </trkpt>
   <trkpt lat="-19.600070000000002" lon="-43.878750000000004">
    <ele>807.1</ele>
   </trkpt>
   <trkpt lat="-19.599980000000002" lon="-43.87854">
    <ele>802.9200000000001</ele>
   </trkpt>
   <trkpt lat="-19.599950000000003" lon="-43.87805">
    <ele>797.39</ele>
   </trkpt>
   <trkpt lat="-19.599890000000002" lon="-43.877900000000004">
    <ele>797.2800000000001</ele>
   </trkpt>
   <trkpt lat="-19.59981" lon="-43.877880000000005">
    <ele>797.2900000000001</ele>
   </trkpt>
   <trkpt lat="-19.599880000000002" lon="-43.877790000000005">
    <ele>796.0500000000001</ele>
   </trkpt>
   <trkpt lat="-19.59984" lon="-43.87774">
    <ele>794.0600000000001</ele>
   </trkpt>
   <trkpt lat="-19.5999" lon="-43.87762">
    <ele>792.83</ele>
   </trkpt>
   <trkpt lat="-19.60011" lon="-43.87749">
    <ele>790.3100000000001</ele>
   </trkpt>
   <trkpt lat="-19.600260000000002" lon="-43.87745">
    <ele>788.1700000000001</ele>
   </trkpt>
   <trkpt lat="-19.600350000000002" lon="-43.87738">
    <ele>787.27</ele>
   </trkpt>
   <trkpt lat="-19.60058" lon="-43.876850000000005">
    <ele>781.4300000000001</ele>
   </trkpt>
   <trkpt lat="-19.60057" lon="-43.87637">
    <ele>775.29</ele>
   </trkpt>
   <trkpt lat="-19.600610000662268" lon="-43.875880000120354">
    <ele>770.1600000000001</ele>
   </trkpt>
   <trkpt lat="-19.60065" lon="-43.87539">
    <ele>766.8600000000001</ele>
   </trkpt>
   <trkpt lat="-19.600740000000002" lon="-43.87525">
    <ele>764.95</ele>
   </trkpt>
   <trkpt lat="-19.60084" lon="-43.87521">
    <ele>762.94</ele>
   </trkpt>
   <trkpt lat="-19.601010000000002" lon="-43.875260000000004">
    <ele>761.5500000000001</ele>
   </trkpt>
   <trkpt lat="-19.60113" lon="-43.87539">
    <ele>756.41</ele>
   </trkpt>
   <trkpt lat="-19.601210000000002" lon="-43.875550000000004">
    <ele>756.41</ele>
   </trkpt>
   <trkpt lat="-19.60131" lon="-43.87563">
    <ele>752.07</ele>
   </trkpt>
   <trkpt lat="-19.601390000000002" lon="-43.87563">
    <ele>750.5</ele>
   </trkpt>
   <trkpt lat="-19.60142" lon="-43.87561">
    <ele>750.5</ele>
   </trkpt>
   <trkpt lat="-19.60172" lon="-43.87525">
    <ele>741.8100000000001</ele>
   </trkpt>
   <trkpt lat="-19.60189" lon="-43.87514">
    <ele>739.4000000000001</ele>
   </trkpt>
   <trkpt lat="-19.60198" lon="-43.87494">
    <ele>737.5400000000001</ele>
   </trkpt>
   <trkpt lat="-19.60197" lon="-43.874810000000004">
    <ele>737.41</ele>
   </trkpt>
   <trkpt lat="-19.601770000000002" lon="-43.874410000000005">
    <ele>739.19</ele>
   </trkpt>
   <trkpt lat="-19.60168" lon="-43.874320000000004">
    <ele>740.2700000000001</ele>
   </trkpt>
   <trkpt lat="-19.60135" lon="-43.87411">
    <ele>745.8100000000001</ele>
   </trkpt>
   <trkpt lat="-19.60104" lon="-43.87386">
    <ele>747.65</ele>
   </trkpt>
   <trkpt lat="-19.60088" lon="-43.873780000000004">
    <ele>747.8800000000001</ele>
   </trkpt>
   <trkpt lat="-19.600640000000002" lon="-43.87391">
    <ele>747.32</ele>
   </trkpt>
   <trkpt lat="-19.6005" lon="-43.87413">
    <ele>745.98</ele>
   </trkpt>
   <trkpt lat="-19.60046" lon="-43.87413">
    <ele>745.92</ele>
   </trkpt>
   <trkpt lat="-19.60029" lon="-43.87398">
    <ele>746.77</ele>
   </trkpt>
   <trkpt lat="-19.6002" lon="-43.87393">
    <ele>746.9100000000001</ele>
   </trkpt>
   <trkpt lat="-19.59992" lon="-43.87391">
    <ele>746.84</ele>
   </trkpt>
   <trkpt lat="-19.59965" lon="-43.87395">
    <ele>745.8100000000001</ele>
   </trkpt>
   <trkpt lat="-19.59946" lon="-43.87389">
    <ele>745.1700000000001</ele>
   </trkpt>
   <trkpt lat="-19.5986" lon="-43.874">
    <ele>738.5100000000001</ele>
   </trkpt>
   <trkpt lat="-19.59851" lon="-43.87404">
    <ele>737.98</ele>
   </trkpt>
   <trkpt lat="-19.59832" lon="-43.87402">
    <ele>736.6600000000001</ele>
   </trkpt>
   <trkpt lat="-19.59815" lon="-43.87404">
    <ele>734.1700000000001</ele>
   </trkpt>
   <trkpt lat="-19.59804" lon="-43.874">
    <ele>733.25</ele>
   </trkpt>
   <trkpt lat="-19.59795" lon="-43.87391">
    <ele>733.0300000000001</ele>
   </trkpt>
   <trkpt lat="-19.597540000000002" lon="-43.87366">
    <ele>731.2900000000001</ele>
   </trkpt>
   <trkpt lat="-19.59748" lon="-43.8736">
    <ele>731.2900000000001</ele>
   </trkpt>
   <trkpt lat="-19.59727" lon="-43.873490000000004">
    <ele>731.38</ele>
   </trkpt>
   <trkpt lat="-19.59712" lon="-43.873400000000004">
    <ele>731.45</ele>
   </trkpt>
   <trkpt lat="-19.596950000000003" lon="-43.873360000000005">
    <ele>731.45</ele>
   </trkpt>
   <trkpt lat="-19.59663" lon="-43.87335">
    <ele>729.5100000000001</ele>
   </trkpt>
   <trkpt lat="-19.59656" lon="-43.87333">
    <ele>729.11</ele>
   </trkpt>
   <trkpt lat="-19.596500000000002" lon="-43.87326">
    <ele>728.82</ele>
   </trkpt>
   <trkpt lat="-19.596030000000003" lon="-43.87297">
    <ele>728.28</ele>
   </trkpt>
   <trkpt lat="-19.59598" lon="-43.872910000000005">
    <ele>728.28</ele>
   </trkpt>
   <trkpt lat="-19.595750000000002" lon="-43.87286">
    <ele>728.2400000000001</ele>
   </trkpt>
   <trkpt lat="-19.59563" lon="-43.87281">
    <ele>727.99</ele>
   </trkpt>
   <trkpt lat="-19.59559" lon="-43.87275">
    <ele>727.99</ele>
   </trkpt>
   <trkpt lat="-19.59561" lon="-43.87272">
    <ele>727.53</ele>
   </trkpt>
   <trkpt lat="-19.59561" lon="-43.87266">
    <ele>727.53</ele>
   </trkpt>
   <trkpt lat="-19.59552" lon="-43.87259">
    <ele>727.28</ele>
   </trkpt>
   <trkpt lat="-19.59541" lon="-43.87261">
    <ele>727.33</ele>
   </trkpt>
   <trkpt lat="-19.59534" lon="-43.872550000000004">
    <ele>727.32</ele>
   </trkpt>
   <trkpt lat="-19.59506" lon="-43.87248">
    <ele>726.75</ele>
   </trkpt>
   <trkpt lat="-19.59494" lon="-43.87239">
    <ele>725.9000000000001</ele>
   </trkpt>
   <trkpt lat="-19.59484" lon="-43.872370000000004">
    <ele>724.7600000000001</ele>
   </trkpt>
   <trkpt lat="-19.594630000000002" lon="-43.872370000000004">
    <ele>724.31</ele>
   </trkpt>
   <trkpt lat="-19.59438" lon="-43.87245">
    <ele>721.99</ele>
   </trkpt>
   <trkpt lat="-19.59412" lon="-43.87261">
    <ele>718.64</ele>
   </trkpt>
   <trkpt lat="-19.59392" lon="-43.87261">
    <ele>717.43</ele>
   </trkpt>
   <trkpt lat="-19.59375" lon="-43.87268">
    <ele>716.32</ele>
   </trkpt>
   <trkpt lat="-19.59345" lon="-43.87286">
    <ele>713.25</ele>
   </trkpt>
   <trkpt lat="-19.593320000000002" lon="-43.87292">
    <ele>710.65</ele>
   </trkpt>
   <trkpt lat="-19.59325" lon="-43.872930000000004">
    <ele>710.65</ele>
   </trkpt>
   <trkpt lat="-19.593030000000002" lon="-43.872910000000005">
    <ele>706.37</ele>
   </trkpt>
   <trkpt lat="-19.592940000000002" lon="-43.872930000000004">
    <ele>705.1500000000001</ele>
   </trkpt>
   <trkpt lat="-19.592930000000003" lon="-43.87299">
    <ele>704.23</ele>
   </trkpt>
   <trkpt lat="-19.5927" lon="-43.87313">
    <ele>704.21</ele>
   </trkpt>
   <trkpt lat="-19.592560000000002" lon="-43.87317">
    <ele>705.0500000000001</ele>
   </trkpt>
   <trkpt lat="-19.592470000000002" lon="-43.87317">
    <ele>705.2900000000001</ele>
   </trkpt>
   <trkpt lat="-19.59204" lon="-43.87286">
    <ele>702.03</ele>
   </trkpt>
   <trkpt lat="-19.592000000000002" lon="-43.872730000000004">
    <ele>702.0400000000001</ele>
   </trkpt>
   <trkpt lat="-19.59166" lon="-43.8725">
    <ele>704.61</ele>
   </trkpt>
   <trkpt lat="-19.59168" lon="-43.87239">
    <ele>704.8000000000001</ele>
   </trkpt>
   <trkpt lat="-19.59175" lon="-43.8723">
    <ele>704.71</ele>
   </trkpt>
   <trkpt lat="-19.591820000000002" lon="-43.87212">
    <ele>704.61</ele>
   </trkpt>
   <trkpt lat="-19.59185" lon="-43.871970000000005">
    <ele>704.33</ele>
   </trkpt>
   <trkpt lat="-19.59185" lon="-43.87178">
    <ele>704.19</ele>
   </trkpt>
   <trkpt lat="-19.59174" lon="-43.87138">
    <ele>704.19</ele>
   </trkpt>
   <trkpt lat="-19.59165" lon="-43.87125">
    <ele>704.0900000000001</ele>
   </trkpt>
   <trkpt lat="-19.59156" lon="-43.87116">
    <ele>704.0900000000001</ele>
   </trkpt>
   <trkpt lat="-19.591350000000002" lon="-43.87102">
    <ele>703.7</ele>
   </trkpt>
   <trkpt lat="-19.59111" lon="-43.87095">
    <ele>703.69</ele>
   </trkpt>
   <trkpt lat="-19.5908" lon="-43.871050000000004">
    <ele>703.08</ele>
   </trkpt>
   <trkpt lat="-19.59063" lon="-43.87104">
    <ele>703.2</ele>
   </trkpt>
   <trkpt lat="-19.59045" lon="-43.871">
    <ele>704.22</ele>
   </trkpt>
   <trkpt lat="-19.590320000000002" lon="-43.87091">
    <ele>705.11</ele>
   </trkpt>
   <trkpt lat="-19.59017" lon="-43.87089">
    <ele>707.4100000000001</ele>
   </trkpt>
   <trkpt lat="-19.58997" lon="-43.87093">
    <ele>708.0900000000001</ele>
   </trkpt>
   <trkpt lat="-19.58958" lon="-43.87089">
    <ele>710.5100000000001</ele>
   </trkpt>
   <trkpt lat="-19.58951" lon="-43.87093">
    <ele>711.58</ele>
   </trkpt>
   <trkpt lat="-19.589290000000002" lon="-43.87127">
    <ele>715.6800000000001</ele>
   </trkpt>
   <trkpt lat="-19.58902" lon="-43.87147">
    <ele>717.69</ele>
   </trkpt>
   <trkpt lat="-19.588810000000002" lon="-43.87171">
    <ele>722.0300000000001</ele>
   </trkpt>
   <trkpt lat="-19.588630000000002" lon="-43.87203">
    <ele>726.2</ele>
   </trkpt>
   <trkpt lat="-19.58837" lon="-43.87241">
    <ele>733.72</ele>
   </trkpt>
   <trkpt lat="-19.58819" lon="-43.8727">
    <ele>739.89</ele>
   </trkpt>
   <trkpt lat="-19.588160000000002" lon="-43.87272">
    <ele>740.3700000000001</ele>
   </trkpt>
   <trkpt lat="-19.58809" lon="-43.87272">
    <ele>740.77</ele>
   </trkpt>
   <trkpt lat="-19.58809" lon="-43.872710000000005">
    <ele>740.77</ele>
   </trkpt>
   <trkpt lat="-19.5881" lon="-43.87272">
    <ele>740.77</ele>
   </trkpt>
   <trkpt lat="-19.58809" lon="-43.87252">
    <ele>741.59</ele>
   </trkpt>
   <trkpt lat="-19.58799" lon="-43.87225">
    <ele>743.0000000000001</ele>
   </trkpt>
   <trkpt lat="-19.58793" lon="-43.87203">
    <ele>744.9300000000001</ele>
   </trkpt>
   <trkpt lat="-19.5878" lon="-43.871880000000004">
    <ele>746.5200000000001</ele>
   </trkpt>
   <trkpt lat="-19.58764" lon="-43.8718">
    <ele>747.62</ele>
   </trkpt>
   <trkpt lat="-19.587490000000003" lon="-43.8716">
    <ele>748.1700000000001</ele>
   </trkpt>
   <trkpt lat="-19.58734" lon="-43.871520000000004">
    <ele>748.57</ele>
   </trkpt>
   <trkpt lat="-19.58725" lon="-43.8716">
    <ele>749.6600000000001</ele>
   </trkpt>
   <trkpt lat="-19.58697" lon="-43.87133">
    <ele>750.9</ele>
   </trkpt>
   <trkpt lat="-19.58689" lon="-43.871140000000004">
    <ele>751.73</ele>
   </trkpt>
   <trkpt lat="-19.5869" lon="-43.8708">
    <ele>754.33</ele>
   </trkpt>
   <trkpt lat="-19.58696" lon="-43.870470000000005">
    <ele>758.24</ele>
   </trkpt>
   <trkpt lat="-19.58706" lon="-43.870200000000004">
    <ele>763.8000000000001</ele>
   </trkpt>
   <trkpt lat="-19.58726" lon="-43.869820000000004">
    <ele>771.29</ele>
   </trkpt>
   <trkpt lat="-19.587320000000002" lon="-43.86979">
    <ele>772.85</ele>
   </trkpt>
   <trkpt lat="-19.587410000000002" lon="-43.86948">
    <ele>777.94</ele>
   </trkpt>
   <trkpt lat="-19.587410000000002" lon="-43.86939">
    <ele>779.33</ele>
   </trkpt>
   <trkpt lat="-19.58737" lon="-43.86932">
    <ele>779.99</ele>
   </trkpt>
   <trkpt lat="-19.587300000000003" lon="-43.86928">
    <ele>781.1600000000001</ele>
   </trkpt>
   <trkpt lat="-19.587210000000002" lon="-43.8693">
    <ele>782.14</ele>
   </trkpt>
   <trkpt lat="-19.58699" lon="-43.86941">
    <ele>783.46</ele>
   </trkpt>
   <trkpt lat="-19.5867" lon="-43.86952">
    <ele>785.22</ele>
   </trkpt>
   <trkpt lat="-19.5864" lon="-43.86968">
    <ele>788.7700000000001</ele>
   </trkpt>
   <trkpt lat="-19.58622" lon="-43.869730000000004">
    <ele>788.7700000000001</ele>
   </trkpt>
   <trkpt lat="-19.58593" lon="-43.86999">
    <ele>790.09</ele>
   </trkpt>
   <trkpt lat="-19.585800000000003" lon="-43.87004">
    <ele>790.21</ele>
   </trkpt>
   <trkpt lat="-19.585620000000002" lon="-43.87017">
    <ele>789.98</ele>
   </trkpt>
   <trkpt lat="-19.58556" lon="-43.870160000000006">
    <ele>789.8600000000001</ele>
   </trkpt>
   <trkpt lat="-19.58554" lon="-43.87022">
    <ele>789.8600000000001</ele>
   </trkpt>
   <trkpt lat="-19.58547" lon="-43.870200000000004">
    <ele>789.02</ele>
   </trkpt>
   <trkpt lat="-19.58547" lon="-43.87022">
    <ele>789.02</ele>
   </trkpt>
   <trkpt lat="-19.58537" lon="-43.87023000000001">
    <ele>789.02</ele>
   </trkpt>
   <trkpt lat="-19.58526" lon="-43.870020000000004">
    <ele>788.95</ele>
   </trkpt>
   <trkpt lat="-19.585160000000002" lon="-43.869910000000004">
    <ele>789.0400000000001</ele>
   </trkpt>
   <trkpt lat="-19.58508" lon="-43.86986">
    <ele>789.0400000000001</ele>
   </trkpt>
   <trkpt lat="-19.584615000053088" lon="-43.869654999380415">
    <ele>789.8900000000001</ele>
   </trkpt>
   <trkpt lat="-19.58415" lon="-43.86945">
    <ele>791.76</ele>
   </trkpt>
   <trkpt lat="-19.58396" lon="-43.86928">
    <ele>792.7</ele>
   </trkpt>
   <trkpt lat="-19.5838" lon="-43.86903">
    <ele>794.7900000000001</ele>
   </trkpt>
   <trkpt lat="-19.583640000000003" lon="-43.86883">
    <ele>795.4100000000001</ele>
   </trkpt>
   <trkpt lat="-19.58304" lon="-43.86858">
    <ele>790.84</ele>
   </trkpt>
   <trkpt lat="-19.58255" lon="-43.86818">
    <ele>782.0</ele>
   </trkpt>
   <trkpt lat="-19.582135000216404" lon="-43.86796499949216">
    <ele>780.83</ele>
   </trkpt>
   <trkpt lat="-19.58172" lon="-43.86775">
    <ele>782.49</ele>
   </trkpt>
   <trkpt lat="-19.58143" lon="-43.867490000000004">
    <ele>782.8900000000001</ele>
   </trkpt>
   <trkpt lat="-19.58115" lon="-43.86737">
    <ele>781.66</ele>
   </trkpt>
   <trkpt lat="-19.58096" lon="-43.86735">
    <ele>780.5000000000001</ele>
   </trkpt>
   <trkpt lat="-19.58085" lon="-43.8673">
    <ele>780.5000000000001</ele>
   </trkpt>
   <trkpt lat="-19.58078" lon="-43.867200000000004">
    <ele>780.3500000000001</ele>
   </trkpt>
   <trkpt lat="-19.580550000000002" lon="-43.86634">
    <ele>773.08</ele>
   </trkpt>
   <trkpt lat="-19.58057" lon="-43.8661">
    <ele>772.2800000000001</ele>
   </trkpt>
   <trkpt lat="-19.58096" lon="-43.86531">
    <ele>770.9</ele>
   </trkpt>
   <trkpt lat="-19.58096" lon="-43.86462">
    <ele>764.5500000000001</ele>
   </trkpt>
   <trkpt lat="-19.581030000000002" lon="-43.86426">
    <ele>759.0</ele>
   </trkpt>
   <trkpt lat="-19.581200000000003" lon="-43.863400000000006">
    <ele>753.84</ele>
   </trkpt>
   <trkpt lat="-19.581300000000002" lon="-43.86301">
    <ele>752.7600000000001</ele>
   </trkpt>
   <trkpt lat="-19.58154" lon="-43.86238">
    <ele>750.38</ele>
   </trkpt>
   <trkpt lat="-19.58154" lon="-43.862370000000006">
    <ele>750.38</ele>
   </trkpt>
   <trkpt lat="-19.581770000000002" lon="-43.86196">
    <ele>748.8</ele>
   </trkpt>
   <trkpt lat="-19.5819" lon="-43.861760000000004">
    <ele>748.26</ele>
   </trkpt>
   <trkpt lat="-19.582410000482778" lon="-43.86134000133267">
    <ele>748.94</ele>
   </trkpt>
   <trkpt lat="-19.58292" lon="-43.86092">
    <ele>746.2500000000001</ele>
   </trkpt>
   <trkpt lat="-19.583580000810958" lon="-43.860395002110614">
    <ele>734.53</ele>
   </trkpt>
   <trkpt lat="-19.58424" lon="-43.85987">
    <ele>723.48</ele>
   </trkpt>
   <trkpt lat="-19.58432" lon="-43.85978">
    <ele>722.32</ele>
   </trkpt>
   <trkpt lat="-19.58443" lon="-43.85954">
    <ele>718.65</ele>
   </trkpt>
   <trkpt lat="-19.584580000000003" lon="-43.85949">
    <ele>717.7</ele>
   </trkpt>
   <trkpt lat="-19.584780000000002" lon="-43.85954">
    <ele>714.98</ele>
   </trkpt>
   <trkpt lat="-19.58498" lon="-43.85949">
    <ele>712.94</ele>
   </trkpt>
   <trkpt lat="-19.585160000000002" lon="-43.85938">
    <ele>710.0300000000001</ele>
   </trkpt>
   <trkpt lat="-19.585500000247276" lon="-43.859025000854">
    <ele>704.96</ele>
   </trkpt>
   <trkpt lat="-19.58584" lon="-43.858670000000004">
    <ele>699.1800000000001</ele>
   </trkpt>
   <trkpt lat="-19.585900000000002" lon="-43.85857">
    <ele>696.52</ele>
   </trkpt>
   <trkpt lat="-19.58605" lon="-43.8581">
    <ele>691.5500000000001</ele>
   </trkpt>
   <trkpt lat="-19.58623" lon="-43.85784">
    <ele>689.0500000000001</ele>
   </trkpt>
   <trkpt lat="-19.58643" lon="-43.85779">
    <ele>687.1600000000001</ele>
   </trkpt>
   <trkpt lat="-19.586660000000002" lon="-43.85795">
    <ele>685.2800000000001</ele>
   </trkpt>
   <trkpt lat="-19.586930000000002" lon="-43.85806">
    <ele>682.51</ele>
   </trkpt>
   <trkpt lat="-19.58706" lon="-43.85808">
    <ele>681.48</ele>
   </trkpt>
   <trkpt lat="-19.58723" lon="-43.85813">
    <ele>679.08</ele>
   </trkpt>
   <trkpt lat="-19.58744" lon="-43.85824">
    <ele>674.64</ele>
   </trkpt>
   <trkpt lat="-19.58756" lon="-43.85826">
    <ele>673.46</ele>
   </trkpt>
   <trkpt lat="-19.587690000000002" lon="-43.85824">
    <ele>671.8100000000001</ele>
   </trkpt>
   <trkpt lat="-19.58839" lon="-43.85788">
    <ele>668.37</ele>
   </trkpt>
   <trkpt lat="-19.58864" lon="-43.85793">
    <ele>668.42</ele>
   </trkpt>
   <trkpt lat="-19.58875" lon="-43.85801">
    <ele>668.09</ele>
   </trkpt>
   <trkpt lat="-19.58893" lon="-43.858180000000004">
    <ele>667.3800000000001</ele>
   </trkpt>
   <trkpt lat="-19.5894" lon="-43.85835">
    <ele>667.0400000000001</ele>
   </trkpt>
   <trkpt lat="-19.589560000000002" lon="-43.85844">
    <ele>667.36</ele>
   </trkpt>
   <trkpt lat="-19.589940000000002" lon="-43.85849">
    <ele>667.75</ele>
   </trkpt>
   <trkpt lat="-19.59045000005345" lon="-43.85848000003064">
    <ele>670.0500000000001</ele>
   </trkpt>
   <trkpt lat="-19.590960000000003" lon="-43.858470000000004">
    <ele>673.46</ele>
   </trkpt>
   <trkpt lat="-19.591540000000002" lon="-43.85842">
    <ele>679.5500000000001</ele>
   </trkpt>
   <trkpt lat="-19.59196" lon="-43.85849">
    <ele>681.51</ele>
   </trkpt>
   <trkpt lat="-19.59213" lon="-43.85855">
    <ele>684.24</ele>
   </trkpt>
   <trkpt lat="-19.592290000000002" lon="-43.85864">
    <ele>685.4100000000001</ele>
   </trkpt>
   <trkpt lat="-19.59232" lon="-43.85869">
    <ele>685.21</ele>
   </trkpt>
   <trkpt lat="-19.59232" lon="-43.85882">
    <ele>684.86</ele>
   </trkpt>
   <trkpt lat="-19.592280000000002" lon="-43.85911">
    <ele>682.6000000000001</ele>
   </trkpt>
   <trkpt lat="-19.59222" lon="-43.8592">
    <ele>681.37</ele>
   </trkpt>
   <trkpt lat="-19.59161000115287" lon="-43.85986000255284">
    <ele>675.7200000000001</ele>
   </trkpt>
   <trkpt lat="-19.591" lon="-43.86052">
    <ele>674.44</ele>
   </trkpt>
   <trkpt lat="-19.591" lon="-43.860670000000006">
    <ele>674.64</ele>
   </trkpt>
   <trkpt lat="-19.591400003155616" lon="-43.86128749540018">
    <ele>676.69</ele>
   </trkpt>
   <trkpt lat="-19.591800004208924" lon="-43.861904993869025">
    <ele>679.4100000000001</ele>
   </trkpt>
   <trkpt lat="-19.592200003159885" lon="-43.862522495406616">
    <ele>683.09</ele>
   </trkpt>
   <trkpt lat="-19.5926" lon="-43.86314">
    <ele>689.22</ele>
   </trkpt>
   <trkpt lat="-19.592930000623817" lon="-43.86361999899941">
    <ele>692.88</ele>
   </trkpt>
   <trkpt lat="-19.59326" lon="-43.8641">
    <ele>696.3800000000001</ele>
   </trkpt>
   <trkpt lat="-19.593390000000003" lon="-43.86426">
    <ele>695.7700000000001</ele>
   </trkpt>
   <trkpt lat="-19.59353" lon="-43.86448">
    <ele>694.35</ele>
   </trkpt>
   <trkpt lat="-19.59383" lon="-43.86439">
    <ele>690.89</ele>
   </trkpt>
   <trkpt lat="-19.5938" lon="-43.864180000000005">
    <ele>695.35</ele>
   </trkpt>
   <trkpt lat="-19.59381" lon="-43.864000000000004">
    <ele>697.89</ele>
   </trkpt>
   <trkpt lat="-19.59399" lon="-43.863670000000006">
    <ele>702.03</ele>
   </trkpt>
   <trkpt lat="-19.59403" lon="-43.863550000000004">
    <ele>702.3600000000001</ele>
   </trkpt>
   <trkpt lat="-19.594060000000002" lon="-43.86345">
    <ele>702.73</ele>
   </trkpt>
   <trkpt lat="-19.59392000092699" lon="-43.86286999949354">
    <ele>703.6500000000001</ele>
   </trkpt>
   <trkpt lat="-19.593780000000002" lon="-43.86229">
    <ele>704.62</ele>
   </trkpt>
   <trkpt lat="-19.59375" lon="-43.86173">
    <ele>701.01</ele>
   </trkpt>
   <trkpt lat="-19.59382" lon="-43.861580000000004">
    <ele>697.9300000000001</ele>
   </trkpt>
   <trkpt lat="-19.59419" lon="-43.861200000000004">
    <ele>695.67</ele>
   </trkpt>
   <trkpt lat="-19.59461500018596" lon="-43.861374999579716">
    <ele>700.88</ele>
   </trkpt>
   <trkpt lat="-19.59504" lon="-43.86155">
    <ele>708.9100000000001</ele>
   </trkpt>
   <trkpt lat="-19.595474999995087" lon="-43.861699999571506">
    <ele>713.98</ele>
   </trkpt>
   <trkpt lat="-19.59591" lon="-43.861850000000004">
    <ele>717.37</ele>
   </trkpt>
   <trkpt lat="-19.59635" lon="-43.86202">
    <ele>725.3900000000001</ele>
   </trkpt>
   <trkpt lat="-19.59700999987548" lon="-43.86206499980658">
    <ele>732.1</ele>
   </trkpt>
   <trkpt lat="-19.59767" lon="-43.86211">
    <ele>742.1500000000001</ele>
   </trkpt>
   <trkpt lat="-19.598165000208912" lon="-43.862379999173776">
    <ele>746.63</ele>
   </trkpt>
   <trkpt lat="-19.598660000000002" lon="-43.86265">
    <ele>753.69</ele>
   </trkpt>
   <trkpt lat="-19.59935" lon="-43.86280000000001">
    <ele>757.08</ele>
   </trkpt>
   <trkpt lat="-19.59964" lon="-43.8624">
    <ele>752.26</ele>
   </trkpt>
   <trkpt lat="-19.59975" lon="-43.86229">
    <ele>749.47</ele>
   </trkpt>
   <trkpt lat="-19.5999" lon="-43.86211">
    <ele>746.4000000000001</ele>
   </trkpt>
   <trkpt lat="-19.600070000000002" lon="-43.861940000000004">
    <ele>744.11</ele>
   </trkpt>
   <trkpt lat="-19.6002" lon="-43.861760000000004">
    <ele>743.3700000000001</ele>
   </trkpt>
   <trkpt lat="-19.600440000000003" lon="-43.86137">
    <ele>742.0600000000001</ele>
   </trkpt>
   <trkpt lat="-19.60041" lon="-43.86128">
    <ele>741.8800000000001</ele>
   </trkpt>
   <trkpt lat="-19.60051" lon="-43.86075">
    <ele>741.5200000000001</ele>
   </trkpt>
   <trkpt lat="-19.60065" lon="-43.8605">
    <ele>741.2</ele>
   </trkpt>
   <trkpt lat="-19.600940000638694" lon="-43.86004000074166">
    <ele>735.53</ele>
   </trkpt>
   <trkpt lat="-19.60123" lon="-43.85958">
    <ele>731.6700000000001</ele>
   </trkpt>
   <trkpt lat="-19.60133" lon="-43.85943">
    <ele>730.83</ele>
   </trkpt>
   <trkpt lat="-19.60133" lon="-43.859300000000005">
    <ele>729.2400000000001</ele>
   </trkpt>
   <trkpt lat="-19.60114" lon="-43.85887">
    <ele>725.72</ele>
   </trkpt>
   <trkpt lat="-19.601100000000002" lon="-43.85862">
    <ele>728.7900000000001</ele>
   </trkpt>
   <trkpt lat="-19.601020000000002" lon="-43.858470000000004">
    <ele>732.09</ele>
   </trkpt>
   <trkpt lat="-19.60095" lon="-43.85824">
    <ele>735.5400000000001</ele>
   </trkpt>
   <trkpt lat="-19.60088" lon="-43.85813">
    <ele>736.9300000000001</ele>
   </trkpt>
   <trkpt lat="-19.60088" lon="-43.85793">
    <ele>740.58</ele>
   </trkpt>
   <trkpt lat="-19.60093" lon="-43.857890000000005">
    <ele>741.6700000000001</ele>
   </trkpt>
   <trkpt lat="-19.60094" lon="-43.857870000000005">
    <ele>741.6700000000001</ele>
   </trkpt>
   <trkpt lat="-19.60098" lon="-43.85786">
    <ele>742.29</ele>
   </trkpt>
   <trkpt lat="-19.60133" lon="-43.85797">
    <ele>745.41</ele>
   </trkpt>
   <trkpt lat="-19.60169" lon="-43.85802">
    <ele>748.07</ele>
   </trkpt>
   <trkpt lat="-19.602" lon="-43.85799">
    <ele>751.77</ele>
   </trkpt>
   <trkpt lat="-19.6022" lon="-43.85802">
    <ele>755.29</ele>
   </trkpt>
   <trkpt lat="-19.60235" lon="-43.85811">
    <ele>757.9100000000001</ele>
   </trkpt>
   <trkpt lat="-19.60255" lon="-43.85833">
    <ele>760.8000000000001</ele>
   </trkpt>
   <trkpt lat="-19.60285" lon="-43.8586">
    <ele>765.8900000000001</ele>
   </trkpt>
   <trkpt lat="-19.602990000000002" lon="-43.85864">
    <ele>765.8900000000001</ele>
   </trkpt>
   <trkpt lat="-19.60337" lon="-43.85869">
    <ele>770.94</ele>
   </trkpt>
   <trkpt lat="-19.60377" lon="-43.8588">
    <ele>778.4100000000001</ele>
   </trkpt>
   <trkpt lat="-19.60407" lon="-43.8588">
    <ele>779.0400000000001</ele>
   </trkpt>
   <trkpt lat="-19.60453" lon="-43.85869">
    <ele>779.57</ele>
   </trkpt>
   <trkpt lat="-19.60488" lon="-43.85857">
    <ele>781.88</ele>
   </trkpt>
   <trkpt lat="-19.60563" lon="-43.85864">
    <ele>791.98</ele>
   </trkpt>
   <trkpt lat="-19.60572" lon="-43.85871">
    <ele>793.09</ele>
   </trkpt>
   <trkpt lat="-19.60629" lon="-43.858740000000004">
    <ele>791.94</ele>
   </trkpt>
   <trkpt lat="-19.606900000000003" lon="-43.858880000000006">
    <ele>793.2</ele>
   </trkpt>
   <trkpt lat="-19.60705" lon="-43.85887">
    <ele>793.3100000000001</ele>
   </trkpt>
   <trkpt lat="-19.607210000000002" lon="-43.858830000000005">
    <ele>792.5600000000001</ele>
   </trkpt>
   <trkpt lat="-19.60725" lon="-43.85884">
    <ele>792.22</ele>
   </trkpt>
   <trkpt lat="-19.60734" lon="-43.85889">
    <ele>791.12</ele>
   </trkpt>
   <trkpt lat="-19.60743" lon="-43.85898">
    <ele>790.49</ele>
   </trkpt>
   <trkpt lat="-19.607480000000002" lon="-43.859">
    <ele>790.24</ele>
   </trkpt>
   <trkpt lat="-19.60761" lon="-43.859120000000004">
    <ele>789.6500000000001</ele>
   </trkpt>
   <trkpt lat="-19.60771" lon="-43.85916">
    <ele>789.6</ele>
   </trkpt>
   <trkpt lat="-19.60781" lon="-43.85916">
    <ele>789.6700000000001</ele>
   </trkpt>
   <trkpt lat="-19.607960000000002" lon="-43.85925">
    <ele>789.87</ele>
   </trkpt>
   <trkpt lat="-19.60808" lon="-43.85922">
    <ele>790.0800000000002</ele>
   </trkpt>
   <trkpt lat="-19.60818" lon="-43.85927">
    <ele>790.3800000000001</ele>
   </trkpt>
   <trkpt lat="-19.60826" lon="-43.85936">
    <ele>790.42</ele>
   </trkpt>
   <trkpt lat="-19.60836" lon="-43.8594">
    <ele>790.2900000000001</ele>
   </trkpt>
   <trkpt lat="-19.60846" lon="-43.85954">
    <ele>789.82</ele>
   </trkpt>
   <trkpt lat="-19.60857" lon="-43.85954">
    <ele>789.69</ele>
   </trkpt>
   <trkpt lat="-19.608710000000002" lon="-43.8596">
    <ele>789.69</ele>
   </trkpt>
   <trkpt lat="-19.60885" lon="-43.85981">
    <ele>790.59</ele>
   </trkpt>
   <trkpt lat="-19.609" lon="-43.85992">
    <ele>791.8900000000001</ele>
   </trkpt>
   <trkpt lat="-19.60911" lon="-43.85999">
    <ele>793.1600000000001</ele>
   </trkpt>
   <trkpt lat="-19.60913" lon="-43.86005">
    <ele>793.71</ele>
   </trkpt>
   <trkpt lat="-19.60923" lon="-43.860040000000005">
    <ele>795.0400000000001</ele>
   </trkpt>
   <trkpt lat="-19.609180000000002" lon="-43.85978">
    <ele>799.1400000000001</ele>
   </trkpt>
   <trkpt lat="-19.6092" lon="-43.85969">
    <ele>801.9300000000001</ele>
   </trkpt>
   <trkpt lat="-19.609170000000002" lon="-43.85947">
    <ele>803.86</ele>
   </trkpt>
   <trkpt lat="-19.609180000000002" lon="-43.85938">
    <ele>804.85</ele>
   </trkpt>
   <trkpt lat="-19.60911" lon="-43.85918">
    <ele>806.96</ele>
   </trkpt>
   <trkpt lat="-19.60912" lon="-43.85911">
    <ele>807.35</ele>
   </trkpt>
   <trkpt lat="-19.6092" lon="-43.85905">
    <ele>807.69</ele>
   </trkpt>
   <trkpt lat="-19.60949" lon="-43.85869">
    <ele>811.21</ele>
   </trkpt>
   <trkpt lat="-19.60961" lon="-43.85862">
    <ele>811.82</ele>
   </trkpt>
   <trkpt lat="-19.60978" lon="-43.85848">
    <ele>813.39</ele>
   </trkpt>
   <trkpt lat="-19.61008" lon="-43.85819">
    <ele>817.34</ele>
   </trkpt>
   <trkpt lat="-19.61034" lon="-43.85781">
    <ele>817.8900000000001</ele>
   </trkpt>
   <trkpt lat="-19.610500000000002" lon="-43.85712">
    <ele>824.1400000000001</ele>
   </trkpt>
   <trkpt lat="-19.61051" lon="-43.85692">
    <ele>827.1500000000001</ele>
   </trkpt>
   <trkpt lat="-19.61042" lon="-43.8564">
    <ele>834.67</ele>
   </trkpt>
   <trkpt lat="-19.61032" lon="-43.85611">
    <ele>837.8700000000001</ele>
   </trkpt>
   <trkpt lat="-19.60996" lon="-43.85562">
    <ele>841.74</ele>
   </trkpt>
   <trkpt lat="-19.60978" lon="-43.85517">
    <ele>848.32</ele>
   </trkpt>
   <trkpt lat="-19.60961" lon="-43.85497">
    <ele>852.5600000000001</ele>
   </trkpt>
   <trkpt lat="-19.60967" lon="-43.85475">
    <ele>854.59</ele>
   </trkpt>
   <trkpt lat="-19.61025" lon="-43.85407">
    <ele>853.3600000000001</ele>
   </trkpt>
   <trkpt lat="-19.61052" lon="-43.85385">
    <ele>853.23</ele>
   </trkpt>
   <trkpt lat="-19.61083" lon="-43.853640000000006">
    <ele>853.49</ele>
   </trkpt>
   <trkpt lat="-19.61118" lon="-43.85343">
    <ele>852.74</ele>
   </trkpt>
   <trkpt lat="-19.61164" lon="-43.85329">
    <ele>851.37</ele>
   </trkpt>
   <trkpt lat="-19.61184" lon="-43.85327">
    <ele>850.6400000000001</ele>
   </trkpt>
   <trkpt lat="-19.61248" lon="-43.85327">
    <ele>848.1200000000001</ele>
   </trkpt>
   <trkpt lat="-19.61277" lon="-43.8532">
    <ele>846.0500000000001</ele>
   </trkpt>
   <trkpt lat="-19.61325" lon="-43.853030000000004">
    <ele>841.6800000000001</ele>
   </trkpt>
   <trkpt lat="-19.61334" lon="-43.85291">
    <ele>838.46</ele>
   </trkpt>
   <trkpt lat="-19.61336" lon="-43.85244">
    <ele>833.82</ele>
   </trkpt>
   <trkpt lat="-19.61344" lon="-43.85193">
    <ele>826.5400000000001</ele>
   </trkpt>
   <trkpt lat="-19.61344" lon="-43.8517">
    <ele>822.9000000000001</ele>
   </trkpt>
   <trkpt lat="-19.61362" lon="-43.851330000000004">
    <ele>817.98</ele>
   </trkpt>
   <trkpt lat="-19.61371" lon="-43.85123">
    <ele>815.45</ele>
   </trkpt>
   <trkpt lat="-19.61383" lon="-43.85112">
    <ele>812.5500000000001</ele>
   </trkpt>
   <trkpt lat="-19.61437" lon="-43.850860000000004">
    <ele>801.4300000000001</ele>
   </trkpt>
   <trkpt lat="-19.614720000000002" lon="-43.85081">
    <ele>793.9200000000001</ele>
   </trkpt>
   <trkpt lat="-19.614890000000003" lon="-43.85087">
    <ele>791.37</ele>
   </trkpt>
   <trkpt lat="-19.61493" lon="-43.85087">
    <ele>791.37</ele>
   </trkpt>
   <trkpt lat="-19.61502" lon="-43.85079">
    <ele>790.0</ele>
   </trkpt>
   <trkpt lat="-19.615270000000002" lon="-43.8509">
    <ele>788.6</ele>
   </trkpt>
   <trkpt lat="-19.6155" lon="-43.851060000000004">
    <ele>788.02</ele>
   </trkpt>
   <trkpt lat="-19.61586" lon="-43.85119">
    <ele>788.3000000000001</ele>
   </trkpt>
   <trkpt lat="-19.61635" lon="-43.8513">
    <ele>790.6800000000001</ele>
   </trkpt>
   <trkpt lat="-19.61653" lon="-43.85128">
    <ele>792.5200000000001</ele>
   </trkpt>
   <trkpt lat="-19.61673" lon="-43.85116">
    <ele>793.71</ele>
   </trkpt>
   <trkpt lat="-19.61722000024829" lon="-43.850795001201504">
    <ele>800.6800000000001</ele>
   </trkpt>
   <trkpt lat="-19.617710000000002" lon="-43.85043">
    <ele>802.33</ele>
   </trkpt>
   <trkpt lat="-19.618090000000002" lon="-43.85029">
    <ele>802.1</ele>
   </trkpt>
   <trkpt lat="-19.61842" lon="-43.85032">
    <ele>802.1400000000001</ele>
   </trkpt>
   <trkpt lat="-19.6186" lon="-43.85038">
    <ele>802.3800000000001</ele>
   </trkpt>
   <trkpt lat="-19.618850000000002" lon="-43.85052">
    <ele>802.94</ele>
   </trkpt>
   <trkpt lat="-19.61923" lon="-43.85063">
    <ele>804.15</ele>
   </trkpt>
   <trkpt lat="-19.61961" lon="-43.85069">
    <ele>806.4100000000001</ele>
   </trkpt>
   <trkpt lat="-19.619950000000003" lon="-43.85069">
    <ele>808.33</ele>
   </trkpt>
   <trkpt lat="-19.62028" lon="-43.85063">
    <ele>810.9900000000001</ele>
   </trkpt>
   <trkpt lat="-19.62064" lon="-43.85054">
    <ele>811.73</ele>
   </trkpt>
   <trkpt lat="-19.620990000000003" lon="-43.85034">
    <ele>810.3800000000001</ele>
   </trkpt>
   <trkpt lat="-19.62133" lon="-43.85">
    <ele>810.39</ele>
   </trkpt>
   <trkpt lat="-19.62153" lon="-43.84978">
    <ele>811.0600000000001</ele>
   </trkpt>
   <trkpt lat="-19.621660000000002" lon="-43.8496">
    <ele>811.45</ele>
   </trkpt>
   <trkpt lat="-19.62179" lon="-43.84944">
    <ele>811.76</ele>
   </trkpt>
   <trkpt lat="-19.62197" lon="-43.84937">
    <ele>812.9000000000001</ele>
   </trkpt>
   <trkpt lat="-19.62225" lon="-43.8494">
    <ele>813.8700000000001</ele>
   </trkpt>
   <trkpt lat="-19.622680000000003" lon="-43.8496">
    <ele>816.61</ele>
   </trkpt>
   <trkpt lat="-19.62281" lon="-43.84978">
    <ele>818.0500000000001</ele>
   </trkpt>
   <trkpt lat="-19.623060000000002" lon="-43.85027">
    <ele>824.7200000000001</ele>
   </trkpt>
   <trkpt lat="-19.6231" lon="-43.85061">
    <ele>827.45</ele>
   </trkpt>
   <trkpt lat="-19.623260000000002" lon="-43.85085">
    <ele>831.5400000000001</ele>
   </trkpt>
   <trkpt lat="-19.62367" lon="-43.85112">
    <ele>839.4</ele>
   </trkpt>
   <trkpt lat="-19.62413" lon="-43.8513">
    <ele>835.83</ele>
   </trkpt>
   <trkpt lat="-19.6244" lon="-43.851440000000004">
    <ele>831.2</ele>
   </trkpt>
   <trkpt lat="-19.624980000876302" lon="-43.8519949980215">
    <ele>827.88</ele>
   </trkpt>
   <trkpt lat="-19.62556" lon="-43.85255">
    <ele>830.5600000000001</ele>
   </trkpt>
   <trkpt lat="-19.625870000000003" lon="-43.852740000000004">
    <ele>833.0200000000001</ele>
   </trkpt>
   <trkpt lat="-19.6262" lon="-43.85291">
    <ele>834.79</ele>
   </trkpt>
   <trkpt lat="-19.62676" lon="-43.85304000000001">
    <ele>838.19</ele>
   </trkpt>
   <trkpt lat="-19.62706" lon="-43.853">
    <ele>838.9100000000001</ele>
   </trkpt>
   <trkpt lat="-19.627580000000002" lon="-43.85273">
    <ele>838.0200000000001</ele>
   </trkpt>
   <trkpt lat="-19.62772" lon="-43.85271">
    <ele>838.7500000000001</ele>
   </trkpt>
   <trkpt lat="-19.628230000000002" lon="-43.85284">
    <ele>843.64</ele>
   </trkpt>
   <trkpt lat="-19.62838" lon="-43.85282">
    <ele>844.67</ele>
   </trkpt>
   <trkpt lat="-19.62892" lon="-43.85244">
    <ele>839.7800000000001</ele>
   </trkpt>
   <trkpt lat="-19.629170000000002" lon="-43.85222">
    <ele>838.1800000000001</ele>
   </trkpt>
   <trkpt lat="-19.6292" lon="-43.852000000000004">
    <ele>836.9700000000001</ele>
   </trkpt>
   <trkpt lat="-19.62913" lon="-43.85179">
    <ele>833.5400000000001</ele>
   </trkpt>
   <trkpt lat="-19.62911" lon="-43.85155">
    <ele>831.4200000000001</ele>
   </trkpt>
   <trkpt lat="-19.629360000000002" lon="-43.85148">
    <ele>830.49</ele>
   </trkpt>
   <trkpt lat="-19.62996" lon="-43.851510000000005">
    <ele>834.91</ele>
   </trkpt>
   <trkpt lat="-19.63042" lon="-43.85148">
    <ele>834.6300000000001</ele>
   </trkpt>
   <trkpt lat="-19.630990000055892" lon="-43.851534999809424">
    <ele>837.4100000000001</ele>
   </trkpt>
   <trkpt lat="-19.63156" lon="-43.85159">
    <ele>842.01</ele>
   </trkpt>
   <trkpt lat="-19.63202" lon="-43.851510000000005">
    <ele>849.2</ele>
   </trkpt>
   <trkpt lat="-19.632350000000002" lon="-43.851330000000004">
    <ele>852.37</ele>
   </trkpt>
   <trkpt lat="-19.632700000501917" lon="-43.85095000071608">
    <ele>853.34</ele>
   </trkpt>
   <trkpt lat="-19.63305" lon="-43.850570000000005">
    <ele>853.98</ele>
   </trkpt>
   <trkpt lat="-19.63315" lon="-43.85049">
    <ele>854.71</ele>
   </trkpt>
   <trkpt lat="-19.63353" lon="-43.85038">
    <ele>858.6400000000001</ele>
   </trkpt>
   <trkpt lat="-19.634320000000002" lon="-43.85047">
    <ele>867.3700000000001</ele>
   </trkpt>
   <trkpt lat="-19.634510000000002" lon="-43.850590000000004">
    <ele>868.2800000000001</ele>
   </trkpt>
   <trkpt lat="-19.63481" lon="-43.85074">
    <ele>868.53</ele>
   </trkpt>
   <trkpt lat="-19.635450000000002" lon="-43.850880000000004">
    <ele>872.1300000000001</ele>
   </trkpt>
   <trkpt lat="-19.63586" lon="-43.850860000000004">
    <ele>876.9100000000001</ele>
   </trkpt>
   <trkpt lat="-19.63596" lon="-43.850880000000004">
    <ele>878.1200000000001</ele>
   </trkpt>
   <trkpt lat="-19.63597" lon="-43.850880000000004">
    <ele>878.1800000000001</ele>
   </trkpt>
   <trkpt lat="-19.63595" lon="-43.85072">
    <ele>878.82</ele>
   </trkpt>
   <trkpt lat="-19.636120000000002" lon="-43.85034">
    <ele>882.1000000000001</ele>
   </trkpt>
   <trkpt lat="-19.636480000000002" lon="-43.85005">
    <ele>886.72</ele>
   </trkpt>
   <trkpt lat="-19.636850000000003" lon="-43.84982">
    <ele>889.65</ele>
   </trkpt>
   <trkpt lat="-19.63716000036475" lon="-43.84945500070846">
    <ele>888.9800000000001</ele>
   </trkpt>
   <trkpt lat="-19.63747" lon="-43.849090000000004">
    <ele>889.34</ele>
   </trkpt>
   <trkpt lat="-19.637410000000003" lon="-43.84888">
    <ele>890.97</ele>
   </trkpt>
   <trkpt lat="-19.63717" lon="-43.84864">
    <ele>890.57</ele>
   </trkpt>
   <trkpt lat="-19.63701" lon="-43.848240000000004">
    <ele>890.1800000000001</ele>
   </trkpt>
   <trkpt lat="-19.63707" lon="-43.84783">
    <ele>889.63</ele>
   </trkpt>
   <trkpt lat="-19.63670000096469" lon="-43.847229998569425">
    <ele>887.41</ele>
   </trkpt>
   <trkpt lat="-19.63633" lon="-43.846630000000005">
    <ele>883.9100000000001</ele>
   </trkpt>
   <trkpt lat="-19.63584" lon="-43.84613">
    <ele>877.89</ele>
   </trkpt>
   <trkpt lat="-19.63542" lon="-43.84555">
    <ele>880.5600000000001</ele>
   </trkpt>
   <trkpt lat="-19.63501" lon="-43.84508">
    <ele>879.7900000000001</ele>
   </trkpt>
   <trkpt lat="-19.63484" lon="-43.84483">
    <ele>877.7300000000001</ele>
   </trkpt>
   <trkpt lat="-19.63475" lon="-43.84463">
    <ele>875.7800000000001</ele>
   </trkpt>
   <trkpt lat="-19.634230000000002" lon="-43.84427">
    <ele>870.5400000000001</ele>
   </trkpt>
   <trkpt lat="-19.63398" lon="-43.84398">
    <ele>864.7900000000001</ele>
   </trkpt>
   <trkpt lat="-19.633670000000002" lon="-43.84351">
    <ele>857.01</ele>
   </trkpt>
   <trkpt lat="-19.6329800008808" lon="-43.842949997606176">
    <ele>850.8100000000001</ele>
   </trkpt>
   <trkpt lat="-19.63229" lon="-43.84239">
    <ele>842.0900000000001</ele>
   </trkpt>
   <trkpt lat="-19.631950000000003" lon="-43.84194">
    <ele>840.58</ele>
   </trkpt>
   <trkpt lat="-19.63173" lon="-43.84181">
    <ele>840.6600000000001</ele>
   </trkpt>
   <trkpt lat="-19.630970000792637" lon="-43.84143666314521">
    <ele>836.3100000000001</ele>
   </trkpt>
   <trkpt lat="-19.630210000815516" lon="-43.841063329823186">
    <ele>828.9300000000001</ele>
   </trkpt>
   <trkpt lat="-19.629450000000002" lon="-43.84069">
    <ele>826.7800000000001</ele>
   </trkpt>
   <trkpt lat="-19.62927" lon="-43.84035">
    <ele>823.7800000000001</ele>
   </trkpt>
   <trkpt lat="-19.629067505364127" lon="-43.83954499694079">
    <ele>815.6600000000001</ele>
   </trkpt>
   <trkpt lat="-19.6288650071496" lon="-43.838739995911">
    <ele>813.5600000000001</ele>
   </trkpt>
   <trkpt lat="-19.62866250535649" lon="-43.837934996910626">
    <ele>818.23</ele>
   </trkpt>
   <trkpt lat="-19.62846" lon="-43.83713">
    <ele>827.45</ele>
   </trkpt>
   <trkpt lat="-19.62835" lon="-43.83693">
    <ele>829.2400000000001</ele>
   </trkpt>
   <trkpt lat="-19.627730000000003" lon="-43.83632">
    <ele>835.4100000000001</ele>
   </trkpt>
   <trkpt lat="-19.62835" lon="-43.83693">
    <ele>829.2400000000001</ele>
   </trkpt>
   <trkpt lat="-19.62846" lon="-43.83713">
    <ele>827.45</ele>
   </trkpt>
   <trkpt lat="-19.628662505371658" lon="-43.837934996970944">
    <ele>818.23</ele>
   </trkpt>
   <trkpt lat="-19.628865007164777" lon="-43.838739995971316">
    <ele>813.5600000000001</ele>
   </trkpt>
   <trkpt lat="-19.629067505379293" lon="-43.83954499700111">
    <ele>815.6600000000001</ele>
   </trkpt>
   <trkpt lat="-19.62927" lon="-43.84035">
    <ele>823.7800000000001</ele>
   </trkpt>
   <trkpt lat="-19.629450000000002" lon="-43.84069">
    <ele>826.7800000000001</ele>
   </trkpt>
   <trkpt lat="-19.630210000746846" lon="-43.84106332978945">
    <ele>828.9300000000001</ele>
   </trkpt>
   <trkpt lat="-19.63097000072397" lon="-43.84143666311148">
    <ele>836.3100000000001</ele>
   </trkpt>
   <trkpt lat="-19.63173" lon="-43.84181">
    <ele>840.6600000000001</ele>
   </trkpt>
   <trkpt lat="-19.631950000000003" lon="-43.84194">
    <ele>840.58</ele>
   </trkpt>
   <trkpt lat="-19.63229" lon="-43.84239">
    <ele>842.0900000000001</ele>
   </trkpt>
   <trkpt lat="-19.632980000851312" lon="-43.84294999758224">
    <ele>850.8100000000001</ele>
   </trkpt>
   <trkpt lat="-19.633670000000002" lon="-43.84351">
    <ele>857.01</ele>
   </trkpt>
   <trkpt lat="-19.63398" lon="-43.84398">
    <ele>864.7900000000001</ele>
   </trkpt>
   <trkpt lat="-19.634230000000002" lon="-43.84427">
    <ele>870.5400000000001</ele>
   </trkpt>
   <trkpt lat="-19.63475" lon="-43.84463">
    <ele>875.7800000000001</ele>
   </trkpt>
   <trkpt lat="-19.63484" lon="-43.84483">
    <ele>877.7300000000001</ele>
   </trkpt>
   <trkpt lat="-19.63501" lon="-43.84508">
    <ele>880.58</ele>
   </trkpt>
   <trkpt lat="-19.63542" lon="-43.84555">
    <ele>880.5600000000001</ele>
   </trkpt>
   <trkpt lat="-19.63584" lon="-43.84613">
    <ele>877.89</ele>
   </trkpt>
   <trkpt lat="-19.63633" lon="-43.846630000000005">
    <ele>883.9100000000001</ele>
   </trkpt>
   <trkpt lat="-19.636700001024007" lon="-43.84722999866561">
    <ele>888.02</ele>
   </trkpt>
   <trkpt lat="-19.63707" lon="-43.84783">
    <ele>889.63</ele>
   </trkpt>
   <trkpt lat="-19.63701" lon="-43.848240000000004">
    <ele>890.1800000000001</ele>
   </trkpt>
   <trkpt lat="-19.63717" lon="-43.84864">
    <ele>890.57</ele>
   </trkpt>
   <trkpt lat="-19.637410000000003" lon="-43.84888">
    <ele>890.97</ele>
   </trkpt>
   <trkpt lat="-19.63747" lon="-43.849090000000004">
    <ele>889.38</ele>
   </trkpt>
   <trkpt lat="-19.63747" lon="-43.84910000000001">
    <ele>889.38</ele>
   </trkpt>
   <trkpt lat="-19.637160000280627" lon="-43.84946000078483">
    <ele>888.9800000000001</ele>
   </trkpt>
   <trkpt lat="-19.636850000000003" lon="-43.84982">
    <ele>889.65</ele>
   </trkpt>
   <trkpt lat="-19.636480000000002" lon="-43.85005">
    <ele>886.72</ele>
   </trkpt>
   <trkpt lat="-19.636120000000002" lon="-43.85034">
    <ele>882.1000000000001</ele>
   </trkpt>
   <trkpt lat="-19.63595" lon="-43.85072">
    <ele>878.82</ele>
   </trkpt>
   <trkpt lat="-19.63597" lon="-43.850880000000004">
    <ele>878.1800000000001</ele>
   </trkpt>
   <trkpt lat="-19.63642" lon="-43.85121">
    <ele>871.86</ele>
   </trkpt>
   <trkpt lat="-19.6368" lon="-43.851710000000004">
    <ele>865.33</ele>
   </trkpt>
   <trkpt lat="-19.636850000000003" lon="-43.8519">
    <ele>864.3700000000001</ele>
   </trkpt>
   <trkpt lat="-19.63681" lon="-43.85222">
    <ele>863.1700000000001</ele>
   </trkpt>
   <trkpt lat="-19.636900001306657" lon="-43.85291499939807">
    <ele>864.5400000000001</ele>
   </trkpt>
   <trkpt lat="-19.63699" lon="-43.85361">
    <ele>866.4300000000001</ele>
   </trkpt>
   <trkpt lat="-19.637" lon="-43.8541">
    <ele>860.74</ele>
   </trkpt>
   <trkpt lat="-19.63709" lon="-43.85457">
    <ele>854.57</ele>
   </trkpt>
   <trkpt lat="-19.6372" lon="-43.85499">
    <ele>853.6800000000001</ele>
   </trkpt>
   <trkpt lat="-19.637230000000002" lon="-43.85587">
    <ele>859.95</ele>
   </trkpt>
   <trkpt lat="-19.63736" lon="-43.8564">
    <ele>854.7</ele>
   </trkpt>
   <trkpt lat="-19.63755" lon="-43.8569">
    <ele>853.84</ele>
   </trkpt>
   <trkpt lat="-19.63803000114851" lon="-43.857524998222154">
    <ele>865.9100000000001</ele>
   </trkpt>
   <trkpt lat="-19.63851" lon="-43.85815">
    <ele>870.62</ele>
   </trkpt>
   <trkpt lat="-19.638785001620885" lon="-43.85889999889838">
    <ele>869.44</ele>
   </trkpt>
   <trkpt lat="-19.63906" lon="-43.85965">
    <ele>868.0500000000001</ele>
   </trkpt>
   <trkpt lat="-19.6391800013358" lon="-43.86034499948929">
    <ele>868.21</ele>
   </trkpt>
   <trkpt lat="-19.639300000000002" lon="-43.86104">
    <ele>867.9000000000001</ele>
   </trkpt>
   <trkpt lat="-19.639210000000002" lon="-43.86157">
    <ele>869.6700000000001</ele>
   </trkpt>
   <trkpt lat="-19.639035000741877" lon="-43.86208500053416">
    <ele>874.96</ele>
   </trkpt>
   <trkpt lat="-19.63886" lon="-43.8626">
    <ele>875.1700000000001</ele>
   </trkpt>
   <trkpt lat="-19.63885" lon="-43.86294">
    <ele>874.47</ele>
   </trkpt>
   <trkpt lat="-19.63894" lon="-43.86352">
    <ele>867.71</ele>
   </trkpt>
   <trkpt lat="-19.63896" lon="-43.864140000000006">
    <ele>864.1200000000001</ele>
   </trkpt>
   <trkpt lat="-19.639300000000002" lon="-43.864650000000005">
    <ele>866.07</ele>
   </trkpt>
   <trkpt lat="-19.63936" lon="-43.86496">
    <ele>864.86</ele>
   </trkpt>
   <trkpt lat="-19.63963" lon="-43.8656">
    <ele>856.3600000000001</ele>
   </trkpt>
   <trkpt lat="-19.63969" lon="-43.866110000000006">
    <ele>852.23</ele>
   </trkpt>
   <trkpt lat="-19.63961" lon="-43.86666">
    <ele>848.8500000000001</ele>
   </trkpt>
   <trkpt lat="-19.63946000074532" lon="-43.86716000028474">
    <ele>844.8100000000001</ele>
   </trkpt>
   <trkpt lat="-19.639310000000002" lon="-43.86766">
    <ele>841.9200000000001</ele>
   </trkpt>
   <trkpt lat="-19.639050000596825" lon="-43.86812000072311">
    <ele>839.79</ele>
   </trkpt>
   <trkpt lat="-19.63879" lon="-43.86858">
    <ele>837.08</ele>
   </trkpt>
   <trkpt lat="-19.63859" lon="-43.869150000000005">
    <ele>834.47</ele>
   </trkpt>
   <trkpt lat="-19.638400000923497" lon="-43.869735000759455">
    <ele>829.11</ele>
   </trkpt>
   <trkpt lat="-19.63821" lon="-43.87032000000001">
    <ele>826.0500000000001</ele>
   </trkpt>
   <trkpt lat="-19.6383" lon="-43.87064">
    <ele>825.23</ele>
   </trkpt>
   <trkpt lat="-19.63829" lon="-43.87082">
    <ele>824.1700000000001</ele>
   </trkpt>
   <trkpt lat="-19.6383" lon="-43.87131">
    <ele>819.49</ele>
   </trkpt>
   <trkpt lat="-19.63829" lon="-43.871520000000004">
    <ele>818.49</ele>
   </trkpt>
   <trkpt lat="-19.63803" lon="-43.872350000000004">
    <ele>811.09</ele>
   </trkpt>
   <trkpt lat="-19.637900000000002" lon="-43.873250000000006">
    <ele>805.97</ele>
   </trkpt>
   <trkpt lat="-19.63775500099374" lon="-43.87385500061851">
    <ele>802.51</ele>
   </trkpt>
   <trkpt lat="-19.637610000000002" lon="-43.874460000000006">
    <ele>798.42</ele>
   </trkpt>
   <trkpt lat="-19.63757" lon="-43.875130000000006">
    <ele>793.2900000000001</ele>
   </trkpt>
   <trkpt lat="-19.63757" lon="-43.8755">
    <ele>792.0400000000001</ele>
   </trkpt>
   <trkpt lat="-19.63748" lon="-43.87617">
    <ele>788.2300000000001</ele>
   </trkpt>
   <trkpt lat="-19.637230000000002" lon="-43.87689">
    <ele>784.1700000000001</ele>
   </trkpt>
   <trkpt lat="-19.6371" lon="-43.87749">
    <ele>780.6</ele>
   </trkpt>
   <trkpt lat="-19.63701" lon="-43.878280000000004">
    <ele>777.32</ele>
   </trkpt>
   <trkpt lat="-19.637040000000002" lon="-43.878820000000005">
    <ele>774.3100000000001</ele>
   </trkpt>
   <trkpt lat="-19.636970001498906" lon="-43.87955500024959">
    <ele>769.1000000000001</ele>
   </trkpt>
   <trkpt lat="-19.6369" lon="-43.88029">
    <ele>767.46</ele>
   </trkpt>
   <trkpt lat="-19.63688" lon="-43.880340000000004">
    <ele>767.46</ele>
   </trkpt>
  </trkseg>
 </trk>
</gpx>
