<?xml version="1.0" encoding="UTF-8"?>
<gpx creator="StravaGPX" version="1.1" xmlns="http://www.topografix.com/GPX/1/1" xmlns:xsi="http://www.w3.org/2001/XMLSchema-instance" xsi:schemaLocation="http://www.topografix.com/GPX/1/1 http://www.topografix.com/GPX/1/1/gpx.xsd">
 <metadata>
  <name>Corrida matinal</name>
  <author>
   <name>Felipe Desiderio</name>
  </author>
  <copyright author="OpenStreetMap contributors">
   <year>2020</year>
   <license>https://www.openstreetmap.org/copyright</license>
  </copyright>
 </metadata>
 <trk>
  <name>Corrida matinal</name>
  <link href=""/>
  <type>running</type>
  <trkseg>
   <trkpt lat="-23.487940000000002" lon="-46.60938">
    <ele>747.63</ele>
   </trkpt>
   <trkpt lat="-23.487990000000003" lon="-46.60929">
    <ele>746.98</ele>
   </trkpt>
   <trkpt lat="-23.48863" lon="-46.609590000000004">
    <ele>745.75</ele>
   </trkpt>
   <trkpt lat="-23.488970000000002" lon="-46.60972">
    <ele>745.2200000000001</ele>
   </trkpt>
   <trkpt lat="-23.489150000000002" lon="-46.60972">
    <ele>744.46</ele>
   </trkpt>
   <trkpt lat="-23.489976667633506" lon="-46.610099995255304">
    <ele>743.84</ele>
   </trkpt>
   <trkpt lat="-23.490803334345728" lon="-46.61047999527615">
    <ele>743.32</ele>
   </trkpt>
   <trkpt lat="-23.49163" lon="-46.61086">
    <ele>742.82</ele>
   </trkpt>
   <trkpt lat="-23.4921" lon="-46.611070000000005">
    <ele>742.46</ele>
   </trkpt>
   <trkpt lat="-23.492600000000003" lon="-46.611250000000005">
    <ele>741.72</ele>
   </trkpt>
   <trkpt lat="-23.49275" lon="-46.61131">
    <ele>741.6</ele>
   </trkpt>
   <trkpt lat="-23.49349000009779" lon="-46.6114799990469">
    <ele>740.6400000000001</ele>
   </trkpt>
   <trkpt lat="-23.49423" lon="-46.611650000000004">
    <ele>739.82</ele>
   </trkpt>
   <trkpt lat="-23.495070000238357" lon="-46.61174499941825">
    <ele>738.72</ele>
   </trkpt>
   <trkpt lat="-23.495910000000002" lon="-46.61184">
    <ele>738.21</ele>
   </trkpt>
   <trkpt lat="-23.49624" lon="-46.61189">
    <ele>737.77</ele>
   </trkpt>
   <trkpt lat="-23.496530000000003" lon="-46.61197000000001">
    <ele>737.6</ele>
   </trkpt>
   <trkpt lat="-23.497210000000003" lon="-46.612230000000004">
    <ele>737.11</ele>
   </trkpt>
   <trkpt lat="-23.49781" lon="-46.612590000000004">
    <ele>736.33</ele>
   </trkpt>
   <trkpt lat="-23.49833000046907" lon="-46.61297499847793">
    <ele>735.87</ele>
   </trkpt>
   <trkpt lat="-23.49885" lon="-46.61336000000001">
    <ele>735.6100000000001</ele>
   </trkpt>
   <trkpt lat="-23.499160000000003" lon="-46.61356000000001">
    <ele>735.35</ele>
   </trkpt>
   <trkpt lat="-23.499680001004336" lon="-46.613953330241806">
    <ele>734.9300000000001</ele>
   </trkpt>
   <trkpt lat="-23.500200001021273" lon="-46.61434666358792">
    <ele>734.83</ele>
   </trkpt>
   <trkpt lat="-23.50072" lon="-46.614740000000005">
    <ele>734.8500000000001</ele>
   </trkpt>
   <trkpt lat="-23.500660000000003" lon="-46.614920000000005">
    <ele>735.01</ele>
   </trkpt>
   <trkpt lat="-23.499926668557688" lon="-46.61437332723666">
    <ele>735.62</ele>
   </trkpt>
   <trkpt lat="-23.499193335208055" lon="-46.61382666055796">
    <ele>736.4600000000002</ele>
   </trkpt>
   <trkpt lat="-23.49846" lon="-46.61328">
    <ele>736.9100000000001</ele>
   </trkpt>
   <trkpt lat="-23.497960000362177" lon="-46.61292999865198">
    <ele>737.3400000000001</ele>
   </trkpt>
   <trkpt lat="-23.49746" lon="-46.61258">
    <ele>737.47</ele>
   </trkpt>
   <trkpt lat="-23.49724" lon="-46.61245">
    <ele>737.6700000000001</ele>
   </trkpt>
   <trkpt lat="-23.49697" lon="-46.61233000000001">
    <ele>737.8100000000001</ele>
   </trkpt>
   <trkpt lat="-23.496380000000002" lon="-46.612120000000004">
    <ele>738.16</ele>
   </trkpt>
   <trkpt lat="-23.49583" lon="-46.61202">
    <ele>738.7800000000001</ele>
   </trkpt>
   <trkpt lat="-23.49500000011844" lon="-46.6119199993807">
    <ele>740.5100000000001</ele>
   </trkpt>
   <trkpt lat="-23.49417" lon="-46.61182">
    <ele>741.89</ele>
   </trkpt>
   <trkpt lat="-23.49361" lon="-46.61171">
    <ele>742.58</ele>
   </trkpt>
   <trkpt lat="-23.493130000144728" lon="-46.61158499956953">
    <ele>743.1500000000001</ele>
   </trkpt>
   <trkpt lat="-23.49265" lon="-46.61146">
    <ele>743.33</ele>
   </trkpt>
   <trkpt lat="-23.4919" lon="-46.611180000000004">
    <ele>743.7600000000001</ele>
   </trkpt>
   <trkpt lat="-23.4911033341403" lon="-46.610816662259175">
    <ele>744.01</ele>
   </trkpt>
   <trkpt lat="-23.4903066674383" lon="-46.610453328909806">
    <ele>744.9300000000001</ele>
   </trkpt>
   <trkpt lat="-23.489510000000003" lon="-46.61009000000001">
    <ele>745.57</ele>
   </trkpt>
   <trkpt lat="-23.489430000000002" lon="-46.60996">
    <ele>745.47</ele>
   </trkpt>
   <trkpt lat="-23.488970000000002" lon="-46.60972">
    <ele>745.2200000000001</ele>
   </trkpt>
   <trkpt lat="-23.48863" lon="-46.609590000000004">
    <ele>745.75</ele>
   </trkpt>
   <trkpt lat="-23.488180000000003" lon="-46.60938">
    <ele>749.89</ele>
   </trkpt>
   <trkpt lat="-23.48863" lon="-46.609590000000004">
    <ele>745.75</ele>
   </trkpt>
   <trkpt lat="-23.488970000000002" lon="-46.60972">
    <ele>745.2200000000001</ele>
   </trkpt>
   <trkpt lat="-23.489150000000002" lon="-46.60972">
    <ele>744.46</ele>
   </trkpt>
   <trkpt lat="-23.489976667633506" lon="-46.610099995255304">
    <ele>743.84</ele>
   </trkpt>
   <trkpt lat="-23.490803334345728" lon="-46.61047999527615">
    <ele>743.32</ele>
   </trkpt>
   <trkpt lat="-23.49163" lon="-46.61086">
    <ele>742.82</ele>
   </trkpt>
   <trkpt lat="-23.4921" lon="-46.611070000000005">
    <ele>742.46</ele>
   </trkpt>
   <trkpt lat="-23.492600000000003" lon="-46.611250000000005">
    <ele>741.72</ele>
   </trkpt>
   <trkpt lat="-23.49276" lon="-46.611320000000006">
    <ele>741.6100000000001</ele>
   </trkpt>
   <trkpt lat="-23.49349500011375" lon="-46.61148499908599">
    <ele>740.6400000000001</ele>
   </trkpt>
   <trkpt lat="-23.49423" lon="-46.611650000000004">
    <ele>739.82</ele>
   </trkpt>
   <trkpt lat="-23.495070000238357" lon="-46.61174499941825">
    <ele>738.72</ele>
   </trkpt>
   <trkpt lat="-23.495910000000002" lon="-46.61184">
    <ele>738.21</ele>
   </trkpt>
   <trkpt lat="-23.49624" lon="-46.61189">
    <ele>737.77</ele>
   </trkpt>
   <trkpt lat="-23.496530000000003" lon="-46.61197000000001">
    <ele>737.6</ele>
   </trkpt>
   <trkpt lat="-23.49688" lon="-46.612100000000005">
    <ele>737.24</ele>
   </trkpt>
   <trkpt lat="-23.496530000000003" lon="-46.61197000000001">
    <ele>737.6</ele>
   </trkpt>
   <trkpt lat="-23.49624" lon="-46.61189">
    <ele>737.77</ele>
   </trkpt>
   <trkpt lat="-23.495910000000002" lon="-46.61184">
    <ele>738.21</ele>
   </trkpt>
   <trkpt lat="-23.49506999981924" lon="-46.61174499937085">
    <ele>738.72</ele>
   </trkpt>
   <trkpt lat="-23.49423" lon="-46.611650000000004">
    <ele>739.82</ele>
   </trkpt>
   <trkpt lat="-23.493490000086616" lon="-46.61147999904433">
    <ele>740.6400000000001</ele>
   </trkpt>
   <trkpt lat="-23.49275" lon="-46.61131">
    <ele>741.6</ele>
   </trkpt>
   <trkpt lat="-23.492600000000003" lon="-46.611250000000005">
    <ele>741.72</ele>
   </trkpt>
   <trkpt lat="-23.4921" lon="-46.611070000000005">
    <ele>742.46</ele>
   </trkpt>
   <trkpt lat="-23.49163" lon="-46.61086">
    <ele>742.82</ele>
   </trkpt>
   <trkpt lat="-23.490803334209115" lon="-46.61047999521335">
    <ele>743.32</ele>
   </trkpt>
   <trkpt lat="-23.489976667496894" lon="-46.610099995192506">
    <ele>743.84</ele>
   </trkpt>
   <trkpt lat="-23.489150000000002" lon="-46.60972">
    <ele>744.46</ele>
   </trkpt>
   <trkpt lat="-23.488970000000002" lon="-46.60972">
    <ele>745.2200000000001</ele>
   </trkpt>
   <trkpt lat="-23.48863" lon="-46.609590000000004">
    <ele>745.75</ele>
   </trkpt>
   <trkpt lat="-23.488200000000003" lon="-46.609390000000005">
    <ele>749.89</ele>
   </trkpt>
   <trkpt lat="-23.48863" lon="-46.609590000000004">
    <ele>745.75</ele>
   </trkpt>
   <trkpt lat="-23.488970000000002" lon="-46.60972">
    <ele>745.2200000000001</ele>
   </trkpt>
   <trkpt lat="-23.489150000000002" lon="-46.60972">
    <ele>744.46</ele>
   </trkpt>
   <trkpt lat="-23.489976667633506" lon="-46.610099995255304">
    <ele>743.84</ele>
   </trkpt>
   <trkpt lat="-23.490803334345728" lon="-46.61047999527615">
    <ele>743.32</ele>
   </trkpt>
   <trkpt lat="-23.49163" lon="-46.61086">
    <ele>742.82</ele>
   </trkpt>
   <trkpt lat="-23.4921" lon="-46.611070000000005">
    <ele>742.46</ele>
   </trkpt>
   <trkpt lat="-23.492600000000003" lon="-46.611250000000005">
    <ele>741.72</ele>
   </trkpt>
   <trkpt lat="-23.49275" lon="-46.61131">
    <ele>741.6</ele>
   </trkpt>
   <trkpt lat="-23.49349000009779" lon="-46.6114799990469">
    <ele>740.6400000000001</ele>
   </trkpt>
   <trkpt lat="-23.49423" lon="-46.611650000000004">
    <ele>739.82</ele>
   </trkpt>
   <trkpt lat="-23.495070000238357" lon="-46.61174499941825">
    <ele>738.72</ele>
   </trkpt>
   <trkpt lat="-23.495910000000002" lon="-46.61184">
    <ele>738.21</ele>
   </trkpt>
   <trkpt lat="-23.49624" lon="-46.61189">
    <ele>737.77</ele>
   </trkpt>
   <trkpt lat="-23.496530000000003" lon="-46.61197000000001">
    <ele>737.6</ele>
   </trkpt>
   <trkpt lat="-23.497210000000003" lon="-46.612230000000004">
    <ele>737.11</ele>
   </trkpt>
   <trkpt lat="-23.497130000000002" lon="-46.61229">
    <ele>737.11</ele>
   </trkpt>
   <trkpt lat="-23.49697" lon="-46.61233000000001">
    <ele>737.8100000000001</ele>
   </trkpt>
   <trkpt lat="-23.496380000000002" lon="-46.612120000000004">
    <ele>738.16</ele>
   </trkpt>
   <trkpt lat="-23.49583" lon="-46.61202">
    <ele>738.7800000000001</ele>
   </trkpt>
   <trkpt lat="-23.49500000011844" lon="-46.6119199993807">
    <ele>740.5100000000001</ele>
   </trkpt>
   <trkpt lat="-23.49417" lon="-46.61182">
    <ele>741.89</ele>
   </trkpt>
   <trkpt lat="-23.49361" lon="-46.61171">
    <ele>742.58</ele>
   </trkpt>
   <trkpt lat="-23.493130000144728" lon="-46.61158499956953">
    <ele>743.1500000000001</ele>
   </trkpt>
   <trkpt lat="-23.49265" lon="-46.61146">
    <ele>743.33</ele>
   </trkpt>
   <trkpt lat="-23.4919" lon="-46.611180000000004">
    <ele>743.7600000000001</ele>
   </trkpt>
   <trkpt lat="-23.49114200151723" lon="-46.61083399203755">
    <ele>744.01</ele>
   </trkpt>
   <trkpt lat="-23.4903840022706" lon="-46.61048798805412">
    <ele>744.45</ele>
   </trkpt>
   <trkpt lat="-23.489626002260135" lon="-46.61014198804955">
    <ele>745.4300000000001</ele>
   </trkpt>
   <trkpt lat="-23.488868001485876" lon="-46.60979599202364">
    <ele>746.51</ele>
   </trkpt>
   <trkpt lat="-23.488110000000002" lon="-46.60945">
    <ele>747.46</ele>
   </trkpt>
  </trkseg>
 </trk>
</gpx>
