<?xml version="1.0" encoding="UTF-8"?>
<gpx creator="StravaGPX" version="1.1" xmlns="http://www.topografix.com/GPX/1/1" xmlns:xsi="http://www.w3.org/2001/XMLSchema-instance" xsi:schemaLocation="http://www.topografix.com/GPX/1/1 http://www.topografix.com/GPX/1/1/gpx.xsd">
 <metadata>
  <name>12 Km Bras Leme x Rude x Rio Branco</name>
  <author>
   <name>Felipe Desiderio</name>
  </author>
  <copyright author="OpenStreetMap contributors">
   <year>2020</year>
   <license>https://www.openstreetmap.org/copyright</license>
  </copyright>
 </metadata>
 <trk>
  <name>12 Km Bras Leme x Rude x Rio Branco</name>
  <link href=""/>
  <type>running</type>
  <trkseg>
   <trkpt lat="-23.49867" lon="-46.63758000000001">
    <ele>762.35</ele>
   </trkpt>
   <trkpt lat="-23.49951" lon="-46.63754">
    <ele>756.8000000000001</ele>
   </trkpt>
   <trkpt lat="-23.49952" lon="-46.63754">
    <ele>756.8000000000001</ele>
   </trkpt>
   <trkpt lat="-23.4997" lon="-46.63759">
    <ele>756.0000000000001</ele>
   </trkpt>
   <trkpt lat="-23.499940000000002" lon="-46.63772">
    <ele>754.74</ele>
   </trkpt>
   <trkpt lat="-23.50027" lon="-46.63797">
    <ele>752.24</ele>
   </trkpt>
   <trkpt lat="-23.50033" lon="-46.63801">
    <ele>751.8</ele>
   </trkpt>
   <trkpt lat="-23.50046" lon="-46.63797">
    <ele>750.36</ele>
   </trkpt>
   <trkpt lat="-23.500510000000002" lon="-46.637930000000004">
    <ele>749.23</ele>
   </trkpt>
   <trkpt lat="-23.50102000009558" lon="-46.63777500059418">
    <ele>741.89</ele>
   </trkpt>
   <trkpt lat="-23.501530000000002" lon="-46.637620000000005">
    <ele>737.4300000000001</ele>
   </trkpt>
   <trkpt lat="-23.501520000000003" lon="-46.637620000000005">
    <ele>737.4300000000001</ele>
   </trkpt>
   <trkpt lat="-23.501720000000002" lon="-46.63756">
    <ele>736.24</ele>
   </trkpt>
   <trkpt lat="-23.501820000000002" lon="-46.6375">
    <ele>735.6100000000001</ele>
   </trkpt>
   <trkpt lat="-23.502245000673053" lon="-46.63710000113738">
    <ele>733.94</ele>
   </trkpt>
   <trkpt lat="-23.502670000000002" lon="-46.636700000000005">
    <ele>733.58</ele>
   </trkpt>
   <trkpt lat="-23.503330000000002" lon="-46.636100000000006">
    <ele>732.9000000000001</ele>
   </trkpt>
   <trkpt lat="-23.503410000000002" lon="-46.63608000000001">
    <ele>732.71</ele>
   </trkpt>
   <trkpt lat="-23.503350002527032" lon="-46.63697000041939">
    <ele>732.28</ele>
   </trkpt>
   <trkpt lat="-23.503290000000003" lon="-46.63786">
    <ele>732.1</ele>
   </trkpt>
   <trkpt lat="-23.503290000000003" lon="-46.638180000000006">
    <ele>731.9300000000001</ele>
   </trkpt>
   <trkpt lat="-23.503380000839048" lon="-46.63868499979609">
    <ele>732.0000000000001</ele>
   </trkpt>
   <trkpt lat="-23.503470000000004" lon="-46.639190000000006">
    <ele>732.5100000000001</ele>
   </trkpt>
   <trkpt lat="-23.503510000000002" lon="-46.63929">
    <ele>732.5100000000001</ele>
   </trkpt>
   <trkpt lat="-23.50389000304784" lon="-46.63998332929616">
    <ele>733.82</ele>
   </trkpt>
   <trkpt lat="-23.504270003027276" lon="-46.6406766625919">
    <ele>735.6700000000001</ele>
   </trkpt>
   <trkpt lat="-23.50465" lon="-46.64137">
    <ele>736.7900000000001</ele>
   </trkpt>
   <trkpt lat="-23.504920000000002" lon="-46.64181000000001">
    <ele>738.99</ele>
   </trkpt>
   <trkpt lat="-23.50495" lon="-46.64186">
    <ele>738.99</ele>
   </trkpt>
   <trkpt lat="-23.505480000000002" lon="-46.64229">
    <ele>740.1200000000001</ele>
   </trkpt>
   <trkpt lat="-23.5056" lon="-46.642450000000004">
    <ele>738.95</ele>
   </trkpt>
   <trkpt lat="-23.506040000000002" lon="-46.64312">
    <ele>735.96</ele>
   </trkpt>
   <trkpt lat="-23.506120000000003" lon="-46.643280000000004">
    <ele>735.04</ele>
   </trkpt>
   <trkpt lat="-23.506240000000002" lon="-46.64359">
    <ele>734.1700000000001</ele>
   </trkpt>
   <trkpt lat="-23.50634500075293" lon="-46.64407999954682">
    <ele>733.8800000000001</ele>
   </trkpt>
   <trkpt lat="-23.50645" lon="-46.64457">
    <ele>733.84</ele>
   </trkpt>
   <trkpt lat="-23.506600002043488" lon="-46.64536499923347">
    <ele>733.6700000000001</ele>
   </trkpt>
   <trkpt lat="-23.50675" lon="-46.64616">
    <ele>733.3700000000001</ele>
   </trkpt>
   <trkpt lat="-23.506875001214112" lon="-46.64677999934803">
    <ele>732.9300000000001</ele>
   </trkpt>
   <trkpt lat="-23.507" lon="-46.647400000000005">
    <ele>732.7900000000001</ele>
   </trkpt>
   <trkpt lat="-23.507" lon="-46.64741">
    <ele>732.7900000000001</ele>
   </trkpt>
   <trkpt lat="-23.507152505671606" lon="-46.648179997296396">
    <ele>732.3000000000001</ele>
   </trkpt>
   <trkpt lat="-23.507305007558298" lon="-46.6489499963757">
    <ele>731.95</ele>
   </trkpt>
   <trkpt lat="-23.507457505660046" lon="-46.64971999723788">
    <ele>731.99</ele>
   </trkpt>
   <trkpt lat="-23.507610000000003" lon="-46.650490000000005">
    <ele>731.96</ele>
   </trkpt>
   <trkpt lat="-23.50765" lon="-46.650650000000006">
    <ele>731.92</ele>
   </trkpt>
   <trkpt lat="-23.507720000000003" lon="-46.650890000000004">
    <ele>731.9000000000001</ele>
   </trkpt>
   <trkpt lat="-23.50787" lon="-46.65131">
    <ele>731.6800000000001</ele>
   </trkpt>
   <trkpt lat="-23.50815" lon="-46.651810000000005">
    <ele>731.4900000000001</ele>
   </trkpt>
   <trkpt lat="-23.50853" lon="-46.65227">
    <ele>730.95</ele>
   </trkpt>
   <trkpt lat="-23.50871" lon="-46.652440000000006">
    <ele>730.95</ele>
   </trkpt>
   <trkpt lat="-23.5088" lon="-46.65252">
    <ele>730.95</ele>
   </trkpt>
   <trkpt lat="-23.50934" lon="-46.65288">
    <ele>730.7</ele>
   </trkpt>
   <trkpt lat="-23.50946" lon="-46.652930000000005">
    <ele>730.6100000000001</ele>
   </trkpt>
   <trkpt lat="-23.50975" lon="-46.653040000000004">
    <ele>730.5400000000001</ele>
   </trkpt>
   <trkpt lat="-23.510430000000003" lon="-46.653220000000005">
    <ele>729.7800000000001</ele>
   </trkpt>
   <trkpt lat="-23.511189999901994" lon="-46.65333999928479">
    <ele>729.2900000000001</ele>
   </trkpt>
   <trkpt lat="-23.511950000000002" lon="-46.65346">
    <ele>728.83</ele>
   </trkpt>
   <trkpt lat="-23.512719999825187" lon="-46.653574999295174">
    <ele>728.2900000000001</ele>
   </trkpt>
   <trkpt lat="-23.51349" lon="-46.653690000000005">
    <ele>727.7800000000001</ele>
   </trkpt>
   <trkpt lat="-23.51404" lon="-46.653760000000005">
    <ele>728.2</ele>
   </trkpt>
   <trkpt lat="-23.51471" lon="-46.653800000000004">
    <ele>729.1800000000001</ele>
   </trkpt>
   <trkpt lat="-23.515160000035266" lon="-46.653844999849106">
    <ele>731.0000000000001</ele>
   </trkpt>
   <trkpt lat="-23.515610000000002" lon="-46.653890000000004">
    <ele>731.6700000000001</ele>
   </trkpt>
   <trkpt lat="-23.5162633334429" lon="-46.65398666571474">
    <ele>733.22</ele>
   </trkpt>
   <trkpt lat="-23.516916666826138" lon="-46.65408333238877">
    <ele>734.32</ele>
   </trkpt>
   <trkpt lat="-23.517570000000003" lon="-46.654180000000004">
    <ele>733.7</ele>
   </trkpt>
   <trkpt lat="-23.517860000000002" lon="-46.65422">
    <ele>732.9100000000001</ele>
   </trkpt>
   <trkpt lat="-23.518050000000002" lon="-46.65415">
    <ele>732.69</ele>
   </trkpt>
   <trkpt lat="-23.518250000000002" lon="-46.653980000000004">
    <ele>731.72</ele>
   </trkpt>
   <trkpt lat="-23.518490000000003" lon="-46.65361">
    <ele>729.9300000000001</ele>
   </trkpt>
   <trkpt lat="-23.51864" lon="-46.65335">
    <ele>728.86</ele>
   </trkpt>
   <trkpt lat="-23.518810000000002" lon="-46.65319">
    <ele>728.2900000000001</ele>
   </trkpt>
   <trkpt lat="-23.518890000000003" lon="-46.653130000000004">
    <ele>728.1500000000001</ele>
   </trkpt>
   <trkpt lat="-23.519090000000002" lon="-46.653020000000005">
    <ele>728.26</ele>
   </trkpt>
   <trkpt lat="-23.51901" lon="-46.652860000000004">
    <ele>728.57</ele>
   </trkpt>
   <trkpt lat="-23.519540000000003" lon="-46.65254">
    <ele>728.0500000000001</ele>
   </trkpt>
   <trkpt lat="-23.51959" lon="-46.65251000000001">
    <ele>728.04</ele>
   </trkpt>
   <trkpt lat="-23.520020000000002" lon="-46.652260000000005">
    <ele>727.99</ele>
   </trkpt>
   <trkpt lat="-23.520100000000003" lon="-46.652440000000006">
    <ele>728.1</ele>
   </trkpt>
   <trkpt lat="-23.520665000349688" lon="-46.652110001415224">
    <ele>728.1</ele>
   </trkpt>
   <trkpt lat="-23.521230000000003" lon="-46.65178">
    <ele>728.08</ele>
   </trkpt>
   <trkpt lat="-23.521975001807725" lon="-46.651345007389004">
    <ele>728.1700000000001</ele>
   </trkpt>
   <trkpt lat="-23.522720002406924" lon="-46.65091000985415">
    <ele>728.5400000000001</ele>
   </trkpt>
   <trkpt lat="-23.523465001797533" lon="-46.65047500739521">
    <ele>730.5400000000001</ele>
   </trkpt>
   <trkpt lat="-23.524210000000004" lon="-46.650040000000004">
    <ele>730.99</ele>
   </trkpt>
   <trkpt lat="-23.52493500059354" lon="-46.649620002296096">
    <ele>731.2900000000001</ele>
   </trkpt>
   <trkpt lat="-23.525660000000002" lon="-46.6492">
    <ele>732.01</ele>
   </trkpt>
   <trkpt lat="-23.526075000249108" lon="-46.64897000068085">
    <ele>734.5400000000001</ele>
   </trkpt>
   <trkpt lat="-23.526490000000003" lon="-46.648740000000004">
    <ele>736.6800000000001</ele>
   </trkpt>
   <trkpt lat="-23.52702" lon="-46.64844">
    <ele>739.9300000000001</ele>
   </trkpt>
   <trkpt lat="-23.52728" lon="-46.648360000000004">
    <ele>741.24</ele>
   </trkpt>
   <trkpt lat="-23.527990000000003" lon="-46.648300000000006">
    <ele>745.4300000000001</ele>
   </trkpt>
   <trkpt lat="-23.527970000000003" lon="-46.648160000000004">
    <ele>744.9100000000001</ele>
   </trkpt>
   <trkpt lat="-23.52852" lon="-46.64811">
    <ele>746.4300000000001</ele>
   </trkpt>
   <trkpt lat="-23.52869" lon="-46.64806">
    <ele>746.5600000000001</ele>
   </trkpt>
   <trkpt lat="-23.52896" lon="-46.64791">
    <ele>746.1700000000001</ele>
   </trkpt>
   <trkpt lat="-23.529290000000003" lon="-46.64766">
    <ele>744.62</ele>
   </trkpt>
   <trkpt lat="-23.52936" lon="-46.647780000000004">
    <ele>745.0600000000001</ele>
   </trkpt>
   <trkpt lat="-23.530070001017748" lon="-46.64724000284813">
    <ele>745.8</ele>
   </trkpt>
   <trkpt lat="-23.530780000000004" lon="-46.6467">
    <ele>748.82</ele>
   </trkpt>
   <trkpt lat="-23.531400000722368" lon="-46.64624000213316">
    <ele>750.19</ele>
   </trkpt>
   <trkpt lat="-23.532020000000003" lon="-46.64578">
    <ele>750.89</ele>
   </trkpt>
   <trkpt lat="-23.532190000000003" lon="-46.64565">
    <ele>750.99</ele>
   </trkpt>
   <trkpt lat="-23.532220000000002" lon="-46.64562">
    <ele>750.9800000000001</ele>
   </trkpt>
   <trkpt lat="-23.532110000000003" lon="-46.64544">
    <ele>750.5</ele>
   </trkpt>
   <trkpt lat="-23.53209" lon="-46.64556">
    <ele>750.48</ele>
   </trkpt>
   <trkpt lat="-23.531380000968383" lon="-46.64608500276799">
    <ele>749.9100000000001</ele>
   </trkpt>
   <trkpt lat="-23.53067" lon="-46.64661">
    <ele>748.69</ele>
   </trkpt>
   <trkpt lat="-23.52995000089249" lon="-46.647160003065856">
    <ele>745.57</ele>
   </trkpt>
   <trkpt lat="-23.529230000000002" lon="-46.647710000000004">
    <ele>744.86</ele>
   </trkpt>
   <trkpt lat="-23.52924" lon="-46.647710000000004">
    <ele>744.86</ele>
   </trkpt>
   <trkpt lat="-23.52896" lon="-46.64791">
    <ele>746.1700000000001</ele>
   </trkpt>
   <trkpt lat="-23.52869" lon="-46.64806">
    <ele>746.5600000000001</ele>
   </trkpt>
   <trkpt lat="-23.52852" lon="-46.64811">
    <ele>746.4300000000001</ele>
   </trkpt>
   <trkpt lat="-23.52765" lon="-46.64818">
    <ele>743.24</ele>
   </trkpt>
   <trkpt lat="-23.52739" lon="-46.64822">
    <ele>741.99</ele>
   </trkpt>
   <trkpt lat="-23.527240000000003" lon="-46.64824">
    <ele>741.19</ele>
   </trkpt>
   <trkpt lat="-23.526950000000003" lon="-46.64833">
    <ele>740.2</ele>
   </trkpt>
   <trkpt lat="-23.526315000351676" lon="-46.6486700016499">
    <ele>735.5100000000001</ele>
   </trkpt>
   <trkpt lat="-23.52568" lon="-46.649010000000004">
    <ele>731.3000000000001</ele>
   </trkpt>
   <trkpt lat="-23.525035000303614" lon="-46.649365001794166">
    <ele>729.83</ele>
   </trkpt>
   <trkpt lat="-23.52439" lon="-46.64972">
    <ele>729.72</ele>
   </trkpt>
   <trkpt lat="-23.523714001932632" lon="-46.650110008017755">
    <ele>729.25</ele>
   </trkpt>
   <trkpt lat="-23.523038002893742" lon="-46.65050001202945">
    <ele>728.19</ele>
   </trkpt>
   <trkpt lat="-23.522362002883376" lon="-46.65089001203525">
    <ele>727.9000000000001</ele>
   </trkpt>
   <trkpt lat="-23.52168600190157" lon="-46.6512800080353">
    <ele>727.7900000000001</ele>
   </trkpt>
   <trkpt lat="-23.52101" lon="-46.65167">
    <ele>727.8800000000001</ele>
   </trkpt>
   <trkpt lat="-23.520515000328718" lon="-46.65196500107898">
    <ele>727.83</ele>
   </trkpt>
   <trkpt lat="-23.520020000000002" lon="-46.652260000000005">
    <ele>727.99</ele>
   </trkpt>
   <trkpt lat="-23.520110000000003" lon="-46.652440000000006">
    <ele>728.1</ele>
   </trkpt>
   <trkpt lat="-23.519500000295704" lon="-46.65278500164629">
    <ele>728.45</ele>
   </trkpt>
   <trkpt lat="-23.518890000000003" lon="-46.653130000000004">
    <ele>728.1500000000001</ele>
   </trkpt>
   <trkpt lat="-23.518710000000002" lon="-46.653290000000005">
    <ele>728.59</ele>
   </trkpt>
   <trkpt lat="-23.518610000000002" lon="-46.65317">
    <ele>728.53</ele>
   </trkpt>
   <trkpt lat="-23.51829" lon="-46.65366">
    <ele>729.28</ele>
   </trkpt>
   <trkpt lat="-23.518150000000002" lon="-46.653890000000004">
    <ele>729.89</ele>
   </trkpt>
   <trkpt lat="-23.51801" lon="-46.65402">
    <ele>730.2900000000001</ele>
   </trkpt>
   <trkpt lat="-23.517780000000002" lon="-46.65411">
    <ele>731.48</ele>
   </trkpt>
   <trkpt lat="-23.517580000000002" lon="-46.65408">
    <ele>732.14</ele>
   </trkpt>
   <trkpt lat="-23.517570000000003" lon="-46.654180000000004">
    <ele>733.7</ele>
   </trkpt>
   <trkpt lat="-23.516893333472378" lon="-46.654079998983256">
    <ele>734.32</ele>
   </trkpt>
   <trkpt lat="-23.516216666880887" lon="-46.65397999899439">
    <ele>733.22</ele>
   </trkpt>
   <trkpt lat="-23.51554" lon="-46.65388">
    <ele>731.5600000000001</ele>
   </trkpt>
   <trkpt lat="-23.51556" lon="-46.65379">
    <ele>732.0000000000001</ele>
   </trkpt>
   <trkpt lat="-23.514909999882114" lon="-46.65364499924297">
    <ele>730.2700000000001</ele>
   </trkpt>
   <trkpt lat="-23.51426" lon="-46.6535">
    <ele>727.6800000000001</ele>
   </trkpt>
   <trkpt lat="-23.51376" lon="-46.653420000000004">
    <ele>727.22</ele>
   </trkpt>
   <trkpt lat="-23.513240000000003" lon="-46.65337">
    <ele>727.2400000000001</ele>
   </trkpt>
   <trkpt lat="-23.513250000000003" lon="-46.65337">
    <ele>727.2400000000001</ele>
   </trkpt>
   <trkpt lat="-23.51237" lon="-46.653220000000005">
    <ele>727.5200000000001</ele>
   </trkpt>
   <trkpt lat="-23.511635000143396" lon="-46.65310499937402">
    <ele>728.11</ele>
   </trkpt>
   <trkpt lat="-23.510900000000003" lon="-46.65299">
    <ele>728.6600000000001</ele>
   </trkpt>
   <trkpt lat="-23.5102" lon="-46.6529">
    <ele>729.01</ele>
   </trkpt>
   <trkpt lat="-23.509890000000002" lon="-46.65283">
    <ele>729.4</ele>
   </trkpt>
   <trkpt lat="-23.50946" lon="-46.652620000000006">
    <ele>729.86</ele>
   </trkpt>
   <trkpt lat="-23.509240000000002" lon="-46.652480000000004">
    <ele>730.04</ele>
   </trkpt>
   <trkpt lat="-23.508840000000003" lon="-46.65218">
    <ele>730.2700000000001</ele>
   </trkpt>
   <trkpt lat="-23.508560000000003" lon="-46.65189">
    <ele>730.4</ele>
   </trkpt>
   <trkpt lat="-23.508480000000002" lon="-46.651790000000005">
    <ele>730.4600000000002</ele>
   </trkpt>
   <trkpt lat="-23.508290000000002" lon="-46.65149">
    <ele>730.74</ele>
   </trkpt>
   <trkpt lat="-23.508110000000002" lon="-46.651160000000004">
    <ele>730.8</ele>
   </trkpt>
   <trkpt lat="-23.508110000000002" lon="-46.65115">
    <ele>730.8</ele>
   </trkpt>
   <trkpt lat="-23.508020000000002" lon="-46.650980000000004">
    <ele>730.8800000000001</ele>
   </trkpt>
   <trkpt lat="-23.50793" lon="-46.6507">
    <ele>730.8800000000001</ele>
   </trkpt>
   <trkpt lat="-23.50777000404343" lon="-46.649903331356754">
    <ele>731.34</ele>
   </trkpt>
   <trkpt lat="-23.507610004035143" lon="-46.64910666464887">
    <ele>731.08</ele>
   </trkpt>
   <trkpt lat="-23.507450000000002" lon="-46.64831">
    <ele>730.7</ele>
   </trkpt>
   <trkpt lat="-23.50729000605777" lon="-46.64751499713152">
    <ele>730.62</ele>
   </trkpt>
   <trkpt lat="-23.50713000808081" lon="-46.646719996194285">
    <ele>730.65</ele>
   </trkpt>
   <trkpt lat="-23.506970006069167" lon="-46.645924997188324">
    <ele>731.11</ele>
   </trkpt>
   <trkpt lat="-23.50681" lon="-46.64513">
    <ele>731.86</ele>
   </trkpt>
   <trkpt lat="-23.50674" lon="-46.645070000000004">
    <ele>732.32</ele>
   </trkpt>
   <trkpt lat="-23.50663" lon="-46.645100000000006">
    <ele>733.1899999999999</ele>
   </trkpt>
   <trkpt lat="-23.506450002400253" lon="-46.644229998735696">
    <ele>733.44</ele>
   </trkpt>
   <trkpt lat="-23.50627" lon="-46.64336">
    <ele>733.86</ele>
   </trkpt>
   <trkpt lat="-23.506140000000002" lon="-46.643100000000004">
    <ele>734.28</ele>
   </trkpt>
   <trkpt lat="-23.506290000000003" lon="-46.643010000000004">
    <ele>733.0500000000001</ele>
   </trkpt>
   <trkpt lat="-23.506140000000002" lon="-46.64276">
    <ele>733.4300000000001</ele>
   </trkpt>
   <trkpt lat="-23.5057" lon="-46.6422">
    <ele>734.1700000000001</ele>
   </trkpt>
   <trkpt lat="-23.505090000000003" lon="-46.64153">
    <ele>735.6600000000001</ele>
   </trkpt>
   <trkpt lat="-23.504820000000002" lon="-46.6411">
    <ele>735.24</ele>
   </trkpt>
   <trkpt lat="-23.504365002085223" lon="-46.64028499712308">
    <ele>733.83</ele>
   </trkpt>
   <trkpt lat="-23.50391" lon="-46.63947">
    <ele>732.16</ele>
   </trkpt>
   <trkpt lat="-23.50392" lon="-46.639480000000006">
    <ele>732.16</ele>
   </trkpt>
   <trkpt lat="-23.503770000000003" lon="-46.639190000000006">
    <ele>731.92</ele>
   </trkpt>
   <trkpt lat="-23.50365" lon="-46.63889">
    <ele>731.6800000000001</ele>
   </trkpt>
   <trkpt lat="-23.503590000000003" lon="-46.6385">
    <ele>731.38</ele>
   </trkpt>
   <trkpt lat="-23.50354" lon="-46.638110000000005">
    <ele>731.3000000000001</ele>
   </trkpt>
   <trkpt lat="-23.50354" lon="-46.63792">
    <ele>731.23</ele>
   </trkpt>
   <trkpt lat="-23.50359000196257" lon="-46.63713500036256">
    <ele>730.7800000000001</ele>
   </trkpt>
   <trkpt lat="-23.50364" lon="-46.63635000000001">
    <ele>731.1500000000001</ele>
   </trkpt>
   <trkpt lat="-23.503680000000003" lon="-46.63589">
    <ele>731.35</ele>
   </trkpt>
   <trkpt lat="-23.50362" lon="-46.63589">
    <ele>731.9300000000001</ele>
   </trkpt>
   <trkpt lat="-23.50362" lon="-46.63577">
    <ele>732.1</ele>
   </trkpt>
   <trkpt lat="-23.503600000000002" lon="-46.63575">
    <ele>732.1</ele>
   </trkpt>
   <trkpt lat="-23.50362" lon="-46.63537">
    <ele>732.38</ele>
   </trkpt>
   <trkpt lat="-23.503670001535223" lon="-46.63467500035214">
    <ele>733.0000000000001</ele>
   </trkpt>
   <trkpt lat="-23.50372" lon="-46.63398">
    <ele>733.45</ele>
   </trkpt>
   <trkpt lat="-23.503762506165607" lon="-46.6331775007858">
    <ele>732.5100000000001</ele>
   </trkpt>
   <trkpt lat="-23.50380500822049" lon="-46.6323750010538">
    <ele>731.99</ele>
   </trkpt>
   <trkpt lat="-23.50384750616465" lon="-46.63157250080405">
    <ele>731.4900000000001</ele>
   </trkpt>
   <trkpt lat="-23.503890000000002" lon="-46.630770000000005">
    <ele>731.1</ele>
   </trkpt>
   <trkpt lat="-23.50396000273133" lon="-46.62984500048407">
    <ele>730.92</ele>
   </trkpt>
   <trkpt lat="-23.50403" lon="-46.62892">
    <ele>730.92</ele>
   </trkpt>
   <trkpt lat="-23.503960000000003" lon="-46.6289">
    <ele>730.5600000000001</ele>
   </trkpt>
   <trkpt lat="-23.504010001609878" lon="-46.628190000255046">
    <ele>730.7</ele>
   </trkpt>
   <trkpt lat="-23.504060000000003" lon="-46.627480000000006">
    <ele>731.5</ele>
   </trkpt>
   <trkpt lat="-23.504070000000002" lon="-46.62693">
    <ele>731.97</ele>
   </trkpt>
   <trkpt lat="-23.50401" lon="-46.626490000000004">
    <ele>732.82</ele>
   </trkpt>
   <trkpt lat="-23.504170000000002" lon="-46.62648">
    <ele>732.1500000000001</ele>
   </trkpt>
   <trkpt lat="-23.504150000000003" lon="-46.62592">
    <ele>731.86</ele>
   </trkpt>
   <trkpt lat="-23.504170000000002" lon="-46.626380000000005">
    <ele>732.22</ele>
   </trkpt>
   <trkpt lat="-23.50401" lon="-46.626490000000004">
    <ele>732.82</ele>
   </trkpt>
   <trkpt lat="-23.504070000000002" lon="-46.62693">
    <ele>731.97</ele>
   </trkpt>
   <trkpt lat="-23.504050000778584" lon="-46.62742500016003">
    <ele>731.5</ele>
   </trkpt>
   <trkpt lat="-23.50403" lon="-46.62792">
    <ele>730.84</ele>
   </trkpt>
   <trkpt lat="-23.50398000161821" lon="-46.628635000462786">
    <ele>730.59</ele>
   </trkpt>
   <trkpt lat="-23.50393" lon="-46.62935">
    <ele>730.45</ele>
   </trkpt>
   <trkpt lat="-23.503895001388347" lon="-46.63001000021101">
    <ele>730.57</ele>
   </trkpt>
   <trkpt lat="-23.503860000000003" lon="-46.63067">
    <ele>730.99</ele>
   </trkpt>
   <trkpt lat="-23.503803336767167" lon="-46.6314033339491">
    <ele>731.1500000000001</ele>
   </trkpt>
   <trkpt lat="-23.503746670101663" lon="-46.6321366672674">
    <ele>731.5400000000001</ele>
   </trkpt>
   <trkpt lat="-23.503690000000002" lon="-46.632870000000004">
    <ele>732.08</ele>
   </trkpt>
   <trkpt lat="-23.503622505602127" lon="-46.63363500118851">
    <ele>732.8800000000001</ele>
   </trkpt>
   <trkpt lat="-23.503555007468744" lon="-46.63440000159318">
    <ele>733.08</ele>
   </trkpt>
   <trkpt lat="-23.503487505599868" lon="-46.63516500121397">
    <ele>732.9100000000001</ele>
   </trkpt>
   <trkpt lat="-23.503420000000002" lon="-46.63593">
    <ele>732.7600000000001</ele>
   </trkpt>
  </trkseg>
 </trk>
</gpx>
