<?xml version="1.0" encoding="UTF-8"?>
<gpx creator="StravaGPX" version="1.1" xmlns="http://www.topografix.com/GPX/1/1" xmlns:xsi="http://www.w3.org/2001/XMLSchema-instance" xsi:schemaLocation="http://www.topografix.com/GPX/1/1 http://www.topografix.com/GPX/1/1/gpx.xsd">
 <metadata>
  <name>CaiBotas OFICIAL</name>
  <author>
   <name>Felipe Desiderio</name>
  </author>
  <copyright author="OpenStreetMap contributors">
   <year>2020</year>
   <license>https://www.openstreetmap.org/copyright</license>
  </copyright>
 </metadata>
 <trk>
  <name>CaiBotas OFICIAL</name>
  <link href=""/>
  <type>running</type>
  <trkseg>
   <trkpt lat="-19.86457" lon="-43.456920000000004">
    <ele>758.07</ele>
   </trkpt>
   <trkpt lat="-19.864910000000002" lon="-43.45707">
    <ele>761.14</ele>
   </trkpt>
   <trkpt lat="-19.86523" lon="-43.45732">
    <ele>762.6800000000001</ele>
   </trkpt>
   <trkpt lat="-19.86557" lon="-43.457390000000004">
    <ele>765.2</ele>
   </trkpt>
   <trkpt lat="-19.86634" lon="-43.45743">
    <ele>768.8000000000001</ele>
   </trkpt>
   <trkpt lat="-19.866780000000002" lon="-43.45734">
    <ele>767.4200000000001</ele>
   </trkpt>
   <trkpt lat="-19.86739" lon="-43.45729">
    <ele>768.48</ele>
   </trkpt>
   <trkpt lat="-19.868000000000002" lon="-43.45718">
    <ele>771.6</ele>
   </trkpt>
   <trkpt lat="-19.86831" lon="-43.45709">
    <ele>775.39</ele>
   </trkpt>
   <trkpt lat="-19.8685" lon="-43.45709">
    <ele>778.6400000000001</ele>
   </trkpt>
   <trkpt lat="-19.868650000000002" lon="-43.45711">
    <ele>779.66</ele>
   </trkpt>
   <trkpt lat="-19.86925" lon="-43.45743">
    <ele>786.75</ele>
   </trkpt>
   <trkpt lat="-19.869800000297847" lon="-43.45773499896316">
    <ele>790.4100000000001</ele>
   </trkpt>
   <trkpt lat="-19.870350000000002" lon="-43.458040000000004">
    <ele>795.3500000000001</ele>
   </trkpt>
   <trkpt lat="-19.870430000000002" lon="-43.4581">
    <ele>798.1100000000001</ele>
   </trkpt>
   <trkpt lat="-19.87055" lon="-43.45824">
    <ele>800.5600000000001</ele>
   </trkpt>
   <trkpt lat="-19.870720000000002" lon="-43.45864">
    <ele>804.2800000000001</ele>
   </trkpt>
   <trkpt lat="-19.870820000000002" lon="-43.45879">
    <ele>809.37</ele>
   </trkpt>
   <trkpt lat="-19.87103" lon="-43.45904">
    <ele>810.7900000000001</ele>
   </trkpt>
   <trkpt lat="-19.87123" lon="-43.45908">
    <ele>813.0</ele>
   </trkpt>
   <trkpt lat="-19.87169" lon="-43.459070000000004">
    <ele>818.6600000000001</ele>
   </trkpt>
   <trkpt lat="-19.871930000000003" lon="-43.45909">
    <ele>822.71</ele>
   </trkpt>
   <trkpt lat="-19.87218" lon="-43.45924">
    <ele>828.0</ele>
   </trkpt>
   <trkpt lat="-19.87237" lon="-43.45942">
    <ele>831.08</ele>
   </trkpt>
   <trkpt lat="-19.87247" lon="-43.45956">
    <ele>832.0300000000001</ele>
   </trkpt>
   <trkpt lat="-19.87265" lon="-43.46">
    <ele>834.9900000000001</ele>
   </trkpt>
   <trkpt lat="-19.87272" lon="-43.46005">
    <ele>835.6600000000001</ele>
   </trkpt>
   <trkpt lat="-19.872870000000002" lon="-43.46009">
    <ele>837.2400000000001</ele>
   </trkpt>
   <trkpt lat="-19.8731" lon="-43.46011">
    <ele>840.1200000000001</ele>
   </trkpt>
   <trkpt lat="-19.87347" lon="-43.460210000000004">
    <ele>844.7600000000001</ele>
   </trkpt>
   <trkpt lat="-19.873600000000003" lon="-43.46031000000001">
    <ele>849.95</ele>
   </trkpt>
   <trkpt lat="-19.87366" lon="-43.46038">
    <ele>852.34</ele>
   </trkpt>
   <trkpt lat="-19.873730000000002" lon="-43.46092">
    <ele>860.5200000000001</ele>
   </trkpt>
   <trkpt lat="-19.87384" lon="-43.46119">
    <ele>865.8000000000001</ele>
   </trkpt>
   <trkpt lat="-19.87424" lon="-43.461710000000004">
    <ele>870.94</ele>
   </trkpt>
   <trkpt lat="-19.8747" lon="-43.46238">
    <ele>881.6400000000001</ele>
   </trkpt>
   <trkpt lat="-19.87497" lon="-43.4626">
    <ele>887.58</ele>
   </trkpt>
   <trkpt lat="-19.87544" lon="-43.46318">
    <ele>893.6500000000001</ele>
   </trkpt>
   <trkpt lat="-19.8758" lon="-43.463660000000004">
    <ele>899.38</ele>
   </trkpt>
   <trkpt lat="-19.87601" lon="-43.46388">
    <ele>902.9300000000001</ele>
   </trkpt>
   <trkpt lat="-19.876170000000002" lon="-43.46397">
    <ele>906.0</ele>
   </trkpt>
   <trkpt lat="-19.87629" lon="-43.46412">
    <ele>908.6700000000001</ele>
   </trkpt>
   <trkpt lat="-19.87674" lon="-43.46452">
    <ele>920.1</ele>
   </trkpt>
   <trkpt lat="-19.876910000000002" lon="-43.464780000000005">
    <ele>923.15</ele>
   </trkpt>
   <trkpt lat="-19.87702" lon="-43.465070000000004">
    <ele>924.9000000000001</ele>
   </trkpt>
   <trkpt lat="-19.877190000000002" lon="-43.46535">
    <ele>926.07</ele>
   </trkpt>
   <trkpt lat="-19.87777" lon="-43.46576">
    <ele>923.63</ele>
   </trkpt>
   <trkpt lat="-19.87807" lon="-43.46571">
    <ele>920.9900000000001</ele>
   </trkpt>
   <trkpt lat="-19.87816" lon="-43.46573">
    <ele>920.7700000000001</ele>
   </trkpt>
   <trkpt lat="-19.878310000000003" lon="-43.465830000000004">
    <ele>920.7400000000001</ele>
   </trkpt>
   <trkpt lat="-19.87843" lon="-43.46602">
    <ele>921.2600000000001</ele>
   </trkpt>
   <trkpt lat="-19.87847" lon="-43.46625">
    <ele>923.5500000000001</ele>
   </trkpt>
   <trkpt lat="-19.878690000000002" lon="-43.4665">
    <ele>928.44</ele>
   </trkpt>
   <trkpt lat="-19.87882" lon="-43.46692">
    <ele>929.7800000000001</ele>
   </trkpt>
   <trkpt lat="-19.879" lon="-43.46719">
    <ele>930.1400000000001</ele>
   </trkpt>
   <trkpt lat="-19.879070000000002" lon="-43.46752">
    <ele>932.3500000000001</ele>
   </trkpt>
   <trkpt lat="-19.87918" lon="-43.46773">
    <ele>933.8000000000001</ele>
   </trkpt>
   <trkpt lat="-19.87929" lon="-43.46808">
    <ele>934.9000000000001</ele>
   </trkpt>
   <trkpt lat="-19.87946" lon="-43.468360000000004">
    <ele>934.9100000000001</ele>
   </trkpt>
   <trkpt lat="-19.87966" lon="-43.46855">
    <ele>934.09</ele>
   </trkpt>
   <trkpt lat="-19.87978" lon="-43.46873">
    <ele>934.21</ele>
   </trkpt>
   <trkpt lat="-19.87993" lon="-43.46896">
    <ele>936.46</ele>
   </trkpt>
   <trkpt lat="-19.880280000000003" lon="-43.469680000000004">
    <ele>944.4300000000001</ele>
   </trkpt>
   <trkpt lat="-19.88042" lon="-43.470040000000004">
    <ele>948.96</ele>
   </trkpt>
   <trkpt lat="-19.88049" lon="-43.470240000000004">
    <ele>951.6000000000001</ele>
   </trkpt>
   <trkpt lat="-19.88051" lon="-43.47075">
    <ele>960.44</ele>
   </trkpt>
   <trkpt lat="-19.88049" lon="-43.470980000000004">
    <ele>965.3600000000001</ele>
   </trkpt>
   <trkpt lat="-19.880290000000002" lon="-43.471450000000004">
    <ele>970.64</ele>
   </trkpt>
   <trkpt lat="-19.88023" lon="-43.47162">
    <ele>971.3800000000001</ele>
   </trkpt>
   <trkpt lat="-19.88024" lon="-43.47189">
    <ele>973.2100000000002</ele>
   </trkpt>
   <trkpt lat="-19.88015" lon="-43.47211">
    <ele>974.35</ele>
   </trkpt>
   <trkpt lat="-19.88016" lon="-43.4722">
    <ele>975.11</ele>
   </trkpt>
   <trkpt lat="-19.88044" lon="-43.47263">
    <ele>980.38</ele>
   </trkpt>
   <trkpt lat="-19.88051" lon="-43.47292">
    <ele>981.34</ele>
   </trkpt>
   <trkpt lat="-19.88051" lon="-43.47352">
    <ele>979.6600000000001</ele>
   </trkpt>
   <trkpt lat="-19.880470000000003" lon="-43.473910000000004">
    <ele>975.46</ele>
   </trkpt>
   <trkpt lat="-19.8805" lon="-43.47404">
    <ele>974.47</ele>
   </trkpt>
   <trkpt lat="-19.88079" lon="-43.47458">
    <ele>970.23</ele>
   </trkpt>
   <trkpt lat="-19.88082" lon="-43.47473">
    <ele>969.64</ele>
   </trkpt>
   <trkpt lat="-19.88088" lon="-43.47525">
    <ele>974.0400000000001</ele>
   </trkpt>
   <trkpt lat="-19.880860000000002" lon="-43.47538">
    <ele>975.6500000000001</ele>
   </trkpt>
   <trkpt lat="-19.8807" lon="-43.47563">
    <ele>977.3000000000001</ele>
   </trkpt>
   <trkpt lat="-19.88063" lon="-43.47576">
    <ele>978.25</ele>
   </trkpt>
   <trkpt lat="-19.88062" lon="-43.476000000000006">
    <ele>979.49</ele>
   </trkpt>
   <trkpt lat="-19.88063" lon="-43.47686">
    <ele>985.4</ele>
   </trkpt>
   <trkpt lat="-19.88078" lon="-43.4776">
    <ele>989.33</ele>
   </trkpt>
   <trkpt lat="-19.881030000000003" lon="-43.47849">
    <ele>992.1400000000001</ele>
   </trkpt>
   <trkpt lat="-19.88117" lon="-43.478770000000004">
    <ele>992.77</ele>
   </trkpt>
   <trkpt lat="-19.88144" lon="-43.4791">
    <ele>992.4000000000001</ele>
   </trkpt>
   <trkpt lat="-19.88194" lon="-43.47968">
    <ele>984.8000000000001</ele>
   </trkpt>
   <trkpt lat="-19.882210000918768" lon="-43.48023999913593">
    <ele>985.6400000000001</ele>
   </trkpt>
   <trkpt lat="-19.88248" lon="-43.4808">
    <ele>991.94</ele>
   </trkpt>
   <trkpt lat="-19.88257" lon="-43.480810000000005">
    <ele>991.94</ele>
   </trkpt>
   <trkpt lat="-19.882540000670367" lon="-43.481294999867686">
    <ele>1001.0000000000001</ele>
   </trkpt>
   <trkpt lat="-19.88251" lon="-43.48178">
    <ele>1011.15</ele>
   </trkpt>
   <trkpt lat="-19.88239" lon="-43.48237">
    <ele>1023.8200000000002</ele>
   </trkpt>
   <trkpt lat="-19.882200000757393" lon="-43.48289500066236">
    <ele>1030.54</ele>
   </trkpt>
   <trkpt lat="-19.88201" lon="-43.48342">
    <ele>1036.96</ele>
   </trkpt>
   <trkpt lat="-19.88166" lon="-43.483760000000004">
    <ele>1043.83</ele>
   </trkpt>
   <trkpt lat="-19.88154" lon="-43.48364">
    <ele>1043.79</ele>
   </trkpt>
   <trkpt lat="-19.881040000000002" lon="-43.48373">
    <ele>1039.5400000000002</ele>
   </trkpt>
   <trkpt lat="-19.88079" lon="-43.48427">
    <ele>1034.6000000000001</ele>
   </trkpt>
   <trkpt lat="-19.8807" lon="-43.4846">
    <ele>1033.97</ele>
   </trkpt>
   <trkpt lat="-19.88053" lon="-43.484770000000005">
    <ele>1032.66</ele>
   </trkpt>
   <trkpt lat="-19.88032" lon="-43.48485">
    <ele>1028.0</ele>
   </trkpt>
   <trkpt lat="-19.88007" lon="-43.48472">
    <ele>1022.8000000000002</ele>
   </trkpt>
   <trkpt lat="-19.87993" lon="-43.48474">
    <ele>1019.6200000000001</ele>
   </trkpt>
   <trkpt lat="-19.87967" lon="-43.48496">
    <ele>1021.0799999999999</ele>
   </trkpt>
   <trkpt lat="-19.879635001725685" lon="-43.48574500003804">
    <ele>1019.93</ele>
   </trkpt>
   <trkpt lat="-19.8796" lon="-43.48653">
    <ele>1009.6100000000001</ele>
   </trkpt>
   <trkpt lat="-19.8794" lon="-43.48733">
    <ele>1004.6700000000002</ele>
   </trkpt>
   <trkpt lat="-19.87938" lon="-43.48767">
    <ele>1002.4399999999999</ele>
   </trkpt>
   <trkpt lat="-19.87912" lon="-43.48799">
    <ele>996.84</ele>
   </trkpt>
   <trkpt lat="-19.878595000674338" lon="-43.488470001561566">
    <ele>990.08</ele>
   </trkpt>
   <trkpt lat="-19.87807" lon="-43.48895">
    <ele>974.98</ele>
   </trkpt>
   <trkpt lat="-19.8778" lon="-43.48888">
    <ele>965.2700000000001</ele>
   </trkpt>
   <trkpt lat="-19.87779" lon="-43.488550000000004">
    <ele>955.1500000000001</ele>
   </trkpt>
   <trkpt lat="-19.878130000000002" lon="-43.48792">
    <ele>933.9100000000001</ele>
   </trkpt>
   <trkpt lat="-19.87799" lon="-43.48765">
    <ele>929.0</ele>
   </trkpt>
   <trkpt lat="-19.877670000000002" lon="-43.48751">
    <ele>916.85</ele>
   </trkpt>
   <trkpt lat="-19.87712" lon="-43.487770000000005">
    <ele>896.51</ele>
   </trkpt>
   <trkpt lat="-19.87713" lon="-43.487770000000005">
    <ele>896.51</ele>
   </trkpt>
   <trkpt lat="-19.877090000000003" lon="-43.48798">
    <ele>900.3000000000001</ele>
   </trkpt>
   <trkpt lat="-19.876910000000002" lon="-43.488400000000006">
    <ele>910.08</ele>
   </trkpt>
   <trkpt lat="-19.876730000000002" lon="-43.488130000000005">
    <ele>907.1800000000001</ele>
   </trkpt>
   <trkpt lat="-19.87655" lon="-43.488310000000006">
    <ele>915.6400000000001</ele>
   </trkpt>
   <trkpt lat="-19.87656" lon="-43.488310000000006">
    <ele>915.54</ele>
   </trkpt>
   <trkpt lat="-19.8762" lon="-43.48868">
    <ele>931.7800000000001</ele>
   </trkpt>
   <trkpt lat="-19.87608" lon="-43.488870000000006">
    <ele>934.83</ele>
   </trkpt>
   <trkpt lat="-19.87609" lon="-43.488870000000006">
    <ele>934.83</ele>
   </trkpt>
   <trkpt lat="-19.87555" lon="-43.48941000000001">
    <ele>951.4</ele>
   </trkpt>
   <trkpt lat="-19.87526" lon="-43.48989">
    <ele>959.6800000000001</ele>
   </trkpt>
   <trkpt lat="-19.87526" lon="-43.490140000000004">
    <ele>960.1200000000001</ele>
   </trkpt>
   <trkpt lat="-19.87546" lon="-43.49027">
    <ele>961.94</ele>
   </trkpt>
   <trkpt lat="-19.87553" lon="-43.49042">
    <ele>968.3900000000001</ele>
   </trkpt>
   <trkpt lat="-19.87554" lon="-43.49042">
    <ele>968.3900000000001</ele>
   </trkpt>
   <trkpt lat="-19.87582" lon="-43.490520000000004">
    <ele>974.77</ele>
   </trkpt>
   <trkpt lat="-19.87601" lon="-43.49062000000001">
    <ele>978.74</ele>
   </trkpt>
   <trkpt lat="-19.876070000000002" lon="-43.49100000000001">
    <ele>990.09</ele>
   </trkpt>
   <trkpt lat="-19.8761" lon="-43.49139">
    <ele>1000.24</ele>
   </trkpt>
   <trkpt lat="-19.876170000000002" lon="-43.49159">
    <ele>1004.83</ele>
   </trkpt>
   <trkpt lat="-19.876330000000003" lon="-43.49177">
    <ele>1013.2100000000002</ele>
   </trkpt>
   <trkpt lat="-19.876520000000003" lon="-43.491670000000006">
    <ele>1015.5899999999999</ele>
   </trkpt>
   <trkpt lat="-19.876720000000002" lon="-43.49174">
    <ele>1023.1400000000001</ele>
   </trkpt>
   <trkpt lat="-19.87688" lon="-43.49181">
    <ele>1032.78</ele>
   </trkpt>
   <trkpt lat="-19.87714" lon="-43.49154">
    <ele>1046.5900000000001</ele>
   </trkpt>
   <trkpt lat="-19.87721" lon="-43.491220000000006">
    <ele>1040.66</ele>
   </trkpt>
   <trkpt lat="-19.87722" lon="-43.491220000000006">
    <ele>1042.92</ele>
   </trkpt>
   <trkpt lat="-19.87735" lon="-43.49092">
    <ele>1044.23</ele>
   </trkpt>
   <trkpt lat="-19.877670000000002" lon="-43.49078">
    <ele>1050.4900000000002</ele>
   </trkpt>
   <trkpt lat="-19.87787" lon="-43.490770000000005">
    <ele>1060.39</ele>
   </trkpt>
   <trkpt lat="-19.87788" lon="-43.490770000000005">
    <ele>1060.39</ele>
   </trkpt>
   <trkpt lat="-19.878010000000003" lon="-43.490660000000005">
    <ele>1061.02</ele>
   </trkpt>
   <trkpt lat="-19.87819" lon="-43.49069">
    <ele>1071.56</ele>
   </trkpt>
   <trkpt lat="-19.878120000000003" lon="-43.49100000000001">
    <ele>1081.69</ele>
   </trkpt>
   <trkpt lat="-19.878500000000003" lon="-43.49112">
    <ele>1094.67</ele>
   </trkpt>
   <trkpt lat="-19.87882" lon="-43.4913">
    <ele>1103.1000000000001</ele>
   </trkpt>
   <trkpt lat="-19.878890000000002" lon="-43.49185000000001">
    <ele>1114.98</ele>
   </trkpt>
   <trkpt lat="-19.879240000000003" lon="-43.49244">
    <ele>1128.3400000000001</ele>
   </trkpt>
   <trkpt lat="-19.879610000000003" lon="-43.493010000000005">
    <ele>1142.3300000000002</ele>
   </trkpt>
   <trkpt lat="-19.879810000000003" lon="-43.493390000000005">
    <ele>1147.63</ele>
   </trkpt>
   <trkpt lat="-19.87988" lon="-43.49389">
    <ele>1149.85</ele>
   </trkpt>
   <trkpt lat="-19.88013" lon="-43.494040000000005">
    <ele>1154.25</ele>
   </trkpt>
   <trkpt lat="-19.88014" lon="-43.494040000000005">
    <ele>1154.25</ele>
   </trkpt>
   <trkpt lat="-19.87966" lon="-43.49466">
    <ele>1152.91</ele>
   </trkpt>
   <trkpt lat="-19.87967" lon="-43.49466">
    <ele>1153.3300000000002</ele>
   </trkpt>
   <trkpt lat="-19.8794" lon="-43.494420000000005">
    <ele>1149.97</ele>
   </trkpt>
   <trkpt lat="-19.879240000000003" lon="-43.49456000000001">
    <ele>1145.1100000000001</ele>
   </trkpt>
   <trkpt lat="-19.87947" lon="-43.49522">
    <ele>1157.74</ele>
   </trkpt>
   <trkpt lat="-19.87948" lon="-43.49522">
    <ele>1157.89</ele>
   </trkpt>
   <trkpt lat="-19.87966" lon="-43.495520000000006">
    <ele>1164.01</ele>
   </trkpt>
   <trkpt lat="-19.87967" lon="-43.495520000000006">
    <ele>1164.01</ele>
   </trkpt>
   <trkpt lat="-19.879830000000002" lon="-43.49602">
    <ele>1176.3300000000002</ele>
   </trkpt>
   <trkpt lat="-19.87984" lon="-43.49647">
    <ele>1190.6100000000001</ele>
   </trkpt>
   <trkpt lat="-19.87967" lon="-43.496660000000006">
    <ele>1195.69</ele>
   </trkpt>
   <trkpt lat="-19.87977" lon="-43.4968">
    <ele>1201.3500000000001</ele>
   </trkpt>
   <trkpt lat="-19.87974" lon="-43.49716">
    <ele>1209.09</ele>
   </trkpt>
   <trkpt lat="-19.87997" lon="-43.497220000000006">
    <ele>1214.32</ele>
   </trkpt>
   <trkpt lat="-19.88021" lon="-43.497420000000005">
    <ele>1221.3</ele>
   </trkpt>
   <trkpt lat="-19.88022" lon="-43.497420000000005">
    <ele>1221.3</ele>
   </trkpt>
   <trkpt lat="-19.880180000000003" lon="-43.49765">
    <ele>1228.0300000000002</ele>
   </trkpt>
   <trkpt lat="-19.880640000000003" lon="-43.49806">
    <ele>1242.65</ele>
   </trkpt>
   <trkpt lat="-19.88051" lon="-43.498520000000006">
    <ele>1253.9900000000002</ele>
   </trkpt>
   <trkpt lat="-19.8806" lon="-43.49871">
    <ele>1263.29</ele>
   </trkpt>
   <trkpt lat="-19.88091" lon="-43.498850000000004">
    <ele>1271.92</ele>
   </trkpt>
   <trkpt lat="-19.881310000000003" lon="-43.49882">
    <ele>1285.9600000000003</ele>
   </trkpt>
   <trkpt lat="-19.88164" lon="-43.498780000000004">
    <ele>1292.21</ele>
   </trkpt>
   <trkpt lat="-19.881800000000002" lon="-43.49857">
    <ele>1288.71</ele>
   </trkpt>
   <trkpt lat="-19.8821" lon="-43.498580000000004">
    <ele>1296.99</ele>
   </trkpt>
   <trkpt lat="-19.88211" lon="-43.498580000000004">
    <ele>1296.99</ele>
   </trkpt>
   <trkpt lat="-19.88259" lon="-43.49871">
    <ele>1308.98</ele>
   </trkpt>
   <trkpt lat="-19.883090000000003" lon="-43.498780000000004">
    <ele>1307.3700000000001</ele>
   </trkpt>
   <trkpt lat="-19.88361" lon="-43.498990000000006">
    <ele>1310.2600000000002</ele>
   </trkpt>
   <trkpt lat="-19.8841" lon="-43.499190000000006">
    <ele>1307.96</ele>
   </trkpt>
   <trkpt lat="-19.884410000000003" lon="-43.499610000000004">
    <ele>1307.8</ele>
   </trkpt>
   <trkpt lat="-19.88447" lon="-43.50005">
    <ele>1312.5300000000002</ele>
   </trkpt>
   <trkpt lat="-19.88447" lon="-43.50039">
    <ele>1313.3600000000001</ele>
   </trkpt>
   <trkpt lat="-19.88485" lon="-43.500460000000004">
    <ele>1313.08</ele>
   </trkpt>
   <trkpt lat="-19.88503" lon="-43.50054">
    <ele>1313.32</ele>
   </trkpt>
   <trkpt lat="-19.88511" lon="-43.500840000000004">
    <ele>1316.6200000000001</ele>
   </trkpt>
   <trkpt lat="-19.88513" lon="-43.50108">
    <ele>1317.71</ele>
   </trkpt>
   <trkpt lat="-19.885440000000003" lon="-43.50119">
    <ele>1318.2200000000003</ele>
   </trkpt>
   <trkpt lat="-19.88547" lon="-43.50139">
    <ele>1319.74</ele>
   </trkpt>
   <trkpt lat="-19.88548" lon="-43.50139">
    <ele>1319.74</ele>
   </trkpt>
   <trkpt lat="-19.885250000000003" lon="-43.501760000000004">
    <ele>1325.28</ele>
   </trkpt>
   <trkpt lat="-19.88513" lon="-43.502050000000004">
    <ele>1325.88</ele>
   </trkpt>
   <trkpt lat="-19.885" lon="-43.50222">
    <ele>1324.98</ele>
   </trkpt>
   <trkpt lat="-19.88501" lon="-43.50222">
    <ele>1324.98</ele>
   </trkpt>
   <trkpt lat="-19.885330000000003" lon="-43.50211">
    <ele>1331.47</ele>
   </trkpt>
   <trkpt lat="-19.885730000000002" lon="-43.50204">
    <ele>1339.14</ele>
   </trkpt>
   <trkpt lat="-19.88598" lon="-43.502030000000005">
    <ele>1342.65</ele>
   </trkpt>
   <trkpt lat="-19.88614" lon="-43.50222">
    <ele>1350.4900000000002</ele>
   </trkpt>
   <trkpt lat="-19.88631" lon="-43.50264000000001">
    <ele>1357.0900000000001</ele>
   </trkpt>
   <trkpt lat="-19.88632" lon="-43.50264000000001">
    <ele>1357.0900000000001</ele>
   </trkpt>
   <trkpt lat="-19.88654" lon="-43.50267">
    <ele>1358.6299999999999</ele>
   </trkpt>
   <trkpt lat="-19.88681" lon="-43.502810000000004">
    <ele>1363.9500000000003</ele>
   </trkpt>
   <trkpt lat="-19.887020000000003" lon="-43.502810000000004">
    <ele>1367.82</ele>
   </trkpt>
   <trkpt lat="-19.887240000000002" lon="-43.50263">
    <ele>1371.18</ele>
   </trkpt>
   <trkpt lat="-19.887520000000002" lon="-43.50251">
    <ele>1375.14</ele>
   </trkpt>
   <trkpt lat="-19.88782" lon="-43.50245">
    <ele>1379.0500000000002</ele>
   </trkpt>
   <trkpt lat="-19.88783" lon="-43.50245">
    <ele>1379.7</ele>
   </trkpt>
   <trkpt lat="-19.88821" lon="-43.50231">
    <ele>1382.23</ele>
   </trkpt>
   <trkpt lat="-19.888460000000002" lon="-43.502340000000004">
    <ele>1383.7700000000002</ele>
   </trkpt>
   <trkpt lat="-19.888840000000002" lon="-43.50249">
    <ele>1395.76</ele>
   </trkpt>
   <trkpt lat="-19.889210000000002" lon="-43.50242">
    <ele>1396.93</ele>
   </trkpt>
   <trkpt lat="-19.889670000000002" lon="-43.5022">
    <ele>1399.75</ele>
   </trkpt>
   <trkpt lat="-19.89018" lon="-43.502">
    <ele>1401.8400000000001</ele>
   </trkpt>
   <trkpt lat="-19.89058" lon="-43.502">
    <ele>1400.23</ele>
   </trkpt>
   <trkpt lat="-19.89094" lon="-43.50215">
    <ele>1393.65</ele>
   </trkpt>
   <trkpt lat="-19.891160000000003" lon="-43.502120000000005">
    <ele>1388.26</ele>
   </trkpt>
   <trkpt lat="-19.891160000000003" lon="-43.501830000000005">
    <ele>1386.5700000000002</ele>
   </trkpt>
   <trkpt lat="-19.89102" lon="-43.501490000000004">
    <ele>1383.8700000000001</ele>
   </trkpt>
   <trkpt lat="-19.891160000000003" lon="-43.501270000000005">
    <ele>1376.91</ele>
   </trkpt>
   <trkpt lat="-19.89139" lon="-43.501250000000006">
    <ele>1378.98</ele>
   </trkpt>
   <trkpt lat="-19.8914" lon="-43.501250000000006">
    <ele>1378.98</ele>
   </trkpt>
   <trkpt lat="-19.891710000000003" lon="-43.50168">
    <ele>1380.69</ele>
   </trkpt>
   <trkpt lat="-19.891920000000002" lon="-43.50224">
    <ele>1367.8300000000002</ele>
   </trkpt>
   <trkpt lat="-19.892200000000003" lon="-43.502500000000005">
    <ele>1364.97</ele>
   </trkpt>
   <trkpt lat="-19.89245" lon="-43.502930000000006">
    <ele>1363.66</ele>
   </trkpt>
   <trkpt lat="-19.892660000000003" lon="-43.50343">
    <ele>1358.3500000000001</ele>
   </trkpt>
   <trkpt lat="-19.892930000000003" lon="-43.50354">
    <ele>1358.64</ele>
   </trkpt>
   <trkpt lat="-19.893240000000002" lon="-43.50343">
    <ele>1358.15</ele>
   </trkpt>
   <trkpt lat="-19.893520000000002" lon="-43.50314">
    <ele>1356.36</ele>
   </trkpt>
   <trkpt lat="-19.893510000000003" lon="-43.502750000000006">
    <ele>1369.89</ele>
   </trkpt>
   <trkpt lat="-19.89346" lon="-43.502480000000006">
    <ele>1379.6200000000001</ele>
   </trkpt>
   <trkpt lat="-19.8932" lon="-43.50255000000001">
    <ele>1386.0700000000002</ele>
   </trkpt>
   <trkpt lat="-19.8931" lon="-43.502280000000006">
    <ele>1394.68</ele>
   </trkpt>
   <trkpt lat="-19.893060000000002" lon="-43.50197">
    <ele>1403.73</ele>
   </trkpt>
   <trkpt lat="-19.89329" lon="-43.501650000000005">
    <ele>1411.6399999999999</ele>
   </trkpt>
   <trkpt lat="-19.893420000000003" lon="-43.501450000000006">
    <ele>1408.1000000000001</ele>
   </trkpt>
   <trkpt lat="-19.893430000000002" lon="-43.5011">
    <ele>1408.8100000000002</ele>
   </trkpt>
   <trkpt lat="-19.89339" lon="-43.50081">
    <ele>1406.8500000000001</ele>
   </trkpt>
   <trkpt lat="-19.89345" lon="-43.500420000000005">
    <ele>1401.68</ele>
   </trkpt>
   <trkpt lat="-19.89346" lon="-43.500420000000005">
    <ele>1401.68</ele>
   </trkpt>
   <trkpt lat="-19.893600000000003" lon="-43.50018">
    <ele>1392.7800000000002</ele>
   </trkpt>
   <trkpt lat="-19.893510000000003" lon="-43.49974">
    <ele>1385.82</ele>
   </trkpt>
   <trkpt lat="-19.89338" lon="-43.49947">
    <ele>1376.97</ele>
   </trkpt>
   <trkpt lat="-19.893410000000003" lon="-43.498940000000005">
    <ele>1365.65</ele>
   </trkpt>
   <trkpt lat="-19.893210000000003" lon="-43.498670000000004">
    <ele>1349.46</ele>
   </trkpt>
   <trkpt lat="-19.89301" lon="-43.498270000000005">
    <ele>1337.67</ele>
   </trkpt>
   <trkpt lat="-19.89292" lon="-43.49801">
    <ele>1329.15</ele>
   </trkpt>
   <trkpt lat="-19.89262" lon="-43.49765">
    <ele>1329.0000000000002</ele>
   </trkpt>
   <trkpt lat="-19.89264" lon="-43.497240000000005">
    <ele>1329.66</ele>
   </trkpt>
   <trkpt lat="-19.89262" lon="-43.496590000000005">
    <ele>1319.25</ele>
   </trkpt>
   <trkpt lat="-19.893140000000002" lon="-43.496370000000006">
    <ele>1306.24</ele>
   </trkpt>
   <trkpt lat="-19.89363" lon="-43.495670000000004">
    <ele>1284.8400000000001</ele>
   </trkpt>
   <trkpt lat="-19.89364" lon="-43.495670000000004">
    <ele>1283.6200000000001</ele>
   </trkpt>
   <trkpt lat="-19.89412" lon="-43.495340000000006">
    <ele>1271.3000000000002</ele>
   </trkpt>
   <trkpt lat="-19.894470000000002" lon="-43.49506">
    <ele>1260.5700000000002</ele>
   </trkpt>
   <trkpt lat="-19.894660000000002" lon="-43.49474">
    <ele>1254.5300000000002</ele>
   </trkpt>
   <trkpt lat="-19.89461" lon="-43.49437">
    <ele>1252.61</ele>
   </trkpt>
   <trkpt lat="-19.89451" lon="-43.494080000000004">
    <ele>1257.77</ele>
   </trkpt>
   <trkpt lat="-19.89457" lon="-43.49382000000001">
    <ele>1255.3100000000002</ele>
   </trkpt>
   <trkpt lat="-19.89458" lon="-43.49382000000001">
    <ele>1255.3100000000002</ele>
   </trkpt>
   <trkpt lat="-19.89487" lon="-43.49363">
    <ele>1246.17</ele>
   </trkpt>
   <trkpt lat="-19.89524" lon="-43.49338">
    <ele>1231.2</ele>
   </trkpt>
   <trkpt lat="-19.89562" lon="-43.49291">
    <ele>1215.0500000000002</ele>
   </trkpt>
   <trkpt lat="-19.89581" lon="-43.49233">
    <ele>1204.29</ele>
   </trkpt>
   <trkpt lat="-19.895970000000002" lon="-43.49183">
    <ele>1186.13</ele>
   </trkpt>
   <trkpt lat="-19.89593" lon="-43.49152">
    <ele>1178.69</ele>
   </trkpt>
   <trkpt lat="-19.89564" lon="-43.49125">
    <ele>1180.2</ele>
   </trkpt>
   <trkpt lat="-19.89546" lon="-43.49101">
    <ele>1175.81</ele>
   </trkpt>
   <trkpt lat="-19.895400000000002" lon="-43.490640000000006">
    <ele>1164.64</ele>
   </trkpt>
   <trkpt lat="-19.89524" lon="-43.490260000000006">
    <ele>1152.5700000000002</ele>
   </trkpt>
   <trkpt lat="-19.894940000000002" lon="-43.490120000000005">
    <ele>1150.0900000000001</ele>
   </trkpt>
   <trkpt lat="-19.894450000000003" lon="-43.48997000000001">
    <ele>1131.81</ele>
   </trkpt>
   <trkpt lat="-19.89403" lon="-43.489760000000004">
    <ele>1121.17</ele>
   </trkpt>
   <trkpt lat="-19.89383" lon="-43.48937">
    <ele>1107.7400000000002</ele>
   </trkpt>
   <trkpt lat="-19.89367" lon="-43.4889">
    <ele>1099.39</ele>
   </trkpt>
   <trkpt lat="-19.893510000000003" lon="-43.488440000000004">
    <ele>1092.8200000000002</ele>
   </trkpt>
   <trkpt lat="-19.893050000000002" lon="-43.48801">
    <ele>1089.01</ele>
   </trkpt>
   <trkpt lat="-19.892480000000003" lon="-43.4876">
    <ele>1072.26</ele>
   </trkpt>
   <trkpt lat="-19.891830000000002" lon="-43.487190000000005">
    <ele>1055.35</ele>
   </trkpt>
   <trkpt lat="-19.89161" lon="-43.486880000000006">
    <ele>1047.68</ele>
   </trkpt>
   <trkpt lat="-19.89132" lon="-43.48682">
    <ele>1046.89</ele>
   </trkpt>
   <trkpt lat="-19.890990000000002" lon="-43.487120000000004">
    <ele>1053.2700000000002</ele>
   </trkpt>
   <trkpt lat="-19.890710000000002" lon="-43.48684">
    <ele>1058.07</ele>
   </trkpt>
   <trkpt lat="-19.890530000000002" lon="-43.486610000000006">
    <ele>1057.64</ele>
   </trkpt>
   <trkpt lat="-19.89044" lon="-43.486380000000004">
    <ele>1056.0500000000002</ele>
   </trkpt>
   <trkpt lat="-19.890240000000002" lon="-43.486200000000004">
    <ele>1056.19</ele>
   </trkpt>
   <trkpt lat="-19.89" lon="-43.486180000000004">
    <ele>1057.6499999999999</ele>
   </trkpt>
   <trkpt lat="-19.88962" lon="-43.48612000000001">
    <ele>1055.56</ele>
   </trkpt>
   <trkpt lat="-19.88924" lon="-43.48621000000001">
    <ele>1057.16</ele>
   </trkpt>
   <trkpt lat="-19.88858" lon="-43.486090000000004">
    <ele>1055.32</ele>
   </trkpt>
   <trkpt lat="-19.888090000000002" lon="-43.486270000000005">
    <ele>1059.5</ele>
   </trkpt>
   <trkpt lat="-19.88781" lon="-43.486650000000004">
    <ele>1066.81</ele>
   </trkpt>
   <trkpt lat="-19.887610000000002" lon="-43.48693">
    <ele>1071.3000000000002</ele>
   </trkpt>
   <trkpt lat="-19.887430000000002" lon="-43.48713">
    <ele>1076.16</ele>
   </trkpt>
   <trkpt lat="-19.88663" lon="-43.48702">
    <ele>1069.05</ele>
   </trkpt>
   <trkpt lat="-19.88613" lon="-43.486790000000006">
    <ele>1066.0</ele>
   </trkpt>
   <trkpt lat="-19.88614" lon="-43.486790000000006">
    <ele>1065.72</ele>
   </trkpt>
   <trkpt lat="-19.8856" lon="-43.48702">
    <ele>1067.5700000000002</ele>
   </trkpt>
   <trkpt lat="-19.885430000000003" lon="-43.487230000000004">
    <ele>1068.51</ele>
   </trkpt>
   <trkpt lat="-19.884870000000003" lon="-43.487320000000004">
    <ele>1074.95</ele>
   </trkpt>
   <trkpt lat="-19.884580000000003" lon="-43.48745">
    <ele>1080.75</ele>
   </trkpt>
   <trkpt lat="-19.884130000099088" lon="-43.487339999703494">
    <ele>1084.5</ele>
   </trkpt>
   <trkpt lat="-19.883680000000002" lon="-43.487230000000004">
    <ele>1090.68</ele>
   </trkpt>
   <trkpt lat="-19.88326" lon="-43.48738">
    <ele>1095.5600000000002</ele>
   </trkpt>
   <trkpt lat="-19.88297" lon="-43.48753000000001">
    <ele>1100.0500000000002</ele>
   </trkpt>
   <trkpt lat="-19.88266" lon="-43.48753000000001">
    <ele>1099.43</ele>
   </trkpt>
   <trkpt lat="-19.88267" lon="-43.48753000000001">
    <ele>1099.43</ele>
   </trkpt>
   <trkpt lat="-19.88248" lon="-43.487370000000006">
    <ele>1091.6200000000001</ele>
   </trkpt>
   <trkpt lat="-19.88249" lon="-43.48682">
    <ele>1085.02</ele>
   </trkpt>
   <trkpt lat="-19.882430000000003" lon="-43.486450000000005">
    <ele>1079.8500000000001</ele>
   </trkpt>
   <trkpt lat="-19.882450000000002" lon="-43.486450000000005">
    <ele>1090.66</ele>
   </trkpt>
   <trkpt lat="-19.8825" lon="-43.48613">
    <ele>1088.0</ele>
   </trkpt>
   <trkpt lat="-19.88247" lon="-43.48586">
    <ele>1086.41</ele>
   </trkpt>
   <trkpt lat="-19.88237" lon="-43.4855">
    <ele>1083.04</ele>
   </trkpt>
   <trkpt lat="-19.88211" lon="-43.48508">
    <ele>1072.97</ele>
   </trkpt>
   <trkpt lat="-19.881690000000003" lon="-43.48449">
    <ele>1061.32</ele>
   </trkpt>
   <trkpt lat="-19.88164" lon="-43.484">
    <ele>1046.34</ele>
   </trkpt>
   <trkpt lat="-19.88166" lon="-43.483760000000004">
    <ele>1043.44</ele>
   </trkpt>
   <trkpt lat="-19.88201" lon="-43.48342">
    <ele>1035.83</ele>
   </trkpt>
   <trkpt lat="-19.882200000781097" lon="-43.48289500059686">
    <ele>1029.14</ele>
   </trkpt>
   <trkpt lat="-19.88239" lon="-43.48237">
    <ele>1016.37</ele>
   </trkpt>
   <trkpt lat="-19.88251" lon="-43.48178">
    <ele>1011.15</ele>
   </trkpt>
   <trkpt lat="-19.882530000000003" lon="-43.481500000000004">
    <ele>1003.7900000000002</ele>
   </trkpt>
   <trkpt lat="-19.88257" lon="-43.480810000000005">
    <ele>991.94</ele>
   </trkpt>
   <trkpt lat="-19.88248" lon="-43.4808">
    <ele>990.9300000000001</ele>
   </trkpt>
   <trkpt lat="-19.8822100008317" lon="-43.48023999895537">
    <ele>985.6400000000001</ele>
   </trkpt>
   <trkpt lat="-19.88194" lon="-43.47968">
    <ele>985.4100000000001</ele>
   </trkpt>
   <trkpt lat="-19.88144" lon="-43.4791">
    <ele>992.84</ele>
   </trkpt>
   <trkpt lat="-19.88117" lon="-43.478770000000004">
    <ele>992.77</ele>
   </trkpt>
   <trkpt lat="-19.881030000000003" lon="-43.47849">
    <ele>992.1400000000001</ele>
   </trkpt>
   <trkpt lat="-19.88078" lon="-43.4776">
    <ele>988.4300000000001</ele>
   </trkpt>
   <trkpt lat="-19.88063" lon="-43.47686">
    <ele>985.11</ele>
   </trkpt>
   <trkpt lat="-19.88062" lon="-43.476000000000006">
    <ele>978.8800000000001</ele>
   </trkpt>
   <trkpt lat="-19.88063" lon="-43.47576">
    <ele>978.25</ele>
   </trkpt>
   <trkpt lat="-19.8807" lon="-43.47563">
    <ele>977.07</ele>
   </trkpt>
   <trkpt lat="-19.880860000000002" lon="-43.47538">
    <ele>974.62</ele>
   </trkpt>
   <trkpt lat="-19.88088" lon="-43.47525">
    <ele>972.1800000000001</ele>
   </trkpt>
   <trkpt lat="-19.88082" lon="-43.47473">
    <ele>969.96</ele>
   </trkpt>
   <trkpt lat="-19.88079" lon="-43.47458">
    <ele>971.1600000000001</ele>
   </trkpt>
   <trkpt lat="-19.8805" lon="-43.47404">
    <ele>975.46</ele>
   </trkpt>
   <trkpt lat="-19.880470000000003" lon="-43.473910000000004">
    <ele>977.5400000000001</ele>
   </trkpt>
   <trkpt lat="-19.88051" lon="-43.47352">
    <ele>980.21</ele>
   </trkpt>
   <trkpt lat="-19.88051" lon="-43.47292">
    <ele>981.11</ele>
   </trkpt>
   <trkpt lat="-19.88044" lon="-43.47263">
    <ele>979.71</ele>
   </trkpt>
   <trkpt lat="-19.88016" lon="-43.4722">
    <ele>974.35</ele>
   </trkpt>
   <trkpt lat="-19.88015" lon="-43.47211">
    <ele>973.72</ele>
   </trkpt>
   <trkpt lat="-19.88024" lon="-43.47189">
    <ele>972.55</ele>
   </trkpt>
   <trkpt lat="-19.88023" lon="-43.47162">
    <ele>970.64</ele>
   </trkpt>
   <trkpt lat="-19.880290000000002" lon="-43.471450000000004">
    <ele>968.98</ele>
   </trkpt>
   <trkpt lat="-19.88049" lon="-43.470980000000004">
    <ele>963.96</ele>
   </trkpt>
   <trkpt lat="-19.88051" lon="-43.47075">
    <ele>960.44</ele>
   </trkpt>
   <trkpt lat="-19.88049" lon="-43.470240000000004">
    <ele>951.6000000000001</ele>
   </trkpt>
   <trkpt lat="-19.88042" lon="-43.470040000000004">
    <ele>947.73</ele>
   </trkpt>
   <trkpt lat="-19.880280000000003" lon="-43.469680000000004">
    <ele>942.9000000000001</ele>
   </trkpt>
   <trkpt lat="-19.87993" lon="-43.46896">
    <ele>935.6</ele>
   </trkpt>
   <trkpt lat="-19.87966" lon="-43.46855">
    <ele>934.09</ele>
   </trkpt>
   <trkpt lat="-19.87946" lon="-43.468360000000004">
    <ele>934.95</ele>
   </trkpt>
   <trkpt lat="-19.87929" lon="-43.46808">
    <ele>934.82</ele>
   </trkpt>
   <trkpt lat="-19.87918" lon="-43.46773">
    <ele>933.2800000000001</ele>
   </trkpt>
   <trkpt lat="-19.879070000000002" lon="-43.46752">
    <ele>932.0</ele>
   </trkpt>
   <trkpt lat="-19.879" lon="-43.46719">
    <ele>929.8700000000001</ele>
   </trkpt>
   <trkpt lat="-19.87882" lon="-43.46692">
    <ele>929.9100000000001</ele>
   </trkpt>
   <trkpt lat="-19.878690000000002" lon="-43.4665">
    <ele>927.2800000000001</ele>
   </trkpt>
   <trkpt lat="-19.87847" lon="-43.46625">
    <ele>922.3500000000001</ele>
   </trkpt>
   <trkpt lat="-19.87843" lon="-43.46602">
    <ele>920.96</ele>
   </trkpt>
   <trkpt lat="-19.878310000000003" lon="-43.465830000000004">
    <ele>920.72</ele>
   </trkpt>
   <trkpt lat="-19.87816" lon="-43.46573">
    <ele>920.9900000000001</ele>
   </trkpt>
   <trkpt lat="-19.87807" lon="-43.46571">
    <ele>921.4000000000001</ele>
   </trkpt>
   <trkpt lat="-19.87777" lon="-43.46576">
    <ele>923.63</ele>
   </trkpt>
   <trkpt lat="-19.877190000000002" lon="-43.46535">
    <ele>926.0600000000001</ele>
   </trkpt>
   <trkpt lat="-19.87702" lon="-43.465070000000004">
    <ele>924.9000000000001</ele>
   </trkpt>
   <trkpt lat="-19.876910000000002" lon="-43.464780000000005">
    <ele>921.84</ele>
   </trkpt>
   <trkpt lat="-19.87674" lon="-43.46452">
    <ele>918.88</ele>
   </trkpt>
   <trkpt lat="-19.87629" lon="-43.46412">
    <ele>908.6700000000001</ele>
   </trkpt>
   <trkpt lat="-19.876170000000002" lon="-43.46397">
    <ele>904.36</ele>
   </trkpt>
   <trkpt lat="-19.87601" lon="-43.46388">
    <ele>901.7600000000001</ele>
   </trkpt>
   <trkpt lat="-19.8758" lon="-43.463660000000004">
    <ele>899.38</ele>
   </trkpt>
   <trkpt lat="-19.87544" lon="-43.46318">
    <ele>892.59</ele>
   </trkpt>
   <trkpt lat="-19.87497" lon="-43.4626">
    <ele>885.02</ele>
   </trkpt>
   <trkpt lat="-19.8747" lon="-43.46238">
    <ele>881.6400000000001</ele>
   </trkpt>
   <trkpt lat="-19.87424" lon="-43.461710000000004">
    <ele>869.38</ele>
   </trkpt>
   <trkpt lat="-19.87384" lon="-43.46119">
    <ele>861.6400000000001</ele>
   </trkpt>
   <trkpt lat="-19.873730000000002" lon="-43.46092">
    <ele>859.26</ele>
   </trkpt>
   <trkpt lat="-19.87366" lon="-43.46038">
    <ele>849.95</ele>
   </trkpt>
   <trkpt lat="-19.873600000000003" lon="-43.46031000000001">
    <ele>849.95</ele>
   </trkpt>
   <trkpt lat="-19.87347" lon="-43.460210000000004">
    <ele>844.7600000000001</ele>
   </trkpt>
   <trkpt lat="-19.8731" lon="-43.46011">
    <ele>839.45</ele>
   </trkpt>
   <trkpt lat="-19.872870000000002" lon="-43.46009">
    <ele>836.3900000000001</ele>
   </trkpt>
   <trkpt lat="-19.87272" lon="-43.46005">
    <ele>834.9900000000001</ele>
   </trkpt>
   <trkpt lat="-19.87265" lon="-43.46">
    <ele>834.9900000000001</ele>
   </trkpt>
   <trkpt lat="-19.87247" lon="-43.45956">
    <ele>831.4100000000001</ele>
   </trkpt>
   <trkpt lat="-19.87237" lon="-43.45942">
    <ele>830.3000000000001</ele>
   </trkpt>
   <trkpt lat="-19.87218" lon="-43.45924">
    <ele>827.22</ele>
   </trkpt>
   <trkpt lat="-19.871930000000003" lon="-43.45909">
    <ele>820.98</ele>
   </trkpt>
   <trkpt lat="-19.87169" lon="-43.459070000000004">
    <ele>817.2900000000001</ele>
   </trkpt>
   <trkpt lat="-19.87123" lon="-43.45908">
    <ele>813.0</ele>
   </trkpt>
   <trkpt lat="-19.87103" lon="-43.45904">
    <ele>809.37</ele>
   </trkpt>
   <trkpt lat="-19.870820000000002" lon="-43.45879">
    <ele>804.2800000000001</ele>
   </trkpt>
   <trkpt lat="-19.870720000000002" lon="-43.45864">
    <ele>804.2800000000001</ele>
   </trkpt>
   <trkpt lat="-19.87055" lon="-43.45824">
    <ele>798.76</ele>
   </trkpt>
   <trkpt lat="-19.870430000000002" lon="-43.4581">
    <ele>795.3500000000001</ele>
   </trkpt>
   <trkpt lat="-19.870350000000002" lon="-43.458040000000004">
    <ele>795.3500000000001</ele>
   </trkpt>
   <trkpt lat="-19.869800000221133" lon="-43.457734998920635">
    <ele>789.9100000000001</ele>
   </trkpt>
   <trkpt lat="-19.86925" lon="-43.45743">
    <ele>785.8900000000001</ele>
   </trkpt>
   <trkpt lat="-19.868650000000002" lon="-43.45711">
    <ele>778.6400000000001</ele>
   </trkpt>
   <trkpt lat="-19.8685" lon="-43.45709">
    <ele>775.39</ele>
   </trkpt>
   <trkpt lat="-19.86831" lon="-43.45709">
    <ele>774.38</ele>
   </trkpt>
   <trkpt lat="-19.868000000000002" lon="-43.45718">
    <ele>770.85</ele>
   </trkpt>
   <trkpt lat="-19.86739" lon="-43.45729">
    <ele>768.2500000000001</ele>
   </trkpt>
   <trkpt lat="-19.866780000000002" lon="-43.45734">
    <ele>767.9200000000001</ele>
   </trkpt>
   <trkpt lat="-19.86634" lon="-43.45743">
    <ele>768.61</ele>
   </trkpt>
   <trkpt lat="-19.86557" lon="-43.457390000000004">
    <ele>764.87</ele>
   </trkpt>
   <trkpt lat="-19.86523" lon="-43.45732">
    <ele>762.0600000000001</ele>
   </trkpt>
   <trkpt lat="-19.864910000000002" lon="-43.45707">
    <ele>759.51</ele>
   </trkpt>
   <trkpt lat="-19.86458" lon="-43.456920000000004">
    <ele>758.09</ele>
   </trkpt>
  </trkseg>
 </trk>
</gpx>
