<?xml version="1.0" encoding="UTF-8"?>
<gpx creator="StravaGPX" version="1.1" xmlns="http://www.topografix.com/GPX/1/1" xmlns:xsi="http://www.w3.org/2001/XMLSchema-instance" xsi:schemaLocation="http://www.topografix.com/GPX/1/1 http://www.topografix.com/GPX/1/1/gpx.xsd">
 <metadata>
  <name>Trail run matinal</name>
  <author>
   <name>Felipe Desiderio</name>
  </author>
  <copyright author="OpenStreetMap contributors">
   <year>2020</year>
   <license>https://www.openstreetmap.org/copyright</license>
  </copyright>
 </metadata>
 <trk>
  <name>Trail run matinal</name>
  <link href=""/>
  <type>trail_running</type>
  <trkseg>
   <trkpt lat="-19.628390000000003" lon="-43.887460000000004">
    <ele>740.6100000000001</ele>
   </trkpt>
   <trkpt lat="-19.628040000000002" lon="-43.88712">
    <ele>740.74</ele>
   </trkpt>
   <trkpt lat="-19.62732" lon="-43.88665">
    <ele>741.68</ele>
   </trkpt>
   <trkpt lat="-19.626875000194893" lon="-43.8863249990292">
    <ele>743.44</ele>
   </trkpt>
   <trkpt lat="-19.626430000000003" lon="-43.886">
    <ele>746.83</ele>
   </trkpt>
   <trkpt lat="-19.626520000000003" lon="-43.885870000000004">
    <ele>748.6600000000001</ele>
   </trkpt>
   <trkpt lat="-19.626420000000003" lon="-43.885830000000006">
    <ele>749.1300000000001</ele>
   </trkpt>
   <trkpt lat="-19.62628" lon="-43.88568">
    <ele>749.84</ele>
   </trkpt>
   <trkpt lat="-19.62603" lon="-43.88539">
    <ele>753.26</ele>
   </trkpt>
   <trkpt lat="-19.625770000000003" lon="-43.88506">
    <ele>756.2200000000001</ele>
   </trkpt>
   <trkpt lat="-19.625600000000002" lon="-43.884930000000004">
    <ele>756.5400000000001</ele>
   </trkpt>
   <trkpt lat="-19.62545" lon="-43.88479">
    <ele>757.2</ele>
   </trkpt>
   <trkpt lat="-19.625400000000003" lon="-43.884690000000006">
    <ele>757.7</ele>
   </trkpt>
   <trkpt lat="-19.625310000000002" lon="-43.88463">
    <ele>758.0</ele>
   </trkpt>
   <trkpt lat="-19.625200000000003" lon="-43.88461">
    <ele>758.0</ele>
   </trkpt>
   <trkpt lat="-19.62519" lon="-43.8845">
    <ele>758.0</ele>
   </trkpt>
   <trkpt lat="-19.625100000000003" lon="-43.8843">
    <ele>758.0</ele>
   </trkpt>
   <trkpt lat="-19.62506" lon="-43.88411000000001">
    <ele>757.8600000000001</ele>
   </trkpt>
   <trkpt lat="-19.62496" lon="-43.88392">
    <ele>757.59</ele>
   </trkpt>
   <trkpt lat="-19.62506" lon="-43.883810000000004">
    <ele>756.84</ele>
   </trkpt>
   <trkpt lat="-19.62496" lon="-43.88369">
    <ele>756.0400000000001</ele>
   </trkpt>
   <trkpt lat="-19.624450000124806" lon="-43.883444999202766">
    <ele>757.8600000000001</ele>
   </trkpt>
   <trkpt lat="-19.62394" lon="-43.8832">
    <ele>760.23</ele>
   </trkpt>
   <trkpt lat="-19.623420000142076" lon="-43.88297499927293">
    <ele>762.87</ele>
   </trkpt>
   <trkpt lat="-19.6229" lon="-43.88275">
    <ele>766.08</ele>
   </trkpt>
   <trkpt lat="-19.62274" lon="-43.882870000000004">
    <ele>766.6700000000001</ele>
   </trkpt>
   <trkpt lat="-19.62253" lon="-43.882870000000004">
    <ele>766.8900000000001</ele>
   </trkpt>
   <trkpt lat="-19.62225" lon="-43.882540000000006">
    <ele>767.51</ele>
   </trkpt>
   <trkpt lat="-19.62199" lon="-43.88237">
    <ele>767.9800000000001</ele>
   </trkpt>
   <trkpt lat="-19.621370000000002" lon="-43.88215">
    <ele>769.27</ele>
   </trkpt>
   <trkpt lat="-19.621190000000002" lon="-43.882200000000005">
    <ele>770.78</ele>
   </trkpt>
   <trkpt lat="-19.62073500027134" lon="-43.882019999562395">
    <ele>771.0</ele>
   </trkpt>
   <trkpt lat="-19.62028" lon="-43.881840000000004">
    <ele>772.5400000000001</ele>
   </trkpt>
   <trkpt lat="-19.61982" lon="-43.88123">
    <ele>777.0</ele>
   </trkpt>
   <trkpt lat="-19.61937" lon="-43.880810000000004">
    <ele>778.32</ele>
   </trkpt>
   <trkpt lat="-19.61881" lon="-43.88011">
    <ele>781.0</ele>
   </trkpt>
   <trkpt lat="-19.61868" lon="-43.87998">
    <ele>781.7700000000001</ele>
   </trkpt>
   <trkpt lat="-19.618660000000002" lon="-43.879960000000004">
    <ele>781.7700000000001</ele>
   </trkpt>
   <trkpt lat="-19.61916" lon="-43.87935">
    <ele>780.6700000000001</ele>
   </trkpt>
   <trkpt lat="-19.61972" lon="-43.8789">
    <ele>780.0400000000001</ele>
   </trkpt>
   <trkpt lat="-19.619960000000003" lon="-43.87857">
    <ele>780.3100000000001</ele>
   </trkpt>
   <trkpt lat="-19.620350000000002" lon="-43.87848">
    <ele>780.76</ele>
   </trkpt>
   <trkpt lat="-19.62056" lon="-43.87783">
    <ele>788.33</ele>
   </trkpt>
   <trkpt lat="-19.62059" lon="-43.87762">
    <ele>793.21</ele>
   </trkpt>
   <trkpt lat="-19.62105" lon="-43.87745">
    <ele>803.0100000000001</ele>
   </trkpt>
   <trkpt lat="-19.62076000082051" lon="-43.87691999912622">
    <ele>808.36</ele>
   </trkpt>
   <trkpt lat="-19.62047" lon="-43.87639">
    <ele>814.6600000000001</ele>
   </trkpt>
   <trkpt lat="-19.62019" lon="-43.87577">
    <ele>821.8100000000001</ele>
   </trkpt>
   <trkpt lat="-19.61981" lon="-43.87534">
    <ele>828.4</ele>
   </trkpt>
   <trkpt lat="-19.61933" lon="-43.87501">
    <ele>838.16</ele>
   </trkpt>
   <trkpt lat="-19.619030000000002" lon="-43.87467">
    <ele>843.0200000000001</ele>
   </trkpt>
   <trkpt lat="-19.618750000000002" lon="-43.87462">
    <ele>848.7900000000001</ele>
   </trkpt>
   <trkpt lat="-19.61869" lon="-43.87435000000001">
    <ele>845.25</ele>
   </trkpt>
   <trkpt lat="-19.61803" lon="-43.87391">
    <ele>838.61</ele>
   </trkpt>
   <trkpt lat="-19.617710000000002" lon="-43.87355">
    <ele>835.8100000000001</ele>
   </trkpt>
   <trkpt lat="-19.61765" lon="-43.87324">
    <ele>834.35</ele>
   </trkpt>
   <trkpt lat="-19.617720000000002" lon="-43.87248">
    <ele>832.96</ele>
   </trkpt>
   <trkpt lat="-19.617710000000002" lon="-43.871610000000004">
    <ele>831.73</ele>
   </trkpt>
   <trkpt lat="-19.61747" lon="-43.8708">
    <ele>826.57</ele>
   </trkpt>
   <trkpt lat="-19.617200000519897" lon="-43.870409999489596">
    <ele>824.4800000000001</ele>
   </trkpt>
   <trkpt lat="-19.61693" lon="-43.870020000000004">
    <ele>821.7500000000001</ele>
   </trkpt>
   <trkpt lat="-19.61671" lon="-43.86957">
    <ele>818.6300000000001</ele>
   </trkpt>
   <trkpt lat="-19.61652" lon="-43.8693">
    <ele>815.1100000000001</ele>
   </trkpt>
   <trkpt lat="-19.61654" lon="-43.86905">
    <ele>812.03</ele>
   </trkpt>
   <trkpt lat="-19.616780000000002" lon="-43.86838">
    <ele>799.9300000000001</ele>
   </trkpt>
   <trkpt lat="-19.616770000000002" lon="-43.868030000000005">
    <ele>797.95</ele>
   </trkpt>
   <trkpt lat="-19.61671" lon="-43.86735">
    <ele>785.78</ele>
   </trkpt>
   <trkpt lat="-19.616770000000002" lon="-43.8665">
    <ele>776.8000000000001</ele>
   </trkpt>
   <trkpt lat="-19.616610000640733" lon="-43.866019999536945">
    <ele>769.97</ele>
   </trkpt>
   <trkpt lat="-19.61645" lon="-43.86554">
    <ele>761.7700000000001</ele>
   </trkpt>
   <trkpt lat="-19.61627" lon="-43.8652">
    <ele>755.23</ele>
   </trkpt>
   <trkpt lat="-19.615930000000002" lon="-43.86493">
    <ele>747.45</ele>
   </trkpt>
   <trkpt lat="-19.61549" lon="-43.86469">
    <ele>736.85</ele>
   </trkpt>
   <trkpt lat="-19.61475" lon="-43.86433">
    <ele>737.0300000000001</ele>
   </trkpt>
   <trkpt lat="-19.61428" lon="-43.86424">
    <ele>743.1600000000001</ele>
   </trkpt>
   <trkpt lat="-19.61381" lon="-43.86406">
    <ele>747.0300000000001</ele>
   </trkpt>
   <trkpt lat="-19.61343" lon="-43.86381">
    <ele>752.32</ele>
   </trkpt>
   <trkpt lat="-19.613120000000002" lon="-43.8635">
    <ele>757.8300000000002</ele>
   </trkpt>
   <trkpt lat="-19.61277" lon="-43.86332">
    <ele>763.5200000000001</ele>
   </trkpt>
   <trkpt lat="-19.612460000000002" lon="-43.86301">
    <ele>765.14</ele>
   </trkpt>
   <trkpt lat="-19.61221" lon="-43.8626">
    <ele>766.34</ele>
   </trkpt>
   <trkpt lat="-19.61202" lon="-43.86209">
    <ele>769.83</ele>
   </trkpt>
   <trkpt lat="-19.61192" lon="-43.861940000000004">
    <ele>772.1800000000001</ele>
   </trkpt>
   <trkpt lat="-19.611710000000002" lon="-43.86178">
    <ele>774.34</ele>
   </trkpt>
   <trkpt lat="-19.61157" lon="-43.86155">
    <ele>775.82</ele>
   </trkpt>
   <trkpt lat="-19.61149" lon="-43.86128">
    <ele>780.46</ele>
   </trkpt>
   <trkpt lat="-19.61146" lon="-43.86093">
    <ele>783.34</ele>
   </trkpt>
   <trkpt lat="-19.6111" lon="-43.86012">
    <ele>790.1</ele>
   </trkpt>
   <trkpt lat="-19.61109" lon="-43.85992">
    <ele>791.64</ele>
   </trkpt>
   <trkpt lat="-19.611140000000002" lon="-43.85947">
    <ele>795.1</ele>
   </trkpt>
   <trkpt lat="-19.61111" lon="-43.85913">
    <ele>797.1300000000001</ele>
   </trkpt>
   <trkpt lat="-19.61108" lon="-43.85893">
    <ele>798.5600000000001</ele>
   </trkpt>
   <trkpt lat="-19.61071" lon="-43.85855">
    <ele>804.8100000000001</ele>
   </trkpt>
   <trkpt lat="-19.61041" lon="-43.858290000000004">
    <ele>811.12</ele>
   </trkpt>
   <trkpt lat="-19.61033" lon="-43.85811">
    <ele>814.07</ele>
   </trkpt>
   <trkpt lat="-19.61034" lon="-43.85781">
    <ele>817.1400000000001</ele>
   </trkpt>
   <trkpt lat="-19.610500000000002" lon="-43.85712">
    <ele>823.19</ele>
   </trkpt>
   <trkpt lat="-19.61051" lon="-43.85692">
    <ele>826.1600000000001</ele>
   </trkpt>
   <trkpt lat="-19.61042" lon="-43.8564">
    <ele>834.28</ele>
   </trkpt>
   <trkpt lat="-19.61032" lon="-43.85611">
    <ele>836.7800000000001</ele>
   </trkpt>
   <trkpt lat="-19.60996" lon="-43.85562">
    <ele>841.1500000000001</ele>
   </trkpt>
   <trkpt lat="-19.60978" lon="-43.85517">
    <ele>847.28</ele>
   </trkpt>
   <trkpt lat="-19.60961" lon="-43.85497">
    <ele>851.4</ele>
   </trkpt>
   <trkpt lat="-19.60967" lon="-43.85475">
    <ele>853.4100000000001</ele>
   </trkpt>
   <trkpt lat="-19.610030000000002" lon="-43.85432">
    <ele>852.6600000000001</ele>
   </trkpt>
   <trkpt lat="-19.61025" lon="-43.85407">
    <ele>852.3600000000001</ele>
   </trkpt>
   <trkpt lat="-19.61052" lon="-43.85385">
    <ele>852.5400000000001</ele>
   </trkpt>
   <trkpt lat="-19.61083" lon="-43.853640000000006">
    <ele>853.0600000000001</ele>
   </trkpt>
   <trkpt lat="-19.61081" lon="-43.853500000000004">
    <ele>853.45</ele>
   </trkpt>
   <trkpt lat="-19.61073" lon="-43.85316">
    <ele>852.8000000000001</ele>
   </trkpt>
   <trkpt lat="-19.61071" lon="-43.85296">
    <ele>850.25</ele>
   </trkpt>
   <trkpt lat="-19.610770000000002" lon="-43.8528">
    <ele>849.3900000000001</ele>
   </trkpt>
   <trkpt lat="-19.61082" lon="-43.85266">
    <ele>848.23</ele>
   </trkpt>
   <trkpt lat="-19.61102" lon="-43.85251">
    <ele>846.2700000000001</ele>
   </trkpt>
   <trkpt lat="-19.61109" lon="-43.85242">
    <ele>845.4100000000001</ele>
   </trkpt>
   <trkpt lat="-19.61118" lon="-43.85222">
    <ele>844.43</ele>
   </trkpt>
   <trkpt lat="-19.61136" lon="-43.851960000000005">
    <ele>840.9100000000001</ele>
   </trkpt>
   <trkpt lat="-19.61174" lon="-43.85188">
    <ele>838.7500000000001</ele>
   </trkpt>
   <trkpt lat="-19.6121" lon="-43.85197">
    <ele>838.38</ele>
   </trkpt>
   <trkpt lat="-19.61248" lon="-43.85215">
    <ele>838.57</ele>
   </trkpt>
   <trkpt lat="-19.613030000000002" lon="-43.852650000000004">
    <ele>839.4800000000001</ele>
   </trkpt>
   <trkpt lat="-19.61325" lon="-43.853030000000004">
    <ele>840.0200000000001</ele>
   </trkpt>
   <trkpt lat="-19.61334" lon="-43.85291">
    <ele>838.77</ele>
   </trkpt>
   <trkpt lat="-19.61336" lon="-43.85244">
    <ele>832.34</ele>
   </trkpt>
   <trkpt lat="-19.61344" lon="-43.85193">
    <ele>826.1100000000001</ele>
   </trkpt>
   <trkpt lat="-19.61344" lon="-43.8517">
    <ele>822.59</ele>
   </trkpt>
   <trkpt lat="-19.61362" lon="-43.851330000000004">
    <ele>817.1100000000001</ele>
   </trkpt>
   <trkpt lat="-19.61371" lon="-43.85123">
    <ele>815.24</ele>
   </trkpt>
   <trkpt lat="-19.61383" lon="-43.85112">
    <ele>813.0400000000001</ele>
   </trkpt>
   <trkpt lat="-19.61437" lon="-43.850860000000004">
    <ele>800.66</ele>
   </trkpt>
   <trkpt lat="-19.614720000000002" lon="-43.85081">
    <ele>793.22</ele>
   </trkpt>
   <trkpt lat="-19.614890000000003" lon="-43.85087">
    <ele>790.78</ele>
   </trkpt>
   <trkpt lat="-19.61493" lon="-43.85087">
    <ele>790.78</ele>
   </trkpt>
   <trkpt lat="-19.61502" lon="-43.85079">
    <ele>789.7</ele>
   </trkpt>
   <trkpt lat="-19.615270000000002" lon="-43.8509">
    <ele>788.5600000000001</ele>
   </trkpt>
   <trkpt lat="-19.6155" lon="-43.851060000000004">
    <ele>787.8900000000001</ele>
   </trkpt>
   <trkpt lat="-19.61586" lon="-43.85119">
    <ele>788.27</ele>
   </trkpt>
   <trkpt lat="-19.61635" lon="-43.8513">
    <ele>790.58</ele>
   </trkpt>
   <trkpt lat="-19.61653" lon="-43.85128">
    <ele>793.66</ele>
   </trkpt>
   <trkpt lat="-19.61673" lon="-43.85116">
    <ele>793.66</ele>
   </trkpt>
   <trkpt lat="-19.61722000024829" lon="-43.850795001201504">
    <ele>800.4000000000001</ele>
   </trkpt>
   <trkpt lat="-19.617710000000002" lon="-43.85043">
    <ele>801.94</ele>
   </trkpt>
   <trkpt lat="-19.618090000000002" lon="-43.85029">
    <ele>801.59</ele>
   </trkpt>
   <trkpt lat="-19.61842" lon="-43.85032">
    <ele>801.66</ele>
   </trkpt>
   <trkpt lat="-19.6186" lon="-43.85038">
    <ele>801.9000000000001</ele>
   </trkpt>
   <trkpt lat="-19.618850000000002" lon="-43.85052">
    <ele>802.61</ele>
   </trkpt>
   <trkpt lat="-19.61923" lon="-43.85063">
    <ele>803.86</ele>
   </trkpt>
   <trkpt lat="-19.61961" lon="-43.85069">
    <ele>805.76</ele>
   </trkpt>
   <trkpt lat="-19.619950000000003" lon="-43.85069">
    <ele>807.7</ele>
   </trkpt>
   <trkpt lat="-19.62028" lon="-43.85063">
    <ele>810.42</ele>
   </trkpt>
   <trkpt lat="-19.62064" lon="-43.85054">
    <ele>811.1400000000001</ele>
   </trkpt>
   <trkpt lat="-19.620990000000003" lon="-43.85034">
    <ele>809.6600000000001</ele>
   </trkpt>
   <trkpt lat="-19.62133" lon="-43.85">
    <ele>809.7900000000001</ele>
   </trkpt>
   <trkpt lat="-19.62153" lon="-43.84978">
    <ele>810.2600000000001</ele>
   </trkpt>
   <trkpt lat="-19.621660000000002" lon="-43.8496">
    <ele>811.08</ele>
   </trkpt>
   <trkpt lat="-19.62179" lon="-43.84944">
    <ele>811.4300000000001</ele>
   </trkpt>
   <trkpt lat="-19.62197" lon="-43.84937">
    <ele>812.5400000000001</ele>
   </trkpt>
   <trkpt lat="-19.62225" lon="-43.8494">
    <ele>813.3100000000001</ele>
   </trkpt>
   <trkpt lat="-19.622680000000003" lon="-43.8496">
    <ele>816.0400000000001</ele>
   </trkpt>
   <trkpt lat="-19.62281" lon="-43.84978">
    <ele>817.96</ele>
   </trkpt>
   <trkpt lat="-19.623060000000002" lon="-43.85027">
    <ele>822.7200000000001</ele>
   </trkpt>
   <trkpt lat="-19.6231" lon="-43.85061">
    <ele>827.5100000000001</ele>
   </trkpt>
   <trkpt lat="-19.623260000000002" lon="-43.85085">
    <ele>830.97</ele>
   </trkpt>
   <trkpt lat="-19.62367" lon="-43.85112">
    <ele>838.7800000000001</ele>
   </trkpt>
   <trkpt lat="-19.62413" lon="-43.8513">
    <ele>832.35</ele>
   </trkpt>
   <trkpt lat="-19.6244" lon="-43.851440000000004">
    <ele>830.1</ele>
   </trkpt>
   <trkpt lat="-19.624980000876302" lon="-43.8519949980215">
    <ele>826.85</ele>
   </trkpt>
   <trkpt lat="-19.62556" lon="-43.85255">
    <ele>829.8000000000001</ele>
   </trkpt>
   <trkpt lat="-19.625870000000003" lon="-43.852740000000004">
    <ele>831.8000000000001</ele>
   </trkpt>
   <trkpt lat="-19.6262" lon="-43.85291">
    <ele>834.13</ele>
   </trkpt>
   <trkpt lat="-19.62676" lon="-43.85304000000001">
    <ele>837.7</ele>
   </trkpt>
   <trkpt lat="-19.62706" lon="-43.853">
    <ele>838.2700000000001</ele>
   </trkpt>
   <trkpt lat="-19.627580000000002" lon="-43.85273">
    <ele>837.45</ele>
   </trkpt>
   <trkpt lat="-19.62772" lon="-43.85271">
    <ele>838.1400000000001</ele>
   </trkpt>
   <trkpt lat="-19.628230000000002" lon="-43.85284">
    <ele>843.0300000000001</ele>
   </trkpt>
   <trkpt lat="-19.62838" lon="-43.85282">
    <ele>844.1400000000001</ele>
   </trkpt>
   <trkpt lat="-19.62892" lon="-43.85244">
    <ele>839.67</ele>
   </trkpt>
   <trkpt lat="-19.629170000000002" lon="-43.85222">
    <ele>837.7500000000001</ele>
   </trkpt>
   <trkpt lat="-19.6292" lon="-43.852000000000004">
    <ele>836.13</ele>
   </trkpt>
   <trkpt lat="-19.62913" lon="-43.85179">
    <ele>832.79</ele>
   </trkpt>
   <trkpt lat="-19.62911" lon="-43.85155">
    <ele>831.2100000000002</ele>
   </trkpt>
   <trkpt lat="-19.629360000000002" lon="-43.85148">
    <ele>830.19</ele>
   </trkpt>
   <trkpt lat="-19.62996" lon="-43.851510000000005">
    <ele>834.1800000000001</ele>
   </trkpt>
   <trkpt lat="-19.63042" lon="-43.85148">
    <ele>833.9200000000001</ele>
   </trkpt>
   <trkpt lat="-19.630990000055892" lon="-43.851534999809424">
    <ele>836.5100000000001</ele>
   </trkpt>
   <trkpt lat="-19.63156" lon="-43.85159">
    <ele>841.4800000000001</ele>
   </trkpt>
   <trkpt lat="-19.63202" lon="-43.851510000000005">
    <ele>847.2900000000001</ele>
   </trkpt>
   <trkpt lat="-19.632350000000002" lon="-43.851330000000004">
    <ele>851.57</ele>
   </trkpt>
   <trkpt lat="-19.632700000501917" lon="-43.85095000071608">
    <ele>852.5500000000001</ele>
   </trkpt>
   <trkpt lat="-19.63305" lon="-43.850570000000005">
    <ele>853.26</ele>
   </trkpt>
   <trkpt lat="-19.63315" lon="-43.85049">
    <ele>854.0200000000001</ele>
   </trkpt>
   <trkpt lat="-19.63353" lon="-43.85038">
    <ele>857.5200000000001</ele>
   </trkpt>
   <trkpt lat="-19.634320000000002" lon="-43.85047">
    <ele>866.86</ele>
   </trkpt>
   <trkpt lat="-19.634510000000002" lon="-43.850590000000004">
    <ele>867.83</ele>
   </trkpt>
   <trkpt lat="-19.63481" lon="-43.85074">
    <ele>868.23</ele>
   </trkpt>
   <trkpt lat="-19.635450000000002" lon="-43.850880000000004">
    <ele>872.1800000000001</ele>
   </trkpt>
   <trkpt lat="-19.63586" lon="-43.850860000000004">
    <ele>877.09</ele>
   </trkpt>
   <trkpt lat="-19.63597" lon="-43.850880000000004">
    <ele>879.0400000000001</ele>
   </trkpt>
   <trkpt lat="-19.63595" lon="-43.85072">
    <ele>880.2</ele>
   </trkpt>
   <trkpt lat="-19.636120000000002" lon="-43.85034">
    <ele>883.6</ele>
   </trkpt>
   <trkpt lat="-19.636480000000002" lon="-43.85005">
    <ele>887.09</ele>
   </trkpt>
   <trkpt lat="-19.636850000000003" lon="-43.84982">
    <ele>890.41</ele>
   </trkpt>
   <trkpt lat="-19.637160000435316" lon="-43.849460000605184">
    <ele>889.19</ele>
   </trkpt>
   <trkpt lat="-19.63747" lon="-43.84910000000001">
    <ele>889.5</ele>
   </trkpt>
   <trkpt lat="-19.63747" lon="-43.849090000000004">
    <ele>889.5</ele>
   </trkpt>
   <trkpt lat="-19.637410000000003" lon="-43.84888">
    <ele>891.21</ele>
   </trkpt>
   <trkpt lat="-19.63717" lon="-43.84864">
    <ele>890.7100000000002</ele>
   </trkpt>
   <trkpt lat="-19.63701" lon="-43.848240000000004">
    <ele>890.3700000000001</ele>
   </trkpt>
   <trkpt lat="-19.63707" lon="-43.84783">
    <ele>889.7900000000001</ele>
   </trkpt>
   <trkpt lat="-19.63670000096469" lon="-43.847229998569425">
    <ele>888.47</ele>
   </trkpt>
   <trkpt lat="-19.63633" lon="-43.846630000000005">
    <ele>883.71</ele>
   </trkpt>
   <trkpt lat="-19.63584" lon="-43.84613">
    <ele>877.4300000000001</ele>
   </trkpt>
   <trkpt lat="-19.63542" lon="-43.84555">
    <ele>880.6100000000001</ele>
   </trkpt>
   <trkpt lat="-19.63501" lon="-43.84508">
    <ele>880.6700000000001</ele>
   </trkpt>
   <trkpt lat="-19.63484" lon="-43.84483">
    <ele>878.2800000000001</ele>
   </trkpt>
   <trkpt lat="-19.63475" lon="-43.84463">
    <ele>876.2500000000001</ele>
   </trkpt>
   <trkpt lat="-19.634230000000002" lon="-43.84427">
    <ele>870.9100000000001</ele>
   </trkpt>
   <trkpt lat="-19.63398" lon="-43.84398">
    <ele>865.22</ele>
   </trkpt>
   <trkpt lat="-19.633670000000002" lon="-43.84351">
    <ele>857.45</ele>
   </trkpt>
   <trkpt lat="-19.6329800008808" lon="-43.842949997606176">
    <ele>850.82</ele>
   </trkpt>
   <trkpt lat="-19.63229" lon="-43.84239">
    <ele>842.21</ele>
   </trkpt>
   <trkpt lat="-19.631950000000003" lon="-43.84194">
    <ele>840.55</ele>
   </trkpt>
   <trkpt lat="-19.63173" lon="-43.84181">
    <ele>840.5300000000001</ele>
   </trkpt>
   <trkpt lat="-19.630970000792637" lon="-43.84143666314521">
    <ele>836.3900000000001</ele>
   </trkpt>
   <trkpt lat="-19.630210000815516" lon="-43.841063329823186">
    <ele>828.6500000000001</ele>
   </trkpt>
   <trkpt lat="-19.629450000000002" lon="-43.84069">
    <ele>826.7</ele>
   </trkpt>
   <trkpt lat="-19.62927" lon="-43.84035">
    <ele>823.61</ele>
   </trkpt>
   <trkpt lat="-19.629067505364127" lon="-43.83954499694079">
    <ele>814.4300000000001</ele>
   </trkpt>
   <trkpt lat="-19.6288650071496" lon="-43.838739995911">
    <ele>812.19</ele>
   </trkpt>
   <trkpt lat="-19.62866250535649" lon="-43.837934996910626">
    <ele>816.5500000000001</ele>
   </trkpt>
   <trkpt lat="-19.62846" lon="-43.83713">
    <ele>826.35</ele>
   </trkpt>
   <trkpt lat="-19.62835" lon="-43.83693">
    <ele>828.3300000000002</ele>
   </trkpt>
   <trkpt lat="-19.627730000000003" lon="-43.83632">
    <ele>835.0600000000001</ele>
   </trkpt>
   <trkpt lat="-19.62787333616283" lon="-43.83560333464568">
    <ele>830.74</ele>
   </trkpt>
   <trkpt lat="-19.62801666948945" lon="-43.83488666801259">
    <ele>817.9300000000001</ele>
   </trkpt>
   <trkpt lat="-19.62816" lon="-43.83417">
    <ele>803.4000000000001</ele>
   </trkpt>
   <trkpt lat="-19.628340004850916" lon="-43.83340500255733">
    <ele>790.54</ele>
   </trkpt>
   <trkpt lat="-19.628520006470115" lon="-43.832640003400364">
    <ele>781.45</ele>
   </trkpt>
   <trkpt lat="-19.628700004857578" lon="-43.83187500252915">
    <ele>769.83</ele>
   </trkpt>
   <trkpt lat="-19.628880000000002" lon="-43.83111">
    <ele>765.73</ele>
   </trkpt>
   <trkpt lat="-19.62892" lon="-43.83059">
    <ele>759.72</ele>
   </trkpt>
   <trkpt lat="-19.62875" lon="-43.83012">
    <ele>753.77</ele>
   </trkpt>
   <trkpt lat="-19.62825" lon="-43.82992">
    <ele>745.97</ele>
   </trkpt>
   <trkpt lat="-19.62789" lon="-43.82963">
    <ele>740.6</ele>
   </trkpt>
   <trkpt lat="-19.627510001525778" lon="-43.828884998224886">
    <ele>730.74</ele>
   </trkpt>
   <trkpt lat="-19.62713" lon="-43.828140000000005">
    <ele>725.2900000000001</ele>
   </trkpt>
   <trkpt lat="-19.62685" lon="-43.82779">
    <ele>722.0200000000001</ele>
   </trkpt>
   <trkpt lat="-19.62658000133527" lon="-43.82708999877814">
    <ele>712.11</ele>
   </trkpt>
   <trkpt lat="-19.62631" lon="-43.82639">
    <ele>706.35</ele>
   </trkpt>
   <trkpt lat="-19.62637" lon="-43.82616">
    <ele>703.34</ele>
   </trkpt>
   <trkpt lat="-19.62668" lon="-43.82538">
    <ele>690.85</ele>
   </trkpt>
   <trkpt lat="-19.62659" lon="-43.82486">
    <ele>687.2</ele>
   </trkpt>
   <trkpt lat="-19.626440000000002" lon="-43.82424">
    <ele>678.91</ele>
   </trkpt>
   <trkpt lat="-19.62646" lon="-43.82399">
    <ele>677.6800000000001</ele>
   </trkpt>
   <trkpt lat="-19.62658" lon="-43.8237">
    <ele>678.5000000000001</ele>
   </trkpt>
   <trkpt lat="-19.62655" lon="-43.823550000000004">
    <ele>679.7500000000001</ele>
   </trkpt>
   <trkpt lat="-19.62619" lon="-43.82321">
    <ele>684.18</ele>
   </trkpt>
   <trkpt lat="-19.62612" lon="-43.822990000000004">
    <ele>684.0500000000001</ele>
   </trkpt>
   <trkpt lat="-19.62618" lon="-43.822720000000004">
    <ele>682.8100000000001</ele>
   </trkpt>
   <trkpt lat="-19.62664000116822" lon="-43.822080001780364">
    <ele>681.7700000000001</ele>
   </trkpt>
   <trkpt lat="-19.627100000000002" lon="-43.82144">
    <ele>677.44</ele>
   </trkpt>
   <trkpt lat="-19.627380000000002" lon="-43.82095">
    <ele>670.5000000000001</ele>
   </trkpt>
   <trkpt lat="-19.6274" lon="-43.82077">
    <ele>669.08</ele>
   </trkpt>
   <trkpt lat="-19.6273" lon="-43.81987">
    <ele>668.52</ele>
   </trkpt>
   <trkpt lat="-19.62698000077222" lon="-43.81932499883303">
    <ele>673.2600000000001</ele>
   </trkpt>
   <trkpt lat="-19.62666" lon="-43.818780000000004">
    <ele>674.98</ele>
   </trkpt>
   <trkpt lat="-19.62666" lon="-43.818270000000005">
    <ele>673.2900000000001</ele>
   </trkpt>
   <trkpt lat="-19.626620000000003" lon="-43.81803">
    <ele>672.5000000000001</ele>
   </trkpt>
   <trkpt lat="-19.62677" lon="-43.81776000000001">
    <ele>671.58</ele>
   </trkpt>
   <trkpt lat="-19.62678" lon="-43.81774">
    <ele>671.58</ele>
   </trkpt>
   <trkpt lat="-19.627090000000003" lon="-43.81757">
    <ele>670.78</ele>
   </trkpt>
   <trkpt lat="-19.6276" lon="-43.81736">
    <ele>670.12</ele>
   </trkpt>
   <trkpt lat="-19.62825" lon="-43.81714">
    <ele>669.8000000000001</ele>
   </trkpt>
   <trkpt lat="-19.628865000015104" lon="-43.81698500060629">
    <ele>669.5000000000001</ele>
   </trkpt>
   <trkpt lat="-19.62948" lon="-43.81683">
    <ele>669.9200000000001</ele>
   </trkpt>
   <trkpt lat="-19.62986" lon="-43.81665">
    <ele>670.0200000000001</ele>
   </trkpt>
   <trkpt lat="-19.63051" lon="-43.81627">
    <ele>669.5500000000001</ele>
   </trkpt>
   <trkpt lat="-19.6311" lon="-43.816">
    <ele>668.97</ele>
   </trkpt>
   <trkpt lat="-19.631520000000002" lon="-43.81586">
    <ele>668.4300000000001</ele>
   </trkpt>
   <trkpt lat="-19.63212333348601" lon="-43.816013332187204">
    <ele>667.76</ele>
   </trkpt>
   <trkpt lat="-19.632726666842164" lon="-43.81616666552632">
    <ele>665.2900000000001</ele>
   </trkpt>
   <trkpt lat="-19.63333" lon="-43.816320000000005">
    <ele>663.96</ele>
   </trkpt>
   <trkpt lat="-19.634110000228524" lon="-43.81660499861737">
    <ele>666.12</ele>
   </trkpt>
   <trkpt lat="-19.634890000000002" lon="-43.81689">
    <ele>668.8700000000001</ele>
   </trkpt>
   <trkpt lat="-19.63539" lon="-43.817150000000005">
    <ele>675.27</ele>
   </trkpt>
   <trkpt lat="-19.63548" lon="-43.81727">
    <ele>677.5000000000001</ele>
   </trkpt>
   <trkpt lat="-19.63548" lon="-43.81743">
    <ele>679.7700000000001</ele>
   </trkpt>
   <trkpt lat="-19.635170000000002" lon="-43.817710000000005">
    <ele>682.08</ele>
   </trkpt>
   <trkpt lat="-19.635140000000003" lon="-43.81795">
    <ele>682.0600000000001</ele>
   </trkpt>
   <trkpt lat="-19.63528" lon="-43.81828">
    <ele>679.82</ele>
   </trkpt>
   <trkpt lat="-19.635715000671986" lon="-43.81876499871111">
    <ele>673.1</ele>
   </trkpt>
   <trkpt lat="-19.63615" lon="-43.819250000000004">
    <ele>669.63</ele>
   </trkpt>
   <trkpt lat="-19.63652" lon="-43.8194">
    <ele>668.9600000000002</ele>
   </trkpt>
   <trkpt lat="-19.6368" lon="-43.81962">
    <ele>668.94</ele>
   </trkpt>
   <trkpt lat="-19.63699" lon="-43.81994">
    <ele>669.0100000000001</ele>
   </trkpt>
   <trkpt lat="-19.63717" lon="-43.82041">
    <ele>669.36</ele>
   </trkpt>
   <trkpt lat="-19.63744" lon="-43.82088">
    <ele>668.8900000000001</ele>
   </trkpt>
   <trkpt lat="-19.63746" lon="-43.82108">
    <ele>669.1</ele>
   </trkpt>
   <trkpt lat="-19.63739" lon="-43.82121">
    <ele>669.1</ele>
   </trkpt>
   <trkpt lat="-19.637140000000002" lon="-43.82159">
    <ele>669.82</ele>
   </trkpt>
   <trkpt lat="-19.637140000000002" lon="-43.8222">
    <ele>671.7900000000001</ele>
   </trkpt>
   <trkpt lat="-19.63725" lon="-43.82238">
    <ele>673.45</ele>
   </trkpt>
   <trkpt lat="-19.63764" lon="-43.82256">
    <ele>678.54</ele>
   </trkpt>
   <trkpt lat="-19.637770000000003" lon="-43.822720000000004">
    <ele>681.1</ele>
   </trkpt>
   <trkpt lat="-19.63781" lon="-43.82292">
    <ele>681.8700000000001</ele>
   </trkpt>
   <trkpt lat="-19.637520000000002" lon="-43.823570000000004">
    <ele>681.9900000000001</ele>
   </trkpt>
   <trkpt lat="-19.63747" lon="-43.82385">
    <ele>680.88</ele>
   </trkpt>
   <trkpt lat="-19.637620000000002" lon="-43.82419">
    <ele>678.15</ele>
   </trkpt>
   <trkpt lat="-19.63775" lon="-43.82437">
    <ele>676.35</ele>
   </trkpt>
   <trkpt lat="-19.63832" lon="-43.82459">
    <ele>675.34</ele>
   </trkpt>
   <trkpt lat="-19.638450000000002" lon="-43.82484">
    <ele>676.7</ele>
   </trkpt>
   <trkpt lat="-19.63849" lon="-43.82526">
    <ele>677.4300000000001</ele>
   </trkpt>
   <trkpt lat="-19.63848" lon="-43.82553">
    <ele>676.91</ele>
   </trkpt>
   <trkpt lat="-19.63858" lon="-43.825720000000004">
    <ele>676.74</ele>
   </trkpt>
   <trkpt lat="-19.63886" lon="-43.82583">
    <ele>677.2900000000001</ele>
   </trkpt>
   <trkpt lat="-19.639400000000002" lon="-43.825810000000004">
    <ele>682.3</ele>
   </trkpt>
   <trkpt lat="-19.63955" lon="-43.82592">
    <ele>684.3</ele>
   </trkpt>
   <trkpt lat="-19.639680000000002" lon="-43.82643">
    <ele>686.2600000000001</ele>
   </trkpt>
   <trkpt lat="-19.63998" lon="-43.8271">
    <ele>693.13</ele>
   </trkpt>
   <trkpt lat="-19.640060000000002" lon="-43.828">
    <ele>694.3600000000001</ele>
   </trkpt>
   <trkpt lat="-19.64018" lon="-43.82856">
    <ele>693.5600000000001</ele>
   </trkpt>
   <trkpt lat="-19.64027" lon="-43.82871">
    <ele>692.49</ele>
   </trkpt>
   <trkpt lat="-19.64065" lon="-43.828920000000004">
    <ele>693.0200000000001</ele>
   </trkpt>
   <trkpt lat="-19.6414" lon="-43.82918">
    <ele>698.33</ele>
   </trkpt>
   <trkpt lat="-19.641840000000002" lon="-43.829390000000004">
    <ele>698.2100000000002</ele>
   </trkpt>
   <trkpt lat="-19.642030000000002" lon="-43.82954">
    <ele>698.07</ele>
   </trkpt>
   <trkpt lat="-19.64224" lon="-43.830040000000004">
    <ele>696.86</ele>
   </trkpt>
   <trkpt lat="-19.64262" lon="-43.83059">
    <ele>697.6300000000001</ele>
   </trkpt>
   <trkpt lat="-19.6428" lon="-43.830870000000004">
    <ele>698.22</ele>
   </trkpt>
   <trkpt lat="-19.6429" lon="-43.83135">
    <ele>697.45</ele>
   </trkpt>
   <trkpt lat="-19.64299" lon="-43.83149">
    <ele>696.5</ele>
   </trkpt>
   <trkpt lat="-19.6433" lon="-43.83167">
    <ele>695.9200000000001</ele>
   </trkpt>
   <trkpt lat="-19.64402" lon="-43.83178">
    <ele>697.69</ele>
   </trkpt>
   <trkpt lat="-19.64453500015499" lon="-43.83202499920874">
    <ele>700.4100000000001</ele>
   </trkpt>
   <trkpt lat="-19.64505" lon="-43.83227">
    <ele>708.79</ele>
   </trkpt>
   <trkpt lat="-19.64551" lon="-43.83263">
    <ele>714.83</ele>
   </trkpt>
   <trkpt lat="-19.6456" lon="-43.83288">
    <ele>715.5100000000001</ele>
   </trkpt>
   <trkpt lat="-19.645580000000002" lon="-43.83319">
    <ele>714.89</ele>
   </trkpt>
   <trkpt lat="-19.64562" lon="-43.833600000000004">
    <ele>711.79</ele>
   </trkpt>
   <trkpt lat="-19.645860000000003" lon="-43.83404">
    <ele>707.3900000000001</ele>
   </trkpt>
   <trkpt lat="-19.64602" lon="-43.83422">
    <ele>705.0600000000001</ele>
   </trkpt>
   <trkpt lat="-19.646605000165" lon="-43.83446499910661">
    <ele>703.0</ele>
   </trkpt>
   <trkpt lat="-19.647190000000002" lon="-43.83471">
    <ele>701.76</ele>
   </trkpt>
   <trkpt lat="-19.64758" lon="-43.83516">
    <ele>701.2400000000001</ele>
   </trkpt>
   <trkpt lat="-19.64792500059948" lon="-43.83563999891632">
    <ele>702.2100000000002</ele>
   </trkpt>
   <trkpt lat="-19.64827" lon="-43.83612">
    <ele>705.6500000000001</ele>
   </trkpt>
   <trkpt lat="-19.64834" lon="-43.83641">
    <ele>707.1500000000001</ele>
   </trkpt>
   <trkpt lat="-19.648260000763763" lon="-43.83694000034696">
    <ele>709.5400000000001</ele>
   </trkpt>
   <trkpt lat="-19.64818" lon="-43.83747">
    <ele>709.5300000000001</ele>
   </trkpt>
   <trkpt lat="-19.648100000612324" lon="-43.83795000038549">
    <ele>711.2900000000001</ele>
   </trkpt>
   <trkpt lat="-19.648020000000002" lon="-43.83843">
    <ele>716.34</ele>
   </trkpt>
   <trkpt lat="-19.648030000000002" lon="-43.83863">
    <ele>717.94</ele>
   </trkpt>
   <trkpt lat="-19.648360001081386" lon="-43.83924499880275">
    <ele>719.69</ele>
   </trkpt>
   <trkpt lat="-19.648690000000002" lon="-43.83986">
    <ele>719.01</ele>
   </trkpt>
   <trkpt lat="-19.649075001315563" lon="-43.84054499839007">
    <ele>718.13</ele>
   </trkpt>
   <trkpt lat="-19.64946" lon="-43.84123">
    <ele>718.0600000000001</ele>
   </trkpt>
   <trkpt lat="-19.64987" lon="-43.84185">
    <ele>721.94</ele>
   </trkpt>
   <trkpt lat="-19.650270000000003" lon="-43.84264">
    <ele>724.1200000000001</ele>
   </trkpt>
   <trkpt lat="-19.6505" lon="-43.843270000000004">
    <ele>721.48</ele>
   </trkpt>
   <trkpt lat="-19.6507" lon="-43.8436">
    <ele>721.1700000000001</ele>
   </trkpt>
   <trkpt lat="-19.65121000075787" lon="-43.84412499832726">
    <ele>723.69</ele>
   </trkpt>
   <trkpt lat="-19.65172" lon="-43.84465">
    <ele>723.58</ele>
   </trkpt>
   <trkpt lat="-19.65181" lon="-43.844860000000004">
    <ele>722.4200000000001</ele>
   </trkpt>
   <trkpt lat="-19.651810000791087" lon="-43.84539500016839">
    <ele>720.62</ele>
   </trkpt>
   <trkpt lat="-19.65181" lon="-43.84593">
    <ele>720.8100000000001</ele>
   </trkpt>
   <trkpt lat="-19.651915000976118" lon="-43.84651499978573">
    <ele>721.71</ele>
   </trkpt>
   <trkpt lat="-19.65202" lon="-43.847100000000005">
    <ele>722.89</ele>
   </trkpt>
   <trkpt lat="-19.651925001185333" lon="-43.84775500039084">
    <ele>721.95</ele>
   </trkpt>
   <trkpt lat="-19.65183" lon="-43.84841">
    <ele>721.4</ele>
   </trkpt>
   <trkpt lat="-19.65189" lon="-43.848510000000005">
    <ele>721.4</ele>
   </trkpt>
   <trkpt lat="-19.651960000000003" lon="-43.84861">
    <ele>721.33</ele>
   </trkpt>
   <trkpt lat="-19.65209" lon="-43.84874000000001">
    <ele>721.32</ele>
   </trkpt>
   <trkpt lat="-19.6525" lon="-43.84904">
    <ele>721.0500000000001</ele>
   </trkpt>
   <trkpt lat="-19.65311" lon="-43.84924">
    <ele>722.0500000000001</ele>
   </trkpt>
   <trkpt lat="-19.65333" lon="-43.849360000000004">
    <ele>722.0500000000001</ele>
   </trkpt>
   <trkpt lat="-19.65399" lon="-43.84998">
    <ele>723.2900000000001</ele>
   </trkpt>
   <trkpt lat="-19.65446" lon="-43.85065">
    <ele>725.2</ele>
   </trkpt>
   <trkpt lat="-19.65462" lon="-43.8511">
    <ele>727.3900000000001</ele>
   </trkpt>
   <trkpt lat="-19.65463" lon="-43.85161">
    <ele>729.8500000000001</ele>
   </trkpt>
   <trkpt lat="-19.654605002289856" lon="-43.85252000011152">
    <ele>733.69</ele>
   </trkpt>
   <trkpt lat="-19.654580000000003" lon="-43.85343">
    <ele>736.6</ele>
   </trkpt>
  </trkseg>
 </trk>
</gpx>
